{
  "type": "FeatureCollection",
  "features": [
    {
      "type": "Feature",
      "geometry": {
        "type": "Point",
        "coordinates": [4.8894, 43.4408]
      },
      "properties": {
        "cluster_id": "ALERT-20261006-001",
        "alerta_operativa": "alta",
        "score": 118.6,
        "n_focos": 37,
        "n_ultimas_6h": 4,
        "n_ultimas_24h": 26,
        "frp_total_mw": 118.6,
        "frp_max_mw": 11.6,
        "edad_min_h": 3.5,
        "ultima_deteccion_utc": "2026-10-06 12:25:00",
        "sensores": "VIIRS_NOAA20_NRT, VIIRS_SNPP_NRT",
        "satellites": "N, N20",
        "instruments": "VIIRS",
        "popup_label": "<strong>ALERT-20261006-001<\/strong><br>Nivel: alta<br>Focos: 37<br>Últimas 6 h: 4<br>FRP total: 118.6 MW<br>Última detección UTC: 2026-10-06 12:25:00"
      }
    },
    {
      "type": "Feature",
      "geometry": {
        "type": "Point",
        "coordinates": [-0.2619, 35.8014]
      },
      "properties": {
        "cluster_id": "ALERT-20261006-002",
        "alerta_operativa": "alta",
        "score": 79.2,
        "n_focos": 36,
        "n_ultimas_6h": 2,
        "n_ultimas_24h": 12,
        "frp_total_mw": 99.4,
        "frp_max_mw": 6.1,
        "edad_min_h": 2.1,
        "ultima_deteccion_utc": "2026-10-06 13:46:00",
        "sensores": "VIIRS_NOAA20_NRT, VIIRS_SNPP_NRT",
        "satellites": "N, N20",
        "instruments": "VIIRS",
        "popup_label": "<strong>ALERT-20261006-002<\/strong><br>Nivel: alta<br>Focos: 36<br>Últimas 6 h: 2<br>FRP total: 99.4 MW<br>Última detección UTC: 2026-10-06 13:46:00"
      }
    },
    {
      "type": "Feature",
      "geometry": {
        "type": "Point",
        "coordinates": [3.1683, 32.5549]
      },
      "properties": {
        "cluster_id": "ALERT-20261006-003",
        "alerta_operativa": "alta",
        "score": 78.9,
        "n_focos": 25,
        "n_ultimas_6h": 3,
        "n_ultimas_24h": 15,
        "frp_total_mw": 82.9,
        "frp_max_mw": 9.3,
        "edad_min_h": 3.5,
        "ultima_deteccion_utc": "2026-10-06 12:23:00",
        "sensores": "VIIRS_NOAA20_NRT, VIIRS_SNPP_NRT",
        "satellites": "N, N20",
        "instruments": "VIIRS",
        "popup_label": "<strong>ALERT-20261006-003<\/strong><br>Nivel: alta<br>Focos: 25<br>Últimas 6 h: 3<br>FRP total: 82.9 MW<br>Última detección UTC: 2026-10-06 12:23:00"
      }
    },
    {
      "type": "Feature",
      "geometry": {
        "type": "Point",
        "coordinates": [3.3232, 33.1278]
      },
      "properties": {
        "cluster_id": "ALERT-20261006-004",
        "alerta_operativa": "alta",
        "score": 58,
        "n_focos": 18,
        "n_ultimas_6h": 3,
        "n_ultimas_24h": 9,
        "frp_total_mw": 31.5,
        "frp_max_mw": 4.2,
        "edad_min_h": 2.1,
        "ultima_deteccion_utc": "2026-10-06 13:46:00",
        "sensores": "VIIRS_NOAA20_NRT, VIIRS_SNPP_NRT",
        "satellites": "N, N20",
        "instruments": "VIIRS",
        "popup_label": "<strong>ALERT-20261006-004<\/strong><br>Nivel: alta<br>Focos: 18<br>Últimas 6 h: 3<br>FRP total: 31.5 MW<br>Última detección UTC: 2026-10-06 13:46:00"
      }
    },
    {
      "type": "Feature",
      "geometry": {
        "type": "Point",
        "coordinates": [3.9869, 32.2766]
      },
      "properties": {
        "cluster_id": "ALERT-20261006-005",
        "alerta_operativa": "alta",
        "score": 54.2,
        "n_focos": 18,
        "n_ultimas_6h": 3,
        "n_ultimas_24h": 7,
        "frp_total_mw": 36.4,
        "frp_max_mw": 6.1,
        "edad_min_h": 2.2,
        "ultima_deteccion_utc": "2026-10-06 13:44:00",
        "sensores": "VIIRS_NOAA20_NRT, VIIRS_SNPP_NRT",
        "satellites": "N, N20",
        "instruments": "VIIRS",
        "popup_label": "<strong>ALERT-20261006-005<\/strong><br>Nivel: alta<br>Focos: 18<br>Últimas 6 h: 3<br>FRP total: 36.4 MW<br>Última detección UTC: 2026-10-06 13:44:00"
      }
    },
    {
      "type": "Feature",
      "geometry": {
        "type": "Point",
        "coordinates": [4.0205, 32.3988]
      },
      "properties": {
        "cluster_id": "ALERT-20261006-006",
        "alerta_operativa": "alta",
        "score": 42.7,
        "n_focos": 10,
        "n_ultimas_6h": 3,
        "n_ultimas_24h": 6,
        "frp_total_mw": 16.5,
        "frp_max_mw": 4.5,
        "edad_min_h": 3.5,
        "ultima_deteccion_utc": "2026-10-06 12:23:00",
        "sensores": "VIIRS_NOAA20_NRT, VIIRS_SNPP_NRT",
        "satellites": "N, N20",
        "instruments": "VIIRS",
        "popup_label": "<strong>ALERT-20261006-006<\/strong><br>Nivel: alta<br>Focos: 10<br>Últimas 6 h: 3<br>FRP total: 16.5 MW<br>Última detección UTC: 2026-10-06 12:23:00"
      }
    },
    {
      "type": "Feature",
      "geometry": {
        "type": "Point",
        "coordinates": [1.0954, 35.3736]
      },
      "properties": {
        "cluster_id": "ALERT-20261006-007",
        "alerta_operativa": "alta",
        "score": 33,
        "n_focos": 5,
        "n_ultimas_6h": 3,
        "n_ultimas_24h": 3,
        "frp_total_mw": 32.9,
        "frp_max_mw": 10.1,
        "edad_min_h": 2.1,
        "ultima_deteccion_utc": "2026-10-06 13:46:00",
        "sensores": "VIIRS_NOAA20_NRT, VIIRS_SNPP_NRT",
        "satellites": "N, N20",
        "instruments": "VIIRS",
        "popup_label": "<strong>ALERT-20261006-007<\/strong><br>Nivel: alta<br>Focos: 5<br>Últimas 6 h: 3<br>FRP total: 32.9 MW<br>Última detección UTC: 2026-10-06 13:46:00"
      }
    },
    {
      "type": "Feature",
      "geometry": {
        "type": "Point",
        "coordinates": [3.3574, 44.5929]
      },
      "properties": {
        "cluster_id": "ALERT-20261006-008",
        "alerta_operativa": "alta",
        "score": 29.3,
        "n_focos": 3,
        "n_ultimas_6h": 3,
        "n_ultimas_24h": 3,
        "frp_total_mw": 13.4,
        "frp_max_mw": 5.5,
        "edad_min_h": 3.5,
        "ultima_deteccion_utc": "2026-10-06 12:27:00",
        "sensores": "VIIRS_NOAA20_NRT, VIIRS_SNPP_NRT",
        "satellites": "N, N20",
        "instruments": "VIIRS",
        "popup_label": "<strong>ALERT-20261006-008<\/strong><br>Nivel: alta<br>Focos: 3<br>Últimas 6 h: 3<br>FRP total: 13.4 MW<br>Última detección UTC: 2026-10-06 12:27:00"
      }
    },
    {
      "type": "Feature",
      "geometry": {
        "type": "Point",
        "coordinates": [3.7592, 31.7459]
      },
      "properties": {
        "cluster_id": "ALERT-20261006-009",
        "alerta_operativa": "alta",
        "score": 23.3,
        "n_focos": 2,
        "n_ultimas_6h": 2,
        "n_ultimas_24h": 2,
        "frp_total_mw": 37.4,
        "frp_max_mw": 23.5,
        "edad_min_h": 3.5,
        "ultima_deteccion_utc": "2026-10-06 12:23:00",
        "sensores": "VIIRS_NOAA20_NRT",
        "satellites": "N20",
        "instruments": "VIIRS",
        "popup_label": "<strong>ALERT-20261006-009<\/strong><br>Nivel: alta<br>Focos: 2<br>Últimas 6 h: 2<br>FRP total: 37.4 MW<br>Última detección UTC: 2026-10-06 12:23:00"
      }
    },
    {
      "type": "Feature",
      "geometry": {
        "type": "Point",
        "coordinates": [-6.9421, 32.8478]
      },
      "properties": {
        "cluster_id": "ALERT-20261006-010",
        "alerta_operativa": "alta",
        "score": 21.1,
        "n_focos": 2,
        "n_ultimas_6h": 2,
        "n_ultimas_24h": 2,
        "frp_total_mw": 12.1,
        "frp_max_mw": 6,
        "edad_min_h": 2.1,
        "ultima_deteccion_utc": "2026-10-06 13:46:00",
        "sensores": "VIIRS_SNPP_NRT",
        "satellites": "N",
        "instruments": "VIIRS",
        "popup_label": "<strong>ALERT-20261006-010<\/strong><br>Nivel: alta<br>Focos: 2<br>Últimas 6 h: 2<br>FRP total: 12.1 MW<br>Última detección UTC: 2026-10-06 13:46:00"
      }
    },
    {
      "type": "Feature",
      "geometry": {
        "type": "Point",
        "coordinates": [1.6521, 35.5976]
      },
      "properties": {
        "cluster_id": "ALERT-20261006-011",
        "alerta_operativa": "alta",
        "score": 20.9,
        "n_focos": 2,
        "n_ultimas_6h": 2,
        "n_ultimas_24h": 2,
        "frp_total_mw": 10.6,
        "frp_max_mw": 5.3,
        "edad_min_h": 2.1,
        "ultima_deteccion_utc": "2026-10-06 13:46:00",
        "sensores": "VIIRS_SNPP_NRT",
        "satellites": "N",
        "instruments": "VIIRS",
        "popup_label": "<strong>ALERT-20261006-011<\/strong><br>Nivel: alta<br>Focos: 2<br>Últimas 6 h: 2<br>FRP total: 10.6 MW<br>Última detección UTC: 2026-10-06 13:46:00"
      }
    },
    {
      "type": "Feature",
      "geometry": {
        "type": "Point",
        "coordinates": [3.2181, 32.8842]
      },
      "properties": {
        "cluster_id": "ALERT-20261006-012",
        "alerta_operativa": "media",
        "score": 154.8,
        "n_focos": 78,
        "n_ultimas_6h": 1,
        "n_ultimas_24h": 31,
        "frp_total_mw": 131.6,
        "frp_max_mw": 5.8,
        "edad_min_h": 3.5,
        "ultima_deteccion_utc": "2026-10-06 12:23:00",
        "sensores": "VIIRS_NOAA20_NRT, VIIRS_SNPP_NRT",
        "satellites": "N, N20",
        "instruments": "VIIRS",
        "popup_label": "<strong>ALERT-20261006-012<\/strong><br>Nivel: media<br>Focos: 78<br>Últimas 6 h: 1<br>FRP total: 131.6 MW<br>Última detección UTC: 2026-10-06 12:23:00"
      }
    },
    {
      "type": "Feature",
      "geometry": {
        "type": "Point",
        "coordinates": [3.7479, 36.1805]
      },
      "properties": {
        "cluster_id": "ALERT-20261006-013",
        "alerta_operativa": "media",
        "score": 31.2,
        "n_focos": 13,
        "n_ultimas_6h": 0,
        "n_ultimas_24h": 6,
        "frp_total_mw": 20.7,
        "frp_max_mw": 2.2,
        "edad_min_h": 13.2,
        "ultima_deteccion_utc": "2026-10-06 02:43:00",
        "sensores": "VIIRS_NOAA20_NRT, VIIRS_SNPP_NRT",
        "satellites": "N, N20",
        "instruments": "VIIRS",
        "popup_label": "<strong>ALERT-20261006-013<\/strong><br>Nivel: media<br>Focos: 13<br>Últimas 6 h: 0<br>FRP total: 20.7 MW<br>Última detección UTC: 2026-10-06 02:43:00"
      }
    },
    {
      "type": "Feature",
      "geometry": {
        "type": "Point",
        "coordinates": [3.1538, 36.6589]
      },
      "properties": {
        "cluster_id": "ALERT-20261006-014",
        "alerta_operativa": "media",
        "score": 30,
        "n_focos": 11,
        "n_ultimas_6h": 0,
        "n_ultimas_24h": 7,
        "frp_total_mw": 11,
        "frp_max_mw": 2.4,
        "edad_min_h": 13.2,
        "ultima_deteccion_utc": "2026-10-06 02:43:00",
        "sensores": "VIIRS_NOAA20_NRT, VIIRS_SNPP_NRT",
        "satellites": "N, N20",
        "instruments": "VIIRS",
        "popup_label": "<strong>ALERT-20261006-014<\/strong><br>Nivel: media<br>Focos: 11<br>Últimas 6 h: 0<br>FRP total: 11 MW<br>Última detección UTC: 2026-10-06 02:43:00"
      }
    },
    {
      "type": "Feature",
      "geometry": {
        "type": "Point",
        "coordinates": [-0.5174, 28.1998]
      },
      "properties": {
        "cluster_id": "ALERT-20261006-015",
        "alerta_operativa": "media",
        "score": 29.3,
        "n_focos": 10,
        "n_ultimas_6h": 1,
        "n_ultimas_24h": 4,
        "frp_total_mw": 22.3,
        "frp_max_mw": 5.6,
        "edad_min_h": 2.2,
        "ultima_deteccion_utc": "2026-10-06 13:44:00",
        "sensores": "VIIRS_NOAA20_NRT, VIIRS_SNPP_NRT",
        "satellites": "N, N20",
        "instruments": "VIIRS",
        "popup_label": "<strong>ALERT-20261006-015<\/strong><br>Nivel: media<br>Focos: 10<br>Últimas 6 h: 1<br>FRP total: 22.3 MW<br>Última detección UTC: 2026-10-06 13:44:00"
      }
    },
    {
      "type": "Feature",
      "geometry": {
        "type": "Point",
        "coordinates": [4.4469, 35.8793]
      },
      "properties": {
        "cluster_id": "ALERT-20261006-016",
        "alerta_operativa": "media",
        "score": 27.6,
        "n_focos": 10,
        "n_ultimas_6h": 0,
        "n_ultimas_24h": 6,
        "frp_total_mw": 15.6,
        "frp_max_mw": 2.7,
        "edad_min_h": 13.2,
        "ultima_deteccion_utc": "2026-10-06 02:43:00",
        "sensores": "VIIRS_NOAA20_NRT, VIIRS_SNPP_NRT",
        "satellites": "N, N20",
        "instruments": "VIIRS",
        "popup_label": "<strong>ALERT-20261006-016<\/strong><br>Nivel: media<br>Focos: 10<br>Últimas 6 h: 0<br>FRP total: 15.6 MW<br>Última detección UTC: 2026-10-06 02:43:00"
      }
    },
    {
      "type": "Feature",
      "geometry": {
        "type": "Point",
        "coordinates": [-0.2755, 35.5312]
      },
      "properties": {
        "cluster_id": "ALERT-20261006-017",
        "alerta_operativa": "media",
        "score": 21.3,
        "n_focos": 7,
        "n_ultimas_6h": 0,
        "n_ultimas_24h": 5,
        "frp_total_mw": 7.8,
        "frp_max_mw": 2.3,
        "edad_min_h": 13.2,
        "ultima_deteccion_utc": "2026-10-06 02:45:00",
        "sensores": "VIIRS_NOAA20_NRT, VIIRS_SNPP_NRT",
        "satellites": "N, N20",
        "instruments": "VIIRS",
        "popup_label": "<strong>ALERT-20261006-017<\/strong><br>Nivel: media<br>Focos: 7<br>Últimas 6 h: 0<br>FRP total: 7.8 MW<br>Última detección UTC: 2026-10-06 02:45:00"
      }
    },
    {
      "type": "Feature",
      "geometry": {
        "type": "Point",
        "coordinates": [-0.158, 28.212]
      },
      "properties": {
        "cluster_id": "ALERT-20261006-018",
        "alerta_operativa": "media",
        "score": 14.9,
        "n_focos": 4,
        "n_ultimas_6h": 1,
        "n_ultimas_24h": 1,
        "frp_total_mw": 6,
        "frp_max_mw": 2.1,
        "edad_min_h": 2.2,
        "ultima_deteccion_utc": "2026-10-06 13:44:00",
        "sensores": "VIIRS_NOAA20_NRT, VIIRS_SNPP_NRT",
        "satellites": "N, N20",
        "instruments": "VIIRS",
        "popup_label": "<strong>ALERT-20261006-018<\/strong><br>Nivel: media<br>Focos: 4<br>Últimas 6 h: 1<br>FRP total: 6 MW<br>Última detección UTC: 2026-10-06 13:44:00"
      }
    },
    {
      "type": "Feature",
      "geometry": {
        "type": "Point",
        "coordinates": [1.241, 36.1291]
      },
      "properties": {
        "cluster_id": "ALERT-20261006-019",
        "alerta_operativa": "media",
        "score": 14.1,
        "n_focos": 4,
        "n_ultimas_6h": 0,
        "n_ultimas_24h": 3,
        "frp_total_mw": 6.9,
        "frp_max_mw": 2.5,
        "edad_min_h": 13.2,
        "ultima_deteccion_utc": "2026-10-06 02:43:00",
        "sensores": "VIIRS_NOAA20_NRT, VIIRS_SNPP_NRT",
        "satellites": "N, N20",
        "instruments": "VIIRS",
        "popup_label": "<strong>ALERT-20261006-019<\/strong><br>Nivel: media<br>Focos: 4<br>Últimas 6 h: 0<br>FRP total: 6.9 MW<br>Última detección UTC: 2026-10-06 02:43:00"
      }
    },
    {
      "type": "Feature",
      "geometry": {
        "type": "Point",
        "coordinates": [-0.3957, 35.4591]
      },
      "properties": {
        "cluster_id": "ALERT-20261006-020",
        "alerta_operativa": "media",
        "score": 13.6,
        "n_focos": 4,
        "n_ultimas_6h": 0,
        "n_ultimas_24h": 3,
        "frp_total_mw": 5,
        "frp_max_mw": 2,
        "edad_min_h": 13.2,
        "ultima_deteccion_utc": "2026-10-06 02:45:00",
        "sensores": "VIIRS_NOAA20_NRT, VIIRS_SNPP_NRT",
        "satellites": "N, N20",
        "instruments": "VIIRS",
        "popup_label": "<strong>ALERT-20261006-020<\/strong><br>Nivel: media<br>Focos: 4<br>Últimas 6 h: 0<br>FRP total: 5 MW<br>Última detección UTC: 2026-10-06 02:45:00"
      }
    },
    {
      "type": "Feature",
      "geometry": {
        "type": "Point",
        "coordinates": [4.9492, 43.8451]
      },
      "properties": {
        "cluster_id": "ALERT-20261006-021",
        "alerta_operativa": "media",
        "score": 11.8,
        "n_focos": 1,
        "n_ultimas_6h": 1,
        "n_ultimas_24h": 1,
        "frp_total_mw": 5.6,
        "frp_max_mw": 5.6,
        "edad_min_h": 3.5,
        "ultima_deteccion_utc": "2026-10-06 12:25:00",
        "sensores": "VIIRS_NOAA20_NRT",
        "satellites": "N20",
        "instruments": "VIIRS",
        "popup_label": "<strong>ALERT-20261006-021<\/strong><br>Nivel: media<br>Focos: 1<br>Últimas 6 h: 1<br>FRP total: 5.6 MW<br>Última detección UTC: 2026-10-06 12:25:00"
      }
    },
    {
      "type": "Feature",
      "geometry": {
        "type": "Point",
        "coordinates": [-8.5598, 38.4231]
      },
      "properties": {
        "cluster_id": "ALERT-20261006-022",
        "alerta_operativa": "media",
        "score": 11.5,
        "n_focos": 1,
        "n_ultimas_6h": 1,
        "n_ultimas_24h": 1,
        "frp_total_mw": 4.9,
        "frp_max_mw": 4.9,
        "edad_min_h": 2.1,
        "ultima_deteccion_utc": "2026-10-06 13:46:00",
        "sensores": "VIIRS_SNPP_NRT",
        "satellites": "N",
        "instruments": "VIIRS",
        "popup_label": "<strong>ALERT-20261006-022<\/strong><br>Nivel: media<br>Focos: 1<br>Últimas 6 h: 1<br>FRP total: 4.9 MW<br>Última detección UTC: 2026-10-06 13:46:00"
      }
    },
    {
      "type": "Feature",
      "geometry": {
        "type": "Point",
        "coordinates": [-9.5893, 31.174]
      },
      "properties": {
        "cluster_id": "ALERT-20261006-023",
        "alerta_operativa": "media",
        "score": 11.1,
        "n_focos": 1,
        "n_ultimas_6h": 1,
        "n_ultimas_24h": 1,
        "frp_total_mw": 3.6,
        "frp_max_mw": 3.6,
        "edad_min_h": 2.2,
        "ultima_deteccion_utc": "2026-10-06 13:44:00",
        "sensores": "VIIRS_SNPP_NRT",
        "satellites": "N",
        "instruments": "VIIRS",
        "popup_label": "<strong>ALERT-20261006-023<\/strong><br>Nivel: media<br>Focos: 1<br>Últimas 6 h: 1<br>FRP total: 3.6 MW<br>Última detección UTC: 2026-10-06 13:44:00"
      }
    },
    {
      "type": "Feature",
      "geometry": {
        "type": "Point",
        "coordinates": [0.6679, 29.4758]
      },
      "properties": {
        "cluster_id": "ALERT-20261006-024",
        "alerta_operativa": "media",
        "score": 10.9,
        "n_focos": 1,
        "n_ultimas_6h": 1,
        "n_ultimas_24h": 1,
        "frp_total_mw": 3.3,
        "frp_max_mw": 3.3,
        "edad_min_h": 3.5,
        "ultima_deteccion_utc": "2026-10-06 12:23:00",
        "sensores": "VIIRS_NOAA20_NRT",
        "satellites": "N20",
        "instruments": "VIIRS",
        "popup_label": "<strong>ALERT-20261006-024<\/strong><br>Nivel: media<br>Focos: 1<br>Últimas 6 h: 1<br>FRP total: 3.3 MW<br>Última detección UTC: 2026-10-06 12:23:00"
      }
    },
    {
      "type": "Feature",
      "geometry": {
        "type": "Point",
        "coordinates": [-7.8941, 37.1633]
      },
      "properties": {
        "cluster_id": "ALERT-20261006-025",
        "alerta_operativa": "media",
        "score": 10.8,
        "n_focos": 1,
        "n_ultimas_6h": 1,
        "n_ultimas_24h": 1,
        "frp_total_mw": 3.1,
        "frp_max_mw": 3.1,
        "edad_min_h": 2.1,
        "ultima_deteccion_utc": "2026-10-06 13:46:00",
        "sensores": "VIIRS_SNPP_NRT",
        "satellites": "N",
        "instruments": "VIIRS",
        "popup_label": "<strong>ALERT-20261006-025<\/strong><br>Nivel: media<br>Focos: 1<br>Últimas 6 h: 1<br>FRP total: 3.1 MW<br>Última detección UTC: 2026-10-06 13:46:00"
      }
    },
    {
      "type": "Feature",
      "geometry": {
        "type": "Point",
        "coordinates": [-7.7494, 33.3688]
      },
      "properties": {
        "cluster_id": "ALERT-20261006-026",
        "alerta_operativa": "media",
        "score": 8.5,
        "n_focos": 2,
        "n_ultimas_6h": 0,
        "n_ultimas_24h": 2,
        "frp_total_mw": 2.5,
        "frp_max_mw": 1.4,
        "edad_min_h": 13.2,
        "ultima_deteccion_utc": "2026-10-06 02:45:00",
        "sensores": "VIIRS_NOAA20_NRT, VIIRS_SNPP_NRT",
        "satellites": "N, N20",
        "instruments": "VIIRS",
        "popup_label": "<strong>ALERT-20261006-026<\/strong><br>Nivel: media<br>Focos: 2<br>Últimas 6 h: 0<br>FRP total: 2.5 MW<br>Última detección UTC: 2026-10-06 02:45:00"
      }
    },
    {
      "type": "Feature",
      "geometry": {
        "type": "Point",
        "coordinates": [-2.3475, 34.5954]
      },
      "properties": {
        "cluster_id": "ALERT-20261006-027",
        "alerta_operativa": "media",
        "score": 8.1,
        "n_focos": 2,
        "n_ultimas_6h": 0,
        "n_ultimas_24h": 2,
        "frp_total_mw": 1.9,
        "frp_max_mw": 1.3,
        "edad_min_h": 13.2,
        "ultima_deteccion_utc": "2026-10-06 02:45:00",
        "sensores": "VIIRS_NOAA20_NRT, VIIRS_SNPP_NRT",
        "satellites": "N, N20",
        "instruments": "VIIRS",
        "popup_label": "<strong>ALERT-20261006-027<\/strong><br>Nivel: media<br>Focos: 2<br>Últimas 6 h: 0<br>FRP total: 1.9 MW<br>Última detección UTC: 2026-10-06 02:45:00"
      }
    },
    {
      "type": "Feature",
      "geometry": {
        "type": "Point",
        "coordinates": [4.476, 35.7088]
      },
      "properties": {
        "cluster_id": "ALERT-20261006-028",
        "alerta_operativa": "seguimiento",
        "score": 10.2,
        "n_focos": 5,
        "n_ultimas_6h": 0,
        "n_ultimas_24h": 1,
        "frp_total_mw": 4,
        "frp_max_mw": 1.5,
        "edad_min_h": 14.8,
        "ultima_deteccion_utc": "2026-10-06 01:05:00",
        "sensores": "VIIRS_NOAA20_NRT, VIIRS_SNPP_NRT",
        "satellites": "N, N20",
        "instruments": "VIIRS",
        "popup_label": "<strong>ALERT-20261006-028<\/strong><br>Nivel: seguimiento<br>Focos: 5<br>Últimas 6 h: 0<br>FRP total: 4 MW<br>Última detección UTC: 2026-10-06 01:05:00"
      }
    },
    {
      "type": "Feature",
      "geometry": {
        "type": "Point",
        "coordinates": [1.8991, 30.9122]
      },
      "properties": {
        "cluster_id": "ALERT-20261006-029",
        "alerta_operativa": "seguimiento",
        "score": 8.8,
        "n_focos": 4,
        "n_ultimas_6h": 0,
        "n_ultimas_24h": 1,
        "frp_total_mw": 3,
        "frp_max_mw": 0.9,
        "edad_min_h": 14.8,
        "ultima_deteccion_utc": "2026-10-06 01:05:00",
        "sensores": "VIIRS_NOAA20_NRT, VIIRS_SNPP_NRT",
        "satellites": "N, N20",
        "instruments": "VIIRS",
        "popup_label": "<strong>ALERT-20261006-029<\/strong><br>Nivel: seguimiento<br>Focos: 4<br>Últimas 6 h: 0<br>FRP total: 3 MW<br>Última detección UTC: 2026-10-06 01:05:00"
      }
    },
    {
      "type": "Feature",
      "geometry": {
        "type": "Point",
        "coordinates": [2.0578, 34.4378]
      },
      "properties": {
        "cluster_id": "ALERT-20261006-030",
        "alerta_operativa": "seguimiento",
        "score": 6.9,
        "n_focos": 2,
        "n_ultimas_6h": 0,
        "n_ultimas_24h": 1,
        "frp_total_mw": 3.2,
        "frp_max_mw": 2.1,
        "edad_min_h": 14.8,
        "ultima_deteccion_utc": "2026-10-06 01:05:00",
        "sensores": "VIIRS_NOAA20_NRT",
        "satellites": "N20",
        "instruments": "VIIRS",
        "popup_label": "<strong>ALERT-20261006-030<\/strong><br>Nivel: seguimiento<br>Focos: 2<br>Últimas 6 h: 0<br>FRP total: 3.2 MW<br>Última detección UTC: 2026-10-06 01:05:00"
      }
    },
    {
      "type": "Feature",
      "geometry": {
        "type": "Point",
        "coordinates": [-3.5626, 39.0268]
      },
      "properties": {
        "cluster_id": "ALERT-20261006-031",
        "alerta_operativa": "seguimiento",
        "score": 6.3,
        "n_focos": 1,
        "n_ultimas_6h": 0,
        "n_ultimas_24h": 1,
        "frp_total_mw": 4.1,
        "frp_max_mw": 4.1,
        "edad_min_h": 13.5,
        "ultima_deteccion_utc": "2026-10-06 02:26:00",
        "sensores": "VIIRS_SNPP_NRT",
        "satellites": "N",
        "instruments": "VIIRS",
        "popup_label": "<strong>ALERT-20261006-031<\/strong><br>Nivel: seguimiento<br>Focos: 1<br>Últimas 6 h: 0<br>FRP total: 4.1 MW<br>Última detección UTC: 2026-10-06 02:26:00"
      }
    },
    {
      "type": "Feature",
      "geometry": {
        "type": "Point",
        "coordinates": [2.9263, 36.1413]
      },
      "properties": {
        "cluster_id": "ALERT-20261006-032",
        "alerta_operativa": "seguimiento",
        "score": 5.1,
        "n_focos": 2,
        "n_ultimas_6h": 0,
        "n_ultimas_24h": 1,
        "frp_total_mw": 0.7,
        "frp_max_mw": 0.5,
        "edad_min_h": 14.8,
        "ultima_deteccion_utc": "2026-10-06 01:05:00",
        "sensores": "VIIRS_NOAA20_NRT",
        "satellites": "N20",
        "instruments": "VIIRS",
        "popup_label": "<strong>ALERT-20261006-032<\/strong><br>Nivel: seguimiento<br>Focos: 2<br>Últimas 6 h: 0<br>FRP total: 0.7 MW<br>Última detección UTC: 2026-10-06 01:05:00"
      }
    },
    {
      "type": "Feature",
      "geometry": {
        "type": "Point",
        "coordinates": [-0.2487, 39.6638]
      },
      "properties": {
        "cluster_id": "ALERT-20261006-033",
        "alerta_operativa": "seguimiento",
        "score": 4.7,
        "n_focos": 1,
        "n_ultimas_6h": 0,
        "n_ultimas_24h": 1,
        "frp_total_mw": 1.3,
        "frp_max_mw": 1.3,
        "edad_min_h": 13.2,
        "ultima_deteccion_utc": "2026-10-06 02:43:00",
        "sensores": "VIIRS_NOAA20_NRT",
        "satellites": "N20",
        "instruments": "VIIRS",
        "popup_label": "<strong>ALERT-20261006-033<\/strong><br>Nivel: seguimiento<br>Focos: 1<br>Últimas 6 h: 0<br>FRP total: 1.3 MW<br>Última detección UTC: 2026-10-06 02:43:00"
      }
    },
    {
      "type": "Feature",
      "geometry": {
        "type": "Point",
        "coordinates": [-2.2184, 43.0357]
      },
      "properties": {
        "cluster_id": "ALERT-20261006-034",
        "alerta_operativa": "seguimiento",
        "score": 4.4,
        "n_focos": 1,
        "n_ultimas_6h": 0,
        "n_ultimas_24h": 1,
        "frp_total_mw": 1,
        "frp_max_mw": 1,
        "edad_min_h": 13.5,
        "ultima_deteccion_utc": "2026-10-06 02:24:00",
        "sensores": "VIIRS_SNPP_NRT",
        "satellites": "N",
        "instruments": "VIIRS",
        "popup_label": "<strong>ALERT-20261006-034<\/strong><br>Nivel: seguimiento<br>Focos: 1<br>Últimas 6 h: 0<br>FRP total: 1 MW<br>Última detección UTC: 2026-10-06 02:24:00"
      }
    },
    {
      "type": "Feature",
      "geometry": {
        "type": "Point",
        "coordinates": [0.9856, 43.1869]
      },
      "properties": {
        "cluster_id": "ALERT-20261006-035",
        "alerta_operativa": "seguimiento",
        "score": 4.2,
        "n_focos": 1,
        "n_ultimas_6h": 0,
        "n_ultimas_24h": 1,
        "frp_total_mw": 0.8,
        "frp_max_mw": 0.8,
        "edad_min_h": 14.9,
        "ultima_deteccion_utc": "2026-10-06 01:02:00",
        "sensores": "VIIRS_NOAA20_NRT",
        "satellites": "N20",
        "instruments": "VIIRS",
        "popup_label": "<strong>ALERT-20261006-035<\/strong><br>Nivel: seguimiento<br>Focos: 1<br>Últimas 6 h: 0<br>FRP total: 0.8 MW<br>Última detección UTC: 2026-10-06 01:02:00"
      }
    },
    {
      "type": "Feature",
      "geometry": {
        "type": "Point",
        "coordinates": [-7.5331, 33.056]
      },
      "properties": {
        "cluster_id": "ALERT-20261006-036",
        "alerta_operativa": "seguimiento",
        "score": 4.1,
        "n_focos": 1,
        "n_ultimas_6h": 0,
        "n_ultimas_24h": 1,
        "frp_total_mw": 0.7,
        "frp_max_mw": 0.7,
        "edad_min_h": 13.5,
        "ultima_deteccion_utc": "2026-10-06 02:26:00",
        "sensores": "VIIRS_SNPP_NRT",
        "satellites": "N",
        "instruments": "VIIRS",
        "popup_label": "<strong>ALERT-20261006-036<\/strong><br>Nivel: seguimiento<br>Focos: 1<br>Últimas 6 h: 0<br>FRP total: 0.7 MW<br>Última detección UTC: 2026-10-06 02:26:00"
      }
    },
    {
      "type": "Feature",
      "geometry": {
        "type": "Point",
        "coordinates": [-6.1376, 32.5685]
      },
      "properties": {
        "cluster_id": "ALERT-20261006-037",
        "alerta_operativa": "seguimiento",
        "score": 4.1,
        "n_focos": 1,
        "n_ultimas_6h": 0,
        "n_ultimas_24h": 1,
        "frp_total_mw": 0.7,
        "frp_max_mw": 0.7,
        "edad_min_h": 13.2,
        "ultima_deteccion_utc": "2026-10-06 02:45:00",
        "sensores": "VIIRS_NOAA20_NRT",
        "satellites": "N20",
        "instruments": "VIIRS",
        "popup_label": "<strong>ALERT-20261006-037<\/strong><br>Nivel: seguimiento<br>Focos: 1<br>Últimas 6 h: 0<br>FRP total: 0.7 MW<br>Última detección UTC: 2026-10-06 02:45:00"
      }
    },
    {
      "type": "Feature",
      "geometry": {
        "type": "Point",
        "coordinates": [-8.0542, 38.3952]
      },
      "properties": {
        "cluster_id": "ALERT-20261006-038",
        "alerta_operativa": "seguimiento",
        "score": 3.8,
        "n_focos": 1,
        "n_ultimas_6h": 0,
        "n_ultimas_24h": 1,
        "frp_total_mw": 0.5,
        "frp_max_mw": 0.5,
        "edad_min_h": 13.2,
        "ultima_deteccion_utc": "2026-10-06 02:43:00",
        "sensores": "VIIRS_NOAA20_NRT",
        "satellites": "N20",
        "instruments": "VIIRS",
        "popup_label": "<strong>ALERT-20261006-038<\/strong><br>Nivel: seguimiento<br>Focos: 1<br>Últimas 6 h: 0<br>FRP total: 0.5 MW<br>Última detección UTC: 2026-10-06 02:43:00"
      }
    },
    {
      "type": "Feature",
      "geometry": {
        "type": "Point",
        "coordinates": [-0.4547, 35.6805]
      },
      "properties": {
        "cluster_id": "ALERT-20261006-039",
        "alerta_operativa": "seguimiento",
        "score": 3.7,
        "n_focos": 1,
        "n_ultimas_6h": 0,
        "n_ultimas_24h": 1,
        "frp_total_mw": 0.4,
        "frp_max_mw": 0.4,
        "edad_min_h": 13.2,
        "ultima_deteccion_utc": "2026-10-06 02:45:00",
        "sensores": "VIIRS_NOAA20_NRT",
        "satellites": "N20",
        "instruments": "VIIRS",
        "popup_label": "<strong>ALERT-20261006-039<\/strong><br>Nivel: seguimiento<br>Focos: 1<br>Últimas 6 h: 0<br>FRP total: 0.4 MW<br>Última detección UTC: 2026-10-06 02:45:00"
      }
    },
    {
      "type": "Feature",
      "geometry": {
        "type": "Point",
        "coordinates": [-8.4351, 43.3465]
      },
      "properties": {
        "cluster_id": "ALERT-20261006-040",
        "alerta_operativa": "seguimiento",
        "score": 3.5,
        "n_focos": 1,
        "n_ultimas_6h": 0,
        "n_ultimas_24h": 1,
        "frp_total_mw": 0.3,
        "frp_max_mw": 0.3,
        "edad_min_h": 13.2,
        "ultima_deteccion_utc": "2026-10-06 02:43:00",
        "sensores": "VIIRS_NOAA20_NRT",
        "satellites": "N20",
        "instruments": "VIIRS",
        "popup_label": "<strong>ALERT-20261006-040<\/strong><br>Nivel: seguimiento<br>Focos: 1<br>Últimas 6 h: 0<br>FRP total: 0.3 MW<br>Última detección UTC: 2026-10-06 02:43:00"
      }
    },
    {
      "type": "Feature",
      "geometry": {
        "type": "Point",
        "coordinates": [-9.5669, 30.2359]
      },
      "properties": {
        "cluster_id": "ALERT-20261006-041",
        "alerta_operativa": "informativa",
        "score": 10.8,
        "n_focos": 4,
        "n_ultimas_6h": 0,
        "n_ultimas_24h": 0,
        "frp_total_mw": 29.1,
        "frp_max_mw": 13.5,
        "edad_min_h": 36.8,
        "ultima_deteccion_utc": "2026-10-05 03:06:00",
        "sensores": "VIIRS_NOAA20_NRT, VIIRS_SNPP_NRT",
        "satellites": "N, N20",
        "instruments": "VIIRS",
        "popup_label": "<strong>ALERT-20261006-041<\/strong><br>Nivel: informativa<br>Focos: 4<br>Últimas 6 h: 0<br>FRP total: 29.1 MW<br>Última detección UTC: 2026-10-05 03:06:00"
      }
    },
    {
      "type": "Feature",
      "geometry": {
        "type": "Point",
        "coordinates": [0.8806, 41.505]
      },
      "properties": {
        "cluster_id": "ALERT-20261006-042",
        "alerta_operativa": "informativa",
        "score": 10.5,
        "n_focos": 6,
        "n_ultimas_6h": 0,
        "n_ultimas_24h": 0,
        "frp_total_mw": 8.3,
        "frp_max_mw": 3.2,
        "edad_min_h": 37.2,
        "ultima_deteccion_utc": "2026-10-05 02:41:00",
        "sensores": "VIIRS_NOAA20_NRT, VIIRS_SNPP_NRT",
        "satellites": "N, N20",
        "instruments": "VIIRS",
        "popup_label": "<strong>ALERT-20261006-042<\/strong><br>Nivel: informativa<br>Focos: 6<br>Últimas 6 h: 0<br>FRP total: 8.3 MW<br>Última detección UTC: 2026-10-05 02:41:00"
      }
    },
    {
      "type": "Feature",
      "geometry": {
        "type": "Point",
        "coordinates": [-3.0262, 43.3088]
      },
      "properties": {
        "cluster_id": "ALERT-20261006-043",
        "alerta_operativa": "informativa",
        "score": 7.8,
        "n_focos": 4,
        "n_ultimas_6h": 0,
        "n_ultimas_24h": 0,
        "frp_total_mw": 5.7,
        "frp_max_mw": 2.6,
        "edad_min_h": 36.9,
        "ultima_deteccion_utc": "2026-10-05 03:02:00",
        "sensores": "VIIRS_NOAA20_NRT, VIIRS_SNPP_NRT",
        "satellites": "N, N20",
        "instruments": "VIIRS",
        "popup_label": "<strong>ALERT-20261006-043<\/strong><br>Nivel: informativa<br>Focos: 4<br>Últimas 6 h: 0<br>FRP total: 5.7 MW<br>Última detección UTC: 2026-10-05 03:02:00"
      }
    },
    {
      "type": "Feature",
      "geometry": {
        "type": "Point",
        "coordinates": [2.8822, 36.5982]
      },
      "properties": {
        "cluster_id": "ALERT-20261006-044",
        "alerta_operativa": "informativa",
        "score": 7.7,
        "n_focos": 4,
        "n_ultimas_6h": 0,
        "n_ultimas_24h": 0,
        "frp_total_mw": 5.3,
        "frp_max_mw": 2.3,
        "edad_min_h": 27.2,
        "ultima_deteccion_utc": "2026-10-05 12:44:00",
        "sensores": "VIIRS_NOAA20_NRT, VIIRS_SNPP_NRT",
        "satellites": "N, N20",
        "instruments": "VIIRS",
        "popup_label": "<strong>ALERT-20261006-044<\/strong><br>Nivel: informativa<br>Focos: 4<br>Últimas 6 h: 0<br>FRP total: 5.3 MW<br>Última detección UTC: 2026-10-05 12:44:00"
      }
    },
    {
      "type": "Feature",
      "geometry": {
        "type": "Point",
        "coordinates": [-3.4757, 40.2455]
      },
      "properties": {
        "cluster_id": "ALERT-20261006-045",
        "alerta_operativa": "informativa",
        "score": 7.4,
        "n_focos": 3,
        "n_ultimas_6h": 0,
        "n_ultimas_24h": 0,
        "frp_total_mw": 8.2,
        "frp_max_mw": 3.2,
        "edad_min_h": 36.9,
        "ultima_deteccion_utc": "2026-10-05 03:02:00",
        "sensores": "VIIRS_NOAA20_NRT, VIIRS_SNPP_NRT",
        "satellites": "N, N20",
        "instruments": "VIIRS",
        "popup_label": "<strong>ALERT-20261006-045<\/strong><br>Nivel: informativa<br>Focos: 3<br>Últimas 6 h: 0<br>FRP total: 8.2 MW<br>Última detección UTC: 2026-10-05 03:02:00"
      }
    },
    {
      "type": "Feature",
      "geometry": {
        "type": "Point",
        "coordinates": [0.3142, 43.6927]
      },
      "properties": {
        "cluster_id": "ALERT-20261006-046",
        "alerta_operativa": "informativa",
        "score": 7.3,
        "n_focos": 2,
        "n_ultimas_6h": 0,
        "n_ultimas_24h": 0,
        "frp_total_mw": 13.1,
        "frp_max_mw": 7.8,
        "edad_min_h": 25.8,
        "ultima_deteccion_utc": "2026-10-05 14:08:00",
        "sensores": "VIIRS_SNPP_NRT",
        "satellites": "N",
        "instruments": "VIIRS",
        "popup_label": "<strong>ALERT-20261006-046<\/strong><br>Nivel: informativa<br>Focos: 2<br>Últimas 6 h: 0<br>FRP total: 13.1 MW<br>Última detección UTC: 2026-10-05 14:08:00"
      }
    },
    {
      "type": "Feature",
      "geometry": {
        "type": "Point",
        "coordinates": [-9.1795, 30.3805]
      },
      "properties": {
        "cluster_id": "ALERT-20261006-047",
        "alerta_operativa": "informativa",
        "score": 7.1,
        "n_focos": 4,
        "n_ultimas_6h": 0,
        "n_ultimas_24h": 0,
        "frp_total_mw": 3.7,
        "frp_max_mw": 1.1,
        "edad_min_h": 36.8,
        "ultima_deteccion_utc": "2026-10-05 03:06:00",
        "sensores": "VIIRS_NOAA20_NRT, VIIRS_SNPP_NRT",
        "satellites": "N, N20",
        "instruments": "VIIRS",
        "popup_label": "<strong>ALERT-20261006-047<\/strong><br>Nivel: informativa<br>Focos: 4<br>Últimas 6 h: 0<br>FRP total: 3.7 MW<br>Última detección UTC: 2026-10-05 03:06:00"
      }
    },
    {
      "type": "Feature",
      "geometry": {
        "type": "Point",
        "coordinates": [4.6674, 36.3974]
      },
      "properties": {
        "cluster_id": "ALERT-20261006-048",
        "alerta_operativa": "informativa",
        "score": 6.9,
        "n_focos": 1,
        "n_ultimas_6h": 0,
        "n_ultimas_24h": 0,
        "frp_total_mw": 17.7,
        "frp_max_mw": 17.7,
        "edad_min_h": 27.2,
        "ultima_deteccion_utc": "2026-10-05 12:44:00",
        "sensores": "VIIRS_NOAA20_NRT",
        "satellites": "N20",
        "instruments": "VIIRS",
        "popup_label": "<strong>ALERT-20261006-048<\/strong><br>Nivel: informativa<br>Focos: 1<br>Últimas 6 h: 0<br>FRP total: 17.7 MW<br>Última detección UTC: 2026-10-05 12:44:00"
      }
    },
    {
      "type": "Feature",
      "geometry": {
        "type": "Point",
        "coordinates": [-0.5723, 44.4437]
      },
      "properties": {
        "cluster_id": "ALERT-20261006-049",
        "alerta_operativa": "informativa",
        "score": 6.5,
        "n_focos": 2,
        "n_ultimas_6h": 0,
        "n_ultimas_24h": 0,
        "frp_total_mw": 8.5,
        "frp_max_mw": 6.1,
        "edad_min_h": 27.1,
        "ultima_deteccion_utc": "2026-10-05 12:46:00",
        "sensores": "VIIRS_NOAA20_NRT",
        "satellites": "N20",
        "instruments": "VIIRS",
        "popup_label": "<strong>ALERT-20261006-049<\/strong><br>Nivel: informativa<br>Focos: 2<br>Últimas 6 h: 0<br>FRP total: 8.5 MW<br>Última detección UTC: 2026-10-05 12:46:00"
      }
    },
    {
      "type": "Feature",
      "geometry": {
        "type": "Point",
        "coordinates": [-3.7461, 39.9365]
      },
      "properties": {
        "cluster_id": "ALERT-20261006-050",
        "alerta_operativa": "informativa",
        "score": 5.5,
        "n_focos": 3,
        "n_ultimas_6h": 0,
        "n_ultimas_24h": 0,
        "frp_total_mw": 2.5,
        "frp_max_mw": 1.1,
        "edad_min_h": 36.9,
        "ultima_deteccion_utc": "2026-10-05 03:02:00",
        "sensores": "VIIRS_NOAA20_NRT, VIIRS_SNPP_NRT",
        "satellites": "N, N20",
        "instruments": "VIIRS",
        "popup_label": "<strong>ALERT-20261006-050<\/strong><br>Nivel: informativa<br>Focos: 3<br>Últimas 6 h: 0<br>FRP total: 2.5 MW<br>Última detección UTC: 2026-10-05 03:02:00"
      }
    },
    {
      "type": "Feature",
      "geometry": {
        "type": "Point",
        "coordinates": [-5.8304, 43.5389]
      },
      "properties": {
        "cluster_id": "ALERT-20261006-051",
        "alerta_operativa": "informativa",
        "score": 5.4,
        "n_focos": 2,
        "n_ultimas_6h": 0,
        "n_ultimas_24h": 0,
        "frp_total_mw": 4.5,
        "frp_max_mw": 3.2,
        "edad_min_h": 27.1,
        "ultima_deteccion_utc": "2026-10-05 12:46:00",
        "sensores": "VIIRS_NOAA20_NRT, VIIRS_SNPP_NRT",
        "satellites": "N, N20",
        "instruments": "VIIRS",
        "popup_label": "<strong>ALERT-20261006-051<\/strong><br>Nivel: informativa<br>Focos: 2<br>Últimas 6 h: 0<br>FRP total: 4.5 MW<br>Última detección UTC: 2026-10-05 12:46:00"
      }
    },
    {
      "type": "Feature",
      "geometry": {
        "type": "Point",
        "coordinates": [-6.5551, 32.2367]
      },
      "properties": {
        "cluster_id": "ALERT-20261006-052",
        "alerta_operativa": "informativa",
        "score": 4.8,
        "n_focos": 1,
        "n_ultimas_6h": 0,
        "n_ultimas_24h": 0,
        "frp_total_mw": 5.6,
        "frp_max_mw": 5.6,
        "edad_min_h": 27.2,
        "ultima_deteccion_utc": "2026-10-05 12:44:00",
        "sensores": "VIIRS_NOAA20_NRT",
        "satellites": "N20",
        "instruments": "VIIRS",
        "popup_label": "<strong>ALERT-20261006-052<\/strong><br>Nivel: informativa<br>Focos: 1<br>Últimas 6 h: 0<br>FRP total: 5.6 MW<br>Última detección UTC: 2026-10-05 12:44:00"
      }
    },
    {
      "type": "Feature",
      "geometry": {
        "type": "Point",
        "coordinates": [2.9253, 35.038]
      },
      "properties": {
        "cluster_id": "ALERT-20261006-053",
        "alerta_operativa": "informativa",
        "score": 4.6,
        "n_focos": 1,
        "n_ultimas_6h": 0,
        "n_ultimas_24h": 0,
        "frp_total_mw": 5.2,
        "frp_max_mw": 5.2,
        "edad_min_h": 27.2,
        "ultima_deteccion_utc": "2026-10-05 12:44:00",
        "sensores": "VIIRS_NOAA20_NRT",
        "satellites": "N20",
        "instruments": "VIIRS",
        "popup_label": "<strong>ALERT-20261006-053<\/strong><br>Nivel: informativa<br>Focos: 1<br>Últimas 6 h: 0<br>FRP total: 5.2 MW<br>Última detección UTC: 2026-10-05 12:44:00"
      }
    },
    {
      "type": "Feature",
      "geometry": {
        "type": "Point",
        "coordinates": [1.2671, 35.4342]
      },
      "properties": {
        "cluster_id": "ALERT-20261006-054",
        "alerta_operativa": "informativa",
        "score": 4.4,
        "n_focos": 1,
        "n_ultimas_6h": 0,
        "n_ultimas_24h": 0,
        "frp_total_mw": 4.4,
        "frp_max_mw": 4.4,
        "edad_min_h": 27.2,
        "ultima_deteccion_utc": "2026-10-05 12:44:00",
        "sensores": "VIIRS_NOAA20_NRT",
        "satellites": "N20",
        "instruments": "VIIRS",
        "popup_label": "<strong>ALERT-20261006-054<\/strong><br>Nivel: informativa<br>Focos: 1<br>Últimas 6 h: 0<br>FRP total: 4.4 MW<br>Última detección UTC: 2026-10-05 12:44:00"
      }
    },
    {
      "type": "Feature",
      "geometry": {
        "type": "Point",
        "coordinates": [0.0782, 43.4085]
      },
      "properties": {
        "cluster_id": "ALERT-20261006-055",
        "alerta_operativa": "informativa",
        "score": 4,
        "n_focos": 1,
        "n_ultimas_6h": 0,
        "n_ultimas_24h": 0,
        "frp_total_mw": 3.5,
        "frp_max_mw": 3.5,
        "edad_min_h": 27.1,
        "ultima_deteccion_utc": "2026-10-05 12:46:00",
        "sensores": "VIIRS_NOAA20_NRT",
        "satellites": "N20",
        "instruments": "VIIRS",
        "popup_label": "<strong>ALERT-20261006-055<\/strong><br>Nivel: informativa<br>Focos: 1<br>Últimas 6 h: 0<br>FRP total: 3.5 MW<br>Última detección UTC: 2026-10-05 12:46:00"
      }
    },
    {
      "type": "Feature",
      "geometry": {
        "type": "Point",
        "coordinates": [0.1749, 44.1657]
      },
      "properties": {
        "cluster_id": "ALERT-20261006-056",
        "alerta_operativa": "informativa",
        "score": 4,
        "n_focos": 1,
        "n_ultimas_6h": 0,
        "n_ultimas_24h": 0,
        "frp_total_mw": 3.5,
        "frp_max_mw": 3.5,
        "edad_min_h": 27.1,
        "ultima_deteccion_utc": "2026-10-05 12:46:00",
        "sensores": "VIIRS_NOAA20_NRT",
        "satellites": "N20",
        "instruments": "VIIRS",
        "popup_label": "<strong>ALERT-20261006-056<\/strong><br>Nivel: informativa<br>Focos: 1<br>Últimas 6 h: 0<br>FRP total: 3.5 MW<br>Última detección UTC: 2026-10-05 12:46:00"
      }
    },
    {
      "type": "Feature",
      "geometry": {
        "type": "Point",
        "coordinates": [-0.344, 33.472]
      },
      "properties": {
        "cluster_id": "ALERT-20261006-057",
        "alerta_operativa": "informativa",
        "score": 4,
        "n_focos": 2,
        "n_ultimas_6h": 0,
        "n_ultimas_24h": 0,
        "frp_total_mw": 1.7,
        "frp_max_mw": 0.9,
        "edad_min_h": 37.2,
        "ultima_deteccion_utc": "2026-10-05 02:45:00",
        "sensores": "VIIRS_SNPP_NRT",
        "satellites": "N",
        "instruments": "VIIRS",
        "popup_label": "<strong>ALERT-20261006-057<\/strong><br>Nivel: informativa<br>Focos: 2<br>Últimas 6 h: 0<br>FRP total: 1.7 MW<br>Última detección UTC: 2026-10-05 02:45:00"
      }
    },
    {
      "type": "Feature",
      "geometry": {
        "type": "Point",
        "coordinates": [-8.4192, 40.2901]
      },
      "properties": {
        "cluster_id": "ALERT-20261006-058",
        "alerta_operativa": "informativa",
        "score": 3.9,
        "n_focos": 2,
        "n_ultimas_6h": 0,
        "n_ultimas_24h": 0,
        "frp_total_mw": 1.6,
        "frp_max_mw": 1.1,
        "edad_min_h": 36.8,
        "ultima_deteccion_utc": "2026-10-05 03:04:00",
        "sensores": "VIIRS_NOAA20_NRT, VIIRS_SNPP_NRT",
        "satellites": "N, N20",
        "instruments": "VIIRS",
        "popup_label": "<strong>ALERT-20261006-058<\/strong><br>Nivel: informativa<br>Focos: 2<br>Últimas 6 h: 0<br>FRP total: 1.6 MW<br>Última detección UTC: 2026-10-05 03:04:00"
      }
    },
    {
      "type": "Feature",
      "geometry": {
        "type": "Point",
        "coordinates": [0.1801, 41.9254]
      },
      "properties": {
        "cluster_id": "ALERT-20261006-059",
        "alerta_operativa": "informativa",
        "score": 3.9,
        "n_focos": 2,
        "n_ultimas_6h": 0,
        "n_ultimas_24h": 0,
        "frp_total_mw": 1.6,
        "frp_max_mw": 1.1,
        "edad_min_h": 37.2,
        "ultima_deteccion_utc": "2026-10-05 02:41:00",
        "sensores": "VIIRS_SNPP_NRT",
        "satellites": "N",
        "instruments": "VIIRS",
        "popup_label": "<strong>ALERT-20261006-059<\/strong><br>Nivel: informativa<br>Focos: 2<br>Últimas 6 h: 0<br>FRP total: 1.6 MW<br>Última detección UTC: 2026-10-05 02:41:00"
      }
    },
    {
      "type": "Feature",
      "geometry": {
        "type": "Point",
        "coordinates": [3.8089, 35.5052]
      },
      "properties": {
        "cluster_id": "ALERT-20261006-060",
        "alerta_operativa": "informativa",
        "score": 3.8,
        "n_focos": 1,
        "n_ultimas_6h": 0,
        "n_ultimas_24h": 0,
        "frp_total_mw": 3,
        "frp_max_mw": 3,
        "edad_min_h": 27.2,
        "ultima_deteccion_utc": "2026-10-05 12:44:00",
        "sensores": "VIIRS_NOAA20_NRT",
        "satellites": "N20",
        "instruments": "VIIRS",
        "popup_label": "<strong>ALERT-20261006-060<\/strong><br>Nivel: informativa<br>Focos: 1<br>Últimas 6 h: 0<br>FRP total: 3 MW<br>Última detección UTC: 2026-10-05 12:44:00"
      }
    },
    {
      "type": "Feature",
      "geometry": {
        "type": "Point",
        "coordinates": [-1.9071, 36.9679]
      },
      "properties": {
        "cluster_id": "ALERT-20261006-061",
        "alerta_operativa": "informativa",
        "score": 3.8,
        "n_focos": 2,
        "n_ultimas_6h": 0,
        "n_ultimas_24h": 0,
        "frp_total_mw": 1.5,
        "frp_max_mw": 0.9,
        "edad_min_h": 38.5,
        "ultima_deteccion_utc": "2026-10-05 01:24:00",
        "sensores": "VIIRS_NOAA20_NRT",
        "satellites": "N20",
        "instruments": "VIIRS",
        "popup_label": "<strong>ALERT-20261006-061<\/strong><br>Nivel: informativa<br>Focos: 2<br>Últimas 6 h: 0<br>FRP total: 1.5 MW<br>Última detección UTC: 2026-10-05 01:24:00"
      }
    },
    {
      "type": "Feature",
      "geometry": {
        "type": "Point",
        "coordinates": [3.9344, 36.2747]
      },
      "properties": {
        "cluster_id": "ALERT-20261006-062",
        "alerta_operativa": "informativa",
        "score": 3.6,
        "n_focos": 1,
        "n_ultimas_6h": 0,
        "n_ultimas_24h": 0,
        "frp_total_mw": 2.6,
        "frp_max_mw": 2.6,
        "edad_min_h": 27.2,
        "ultima_deteccion_utc": "2026-10-05 12:44:00",
        "sensores": "VIIRS_NOAA20_NRT",
        "satellites": "N20",
        "instruments": "VIIRS",
        "popup_label": "<strong>ALERT-20261006-062<\/strong><br>Nivel: informativa<br>Focos: 1<br>Últimas 6 h: 0<br>FRP total: 2.6 MW<br>Última detección UTC: 2026-10-05 12:44:00"
      }
    },
    {
      "type": "Feature",
      "geometry": {
        "type": "Point",
        "coordinates": [-2.241, 34.9786]
      },
      "properties": {
        "cluster_id": "ALERT-20261006-063",
        "alerta_operativa": "informativa",
        "score": 3.5,
        "n_focos": 1,
        "n_ultimas_6h": 0,
        "n_ultimas_24h": 0,
        "frp_total_mw": 2.5,
        "frp_max_mw": 2.5,
        "edad_min_h": 27.2,
        "ultima_deteccion_utc": "2026-10-05 12:44:00",
        "sensores": "VIIRS_NOAA20_NRT",
        "satellites": "N20",
        "instruments": "VIIRS",
        "popup_label": "<strong>ALERT-20261006-063<\/strong><br>Nivel: informativa<br>Focos: 1<br>Últimas 6 h: 0<br>FRP total: 2.5 MW<br>Última detección UTC: 2026-10-05 12:44:00"
      }
    },
    {
      "type": "Feature",
      "geometry": {
        "type": "Point",
        "coordinates": [-0.2976, 43.845]
      },
      "properties": {
        "cluster_id": "ALERT-20261006-064",
        "alerta_operativa": "informativa",
        "score": 3.4,
        "n_focos": 1,
        "n_ultimas_6h": 0,
        "n_ultimas_24h": 0,
        "frp_total_mw": 2.4,
        "frp_max_mw": 2.4,
        "edad_min_h": 27.1,
        "ultima_deteccion_utc": "2026-10-05 12:46:00",
        "sensores": "VIIRS_NOAA20_NRT",
        "satellites": "N20",
        "instruments": "VIIRS",
        "popup_label": "<strong>ALERT-20261006-064<\/strong><br>Nivel: informativa<br>Focos: 1<br>Últimas 6 h: 0<br>FRP total: 2.4 MW<br>Última detección UTC: 2026-10-05 12:46:00"
      }
    },
    {
      "type": "Feature",
      "geometry": {
        "type": "Point",
        "coordinates": [4.085, 43.8102]
      },
      "properties": {
        "cluster_id": "ALERT-20261006-065",
        "alerta_operativa": "informativa",
        "score": 2.9,
        "n_focos": 1,
        "n_ultimas_6h": 0,
        "n_ultimas_24h": 0,
        "frp_total_mw": 1.6,
        "frp_max_mw": 1.6,
        "edad_min_h": 27.1,
        "ultima_deteccion_utc": "2026-10-05 12:46:00",
        "sensores": "VIIRS_NOAA20_NRT",
        "satellites": "N20",
        "instruments": "VIIRS",
        "popup_label": "<strong>ALERT-20261006-065<\/strong><br>Nivel: informativa<br>Focos: 1<br>Últimas 6 h: 0<br>FRP total: 1.6 MW<br>Última detección UTC: 2026-10-05 12:46:00"
      }
    },
    {
      "type": "Feature",
      "geometry": {
        "type": "Point",
        "coordinates": [-0.5451, 38.3781]
      },
      "properties": {
        "cluster_id": "ALERT-20261006-066",
        "alerta_operativa": "informativa",
        "score": 2.7,
        "n_focos": 1,
        "n_ultimas_6h": 0,
        "n_ultimas_24h": 0,
        "frp_total_mw": 1.3,
        "frp_max_mw": 1.3,
        "edad_min_h": 37.2,
        "ultima_deteccion_utc": "2026-10-05 02:43:00",
        "sensores": "VIIRS_SNPP_NRT",
        "satellites": "N",
        "instruments": "VIIRS",
        "popup_label": "<strong>ALERT-20261006-066<\/strong><br>Nivel: informativa<br>Focos: 1<br>Últimas 6 h: 0<br>FRP total: 1.3 MW<br>Última detección UTC: 2026-10-05 02:43:00"
      }
    },
    {
      "type": "Feature",
      "geometry": {
        "type": "Point",
        "coordinates": [2.9195, 36.7698]
      },
      "properties": {
        "cluster_id": "ALERT-20261006-067",
        "alerta_operativa": "informativa",
        "score": 2.6,
        "n_focos": 1,
        "n_ultimas_6h": 0,
        "n_ultimas_24h": 0,
        "frp_total_mw": 1.2,
        "frp_max_mw": 1.2,
        "edad_min_h": 27.2,
        "ultima_deteccion_utc": "2026-10-05 12:44:00",
        "sensores": "VIIRS_NOAA20_NRT",
        "satellites": "N20",
        "instruments": "VIIRS",
        "popup_label": "<strong>ALERT-20261006-067<\/strong><br>Nivel: informativa<br>Focos: 1<br>Últimas 6 h: 0<br>FRP total: 1.2 MW<br>Última detección UTC: 2026-10-05 12:44:00"
      }
    },
    {
      "type": "Feature",
      "geometry": {
        "type": "Point",
        "coordinates": [-1.3453, 35.3102]
      },
      "properties": {
        "cluster_id": "ALERT-20261006-068",
        "alerta_operativa": "informativa",
        "score": 2.4,
        "n_focos": 1,
        "n_ultimas_6h": 0,
        "n_ultimas_24h": 0,
        "frp_total_mw": 1,
        "frp_max_mw": 1,
        "edad_min_h": 37.2,
        "ultima_deteccion_utc": "2026-10-05 02:43:00",
        "sensores": "VIIRS_SNPP_NRT",
        "satellites": "N",
        "instruments": "VIIRS",
        "popup_label": "<strong>ALERT-20261006-068<\/strong><br>Nivel: informativa<br>Focos: 1<br>Últimas 6 h: 0<br>FRP total: 1 MW<br>Última detección UTC: 2026-10-05 02:43:00"
      }
    },
    {
      "type": "Feature",
      "geometry": {
        "type": "Point",
        "coordinates": [-8.9073, 39.6874]
      },
      "properties": {
        "cluster_id": "ALERT-20261006-069",
        "alerta_operativa": "informativa",
        "score": 2.2,
        "n_focos": 1,
        "n_ultimas_6h": 0,
        "n_ultimas_24h": 0,
        "frp_total_mw": 0.8,
        "frp_max_mw": 0.8,
        "edad_min_h": 36.8,
        "ultima_deteccion_utc": "2026-10-05 03:04:00",
        "sensores": "VIIRS_NOAA20_NRT",
        "satellites": "N20",
        "instruments": "VIIRS",
        "popup_label": "<strong>ALERT-20261006-069<\/strong><br>Nivel: informativa<br>Focos: 1<br>Últimas 6 h: 0<br>FRP total: 0.8 MW<br>Última detección UTC: 2026-10-05 03:04:00"
      }
    },
    {
      "type": "Feature",
      "geometry": {
        "type": "Point",
        "coordinates": [-8.0552, 31.6021]
      },
      "properties": {
        "cluster_id": "ALERT-20261006-070",
        "alerta_operativa": "informativa",
        "score": 2.1,
        "n_focos": 1,
        "n_ultimas_6h": 0,
        "n_ultimas_24h": 0,
        "frp_total_mw": 0.7,
        "frp_max_mw": 0.7,
        "edad_min_h": 37.2,
        "ultima_deteccion_utc": "2026-10-05 02:45:00",
        "sensores": "VIIRS_SNPP_NRT",
        "satellites": "N",
        "instruments": "VIIRS",
        "popup_label": "<strong>ALERT-20261006-070<\/strong><br>Nivel: informativa<br>Focos: 1<br>Últimas 6 h: 0<br>FRP total: 0.7 MW<br>Última detección UTC: 2026-10-05 02:45:00"
      }
    },
    {
      "type": "Feature",
      "geometry": {
        "type": "Point",
        "coordinates": [-6.6486, 32.4688]
      },
      "properties": {
        "cluster_id": "ALERT-20261006-071",
        "alerta_operativa": "informativa",
        "score": 1.9,
        "n_focos": 1,
        "n_ultimas_6h": 0,
        "n_ultimas_24h": 0,
        "frp_total_mw": 0.6,
        "frp_max_mw": 0.6,
        "edad_min_h": 37.2,
        "ultima_deteccion_utc": "2026-10-05 02:45:00",
        "sensores": "VIIRS_SNPP_NRT",
        "satellites": "N",
        "instruments": "VIIRS",
        "popup_label": "<strong>ALERT-20261006-071<\/strong><br>Nivel: informativa<br>Focos: 1<br>Últimas 6 h: 0<br>FRP total: 0.6 MW<br>Última detección UTC: 2026-10-05 02:45:00"
      }
    },
    {
      "type": "Feature",
      "geometry": {
        "type": "Point",
        "coordinates": [3.4477, 36.2485]
      },
      "properties": {
        "cluster_id": "ALERT-20261006-072",
        "alerta_operativa": "informativa",
        "score": 1.8,
        "n_focos": 1,
        "n_ultimas_6h": 0,
        "n_ultimas_24h": 0,
        "frp_total_mw": 0.5,
        "frp_max_mw": 0.5,
        "edad_min_h": 27.2,
        "ultima_deteccion_utc": "2026-10-05 12:44:00",
        "sensores": "VIIRS_NOAA20_NRT",
        "satellites": "N20",
        "instruments": "VIIRS",
        "popup_label": "<strong>ALERT-20261006-072<\/strong><br>Nivel: informativa<br>Focos: 1<br>Últimas 6 h: 0<br>FRP total: 0.5 MW<br>Última detección UTC: 2026-10-05 12:44:00"
      }
    }
  ]
}
