{
  "type": "FeatureCollection",
  "features": [
    {
      "type": "Feature",
      "geometry": {
        "type": "Point",
        "coordinates": [-0.2545, 35.8047]
      },
      "properties": {
        "cluster_id": "ALERT-20260930-001",
        "alerta_operativa": "alta",
        "score": 251.5,
        "n_focos": 44,
        "n_ultimas_6h": 22,
        "n_ultimas_24h": 44,
        "frp_total_mw": 115.5,
        "frp_max_mw": 5.6,
        "edad_min_h": 5.5,
        "ultima_deteccion_utc": "2026-09-30 02:58:00",
        "sensores": "VIIRS_NOAA20_NRT, VIIRS_SNPP_NRT",
        "satellites": "N, N20",
        "instruments": "VIIRS",
        "popup_label": "<strong>ALERT-20260930-001<\/strong><br>Nivel: alta<br>Focos: 44<br>Últimas 6 h: 22<br>FRP total: 115.5 MW<br>Última detección UTC: 2026-09-30 02:58:00"
      }
    },
    {
      "type": "Feature",
      "geometry": {
        "type": "Point",
        "coordinates": [4.8887, 43.4424]
      },
      "properties": {
        "cluster_id": "ALERT-20260930-002",
        "alerta_operativa": "alta",
        "score": 101.3,
        "n_focos": 17,
        "n_ultimas_6h": 9,
        "n_ultimas_24h": 16,
        "frp_total_mw": 37.6,
        "frp_max_mw": 4.8,
        "edad_min_h": 5.5,
        "ultima_deteccion_utc": "2026-09-30 02:56:00",
        "sensores": "VIIRS_NOAA20_NRT, VIIRS_SNPP_NRT",
        "satellites": "N, N20",
        "instruments": "VIIRS",
        "popup_label": "<strong>ALERT-20260930-002<\/strong><br>Nivel: alta<br>Focos: 17<br>Últimas 6 h: 9<br>FRP total: 37.6 MW<br>Última detección UTC: 2026-09-30 02:56:00"
      }
    },
    {
      "type": "Feature",
      "geometry": {
        "type": "Point",
        "coordinates": [1.773, 42.7095]
      },
      "properties": {
        "cluster_id": "ALERT-20260930-003",
        "alerta_operativa": "alta",
        "score": 75.8,
        "n_focos": 14,
        "n_ultimas_6h": 5,
        "n_ultimas_24h": 14,
        "frp_total_mw": 79.5,
        "frp_max_mw": 21.9,
        "edad_min_h": 5.5,
        "ultima_deteccion_utc": "2026-09-30 02:56:00",
        "sensores": "VIIRS_NOAA20_NRT, VIIRS_SNPP_NRT",
        "satellites": "N, N20",
        "instruments": "VIIRS",
        "popup_label": "<strong>ALERT-20260930-003<\/strong><br>Nivel: alta<br>Focos: 14<br>Últimas 6 h: 5<br>FRP total: 79.5 MW<br>Última detección UTC: 2026-09-30 02:56:00"
      }
    },
    {
      "type": "Feature",
      "geometry": {
        "type": "Point",
        "coordinates": [1.4779, 42.9028]
      },
      "properties": {
        "cluster_id": "ALERT-20260930-004",
        "alerta_operativa": "alta",
        "score": 70.6,
        "n_focos": 11,
        "n_ultimas_6h": 6,
        "n_ultimas_24h": 11,
        "frp_total_mw": 43.1,
        "frp_max_mw": 17.7,
        "edad_min_h": 5.5,
        "ultima_deteccion_utc": "2026-09-30 02:56:00",
        "sensores": "VIIRS_NOAA20_NRT, VIIRS_SNPP_NRT",
        "satellites": "N, N20",
        "instruments": "VIIRS",
        "popup_label": "<strong>ALERT-20260930-004<\/strong><br>Nivel: alta<br>Focos: 11<br>Últimas 6 h: 6<br>FRP total: 43.1 MW<br>Última detección UTC: 2026-09-30 02:56:00"
      }
    },
    {
      "type": "Feature",
      "geometry": {
        "type": "Point",
        "coordinates": [1.2402, 36.1284]
      },
      "properties": {
        "cluster_id": "ALERT-20260930-005",
        "alerta_operativa": "alta",
        "score": 48.8,
        "n_focos": 8,
        "n_ultimas_6h": 4,
        "n_ultimas_24h": 8,
        "frp_total_mw": 10.2,
        "frp_max_mw": 2,
        "edad_min_h": 5.5,
        "ultima_deteccion_utc": "2026-09-30 02:58:00",
        "sensores": "VIIRS_NOAA20_NRT, VIIRS_SNPP_NRT",
        "satellites": "N, N20",
        "instruments": "VIIRS",
        "popup_label": "<strong>ALERT-20260930-005<\/strong><br>Nivel: alta<br>Focos: 8<br>Últimas 6 h: 4<br>FRP total: 10.2 MW<br>Última detección UTC: 2026-09-30 02:58:00"
      }
    },
    {
      "type": "Feature",
      "geometry": {
        "type": "Point",
        "coordinates": [-2.7431, 34.9365]
      },
      "properties": {
        "cluster_id": "ALERT-20260930-006",
        "alerta_operativa": "alta",
        "score": 27.2,
        "n_focos": 3,
        "n_ultimas_6h": 3,
        "n_ultimas_24h": 3,
        "frp_total_mw": 3.9,
        "frp_max_mw": 1.4,
        "edad_min_h": 5.5,
        "ultima_deteccion_utc": "2026-09-30 02:58:00",
        "sensores": "VIIRS_NOAA20_NRT",
        "satellites": "N20",
        "instruments": "VIIRS",
        "popup_label": "<strong>ALERT-20260930-006<\/strong><br>Nivel: alta<br>Focos: 3<br>Últimas 6 h: 3<br>FRP total: 3.9 MW<br>Última detección UTC: 2026-09-30 02:58:00"
      }
    },
    {
      "type": "Feature",
      "geometry": {
        "type": "Point",
        "coordinates": [-5.0202, 34.0614]
      },
      "properties": {
        "cluster_id": "ALERT-20260930-007",
        "alerta_operativa": "alta",
        "score": 26.3,
        "n_focos": 4,
        "n_ultimas_6h": 2,
        "n_ultimas_24h": 4,
        "frp_total_mw": 7.8,
        "frp_max_mw": 3.4,
        "edad_min_h": 5.8,
        "ultima_deteccion_utc": "2026-09-30 02:38:00",
        "sensores": "VIIRS_SNPP_NRT",
        "satellites": "N",
        "instruments": "VIIRS",
        "popup_label": "<strong>ALERT-20260930-007<\/strong><br>Nivel: alta<br>Focos: 4<br>Últimas 6 h: 2<br>FRP total: 7.8 MW<br>Última detección UTC: 2026-09-30 02:38:00"
      }
    },
    {
      "type": "Feature",
      "geometry": {
        "type": "Point",
        "coordinates": [-1.8976, 34.9293]
      },
      "properties": {
        "cluster_id": "ALERT-20260930-008",
        "alerta_operativa": "alta",
        "score": 26,
        "n_focos": 3,
        "n_ultimas_6h": 3,
        "n_ultimas_24h": 3,
        "frp_total_mw": 1.7,
        "frp_max_mw": 0.7,
        "edad_min_h": 5.5,
        "ultima_deteccion_utc": "2026-09-30 02:58:00",
        "sensores": "VIIRS_NOAA20_NRT, VIIRS_SNPP_NRT",
        "satellites": "N, N20",
        "instruments": "VIIRS",
        "popup_label": "<strong>ALERT-20260930-008<\/strong><br>Nivel: alta<br>Focos: 3<br>Últimas 6 h: 3<br>FRP total: 1.7 MW<br>Última detección UTC: 2026-09-30 02:58:00"
      }
    },
    {
      "type": "Feature",
      "geometry": {
        "type": "Point",
        "coordinates": [-2.3479, 34.5977]
      },
      "properties": {
        "cluster_id": "ALERT-20260930-009",
        "alerta_operativa": "alta",
        "score": 21.8,
        "n_focos": 3,
        "n_ultimas_6h": 2,
        "n_ultimas_24h": 3,
        "frp_total_mw": 3,
        "frp_max_mw": 1.5,
        "edad_min_h": 5.5,
        "ultima_deteccion_utc": "2026-09-30 02:58:00",
        "sensores": "VIIRS_NOAA20_NRT, VIIRS_SNPP_NRT",
        "satellites": "N, N20",
        "instruments": "VIIRS",
        "popup_label": "<strong>ALERT-20260930-009<\/strong><br>Nivel: alta<br>Focos: 3<br>Últimas 6 h: 2<br>FRP total: 3 MW<br>Última detección UTC: 2026-09-30 02:58:00"
      }
    },
    {
      "type": "Feature",
      "geometry": {
        "type": "Point",
        "coordinates": [-7.7504, 33.3676]
      },
      "properties": {
        "cluster_id": "ALERT-20260930-010",
        "alerta_operativa": "alta",
        "score": 20.4,
        "n_focos": 3,
        "n_ultimas_6h": 2,
        "n_ultimas_24h": 2,
        "frp_total_mw": 4.6,
        "frp_max_mw": 1.6,
        "edad_min_h": 5.5,
        "ultima_deteccion_utc": "2026-09-30 02:58:00",
        "sensores": "VIIRS_NOAA20_NRT, VIIRS_SNPP_NRT",
        "satellites": "N, N20",
        "instruments": "VIIRS",
        "popup_label": "<strong>ALERT-20260930-010<\/strong><br>Nivel: alta<br>Focos: 3<br>Últimas 6 h: 2<br>FRP total: 4.6 MW<br>Última detección UTC: 2026-09-30 02:58:00"
      }
    },
    {
      "type": "Feature",
      "geometry": {
        "type": "Point",
        "coordinates": [-7.5339, 33.0549]
      },
      "properties": {
        "cluster_id": "ALERT-20260930-011",
        "alerta_operativa": "alta",
        "score": 19.7,
        "n_focos": 3,
        "n_ultimas_6h": 2,
        "n_ultimas_24h": 2,
        "frp_total_mw": 2.9,
        "frp_max_mw": 1.3,
        "edad_min_h": 5.5,
        "ultima_deteccion_utc": "2026-09-30 02:58:00",
        "sensores": "VIIRS_NOAA20_NRT, VIIRS_SNPP_NRT",
        "satellites": "N, N20",
        "instruments": "VIIRS",
        "popup_label": "<strong>ALERT-20260930-011<\/strong><br>Nivel: alta<br>Focos: 3<br>Últimas 6 h: 2<br>FRP total: 2.9 MW<br>Última detección UTC: 2026-09-30 02:58:00"
      }
    },
    {
      "type": "Feature",
      "geometry": {
        "type": "Point",
        "coordinates": [-0.3956, 35.4594]
      },
      "properties": {
        "cluster_id": "ALERT-20260930-012",
        "alerta_operativa": "alta",
        "score": 18.8,
        "n_focos": 2,
        "n_ultimas_6h": 2,
        "n_ultimas_24h": 2,
        "frp_total_mw": 3.1,
        "frp_max_mw": 1.6,
        "edad_min_h": 5.5,
        "ultima_deteccion_utc": "2026-09-30 02:58:00",
        "sensores": "VIIRS_NOAA20_NRT, VIIRS_SNPP_NRT",
        "satellites": "N, N20",
        "instruments": "VIIRS",
        "popup_label": "<strong>ALERT-20260930-012<\/strong><br>Nivel: alta<br>Focos: 2<br>Últimas 6 h: 2<br>FRP total: 3.1 MW<br>Última detección UTC: 2026-09-30 02:58:00"
      }
    },
    {
      "type": "Feature",
      "geometry": {
        "type": "Point",
        "coordinates": [-4.7965, 36.5012]
      },
      "properties": {
        "cluster_id": "ALERT-20260930-013",
        "alerta_operativa": "alta",
        "score": 17.6,
        "n_focos": 2,
        "n_ultimas_6h": 2,
        "n_ultimas_24h": 2,
        "frp_total_mw": 1.2,
        "frp_max_mw": 0.6,
        "edad_min_h": 5.5,
        "ultima_deteccion_utc": "2026-09-30 02:58:00",
        "sensores": "VIIRS_NOAA20_NRT",
        "satellites": "N20",
        "instruments": "VIIRS",
        "popup_label": "<strong>ALERT-20260930-013<\/strong><br>Nivel: alta<br>Focos: 2<br>Últimas 6 h: 2<br>FRP total: 1.2 MW<br>Última detección UTC: 2026-09-30 02:58:00"
      }
    },
    {
      "type": "Feature",
      "geometry": {
        "type": "Point",
        "coordinates": [-0.3453, 33.4758]
      },
      "properties": {
        "cluster_id": "ALERT-20260930-014",
        "alerta_operativa": "media",
        "score": 24.3,
        "n_focos": 7,
        "n_ultimas_6h": 1,
        "n_ultimas_24h": 4,
        "frp_total_mw": 7.8,
        "frp_max_mw": 1.8,
        "edad_min_h": 5.8,
        "ultima_deteccion_utc": "2026-09-30 02:38:00",
        "sensores": "VIIRS_NOAA20_NRT, VIIRS_SNPP_NRT",
        "satellites": "N, N20",
        "instruments": "VIIRS",
        "popup_label": "<strong>ALERT-20260930-014<\/strong><br>Nivel: media<br>Focos: 7<br>Últimas 6 h: 1<br>FRP total: 7.8 MW<br>Última detección UTC: 2026-09-30 02:38:00"
      }
    },
    {
      "type": "Feature",
      "geometry": {
        "type": "Point",
        "coordinates": [-0.5179, 28.2005]
      },
      "properties": {
        "cluster_id": "ALERT-20260930-015",
        "alerta_operativa": "media",
        "score": 21.3,
        "n_focos": 4,
        "n_ultimas_6h": 1,
        "n_ultimas_24h": 4,
        "frp_total_mw": 7.4,
        "frp_max_mw": 2.2,
        "edad_min_h": 5.8,
        "ultima_deteccion_utc": "2026-09-30 02:41:00",
        "sensores": "VIIRS_NOAA20_NRT, VIIRS_SNPP_NRT",
        "satellites": "N, N20",
        "instruments": "VIIRS",
        "popup_label": "<strong>ALERT-20260930-015<\/strong><br>Nivel: media<br>Focos: 4<br>Últimas 6 h: 1<br>FRP total: 7.4 MW<br>Última detección UTC: 2026-09-30 02:41:00"
      }
    },
    {
      "type": "Feature",
      "geometry": {
        "type": "Point",
        "coordinates": [-0.1601, 28.212]
      },
      "properties": {
        "cluster_id": "ALERT-20260930-016",
        "alerta_operativa": "media",
        "score": 20.3,
        "n_focos": 4,
        "n_ultimas_6h": 1,
        "n_ultimas_24h": 4,
        "frp_total_mw": 4.2,
        "frp_max_mw": 1.5,
        "edad_min_h": 5.8,
        "ultima_deteccion_utc": "2026-09-30 02:41:00",
        "sensores": "VIIRS_NOAA20_NRT, VIIRS_SNPP_NRT",
        "satellites": "N, N20",
        "instruments": "VIIRS",
        "popup_label": "<strong>ALERT-20260930-016<\/strong><br>Nivel: media<br>Focos: 4<br>Últimas 6 h: 1<br>FRP total: 4.2 MW<br>Última detección UTC: 2026-09-30 02:41:00"
      }
    },
    {
      "type": "Feature",
      "geometry": {
        "type": "Point",
        "coordinates": [-6.112, 34.9252]
      },
      "properties": {
        "cluster_id": "ALERT-20260930-017",
        "alerta_operativa": "media",
        "score": 18.8,
        "n_focos": 3,
        "n_ultimas_6h": 1,
        "n_ultimas_24h": 3,
        "frp_total_mw": 10.3,
        "frp_max_mw": 5.3,
        "edad_min_h": 5.8,
        "ultima_deteccion_utc": "2026-09-30 02:38:00",
        "sensores": "VIIRS_NOAA20_NRT, VIIRS_SNPP_NRT",
        "satellites": "N, N20",
        "instruments": "VIIRS",
        "popup_label": "<strong>ALERT-20260930-017<\/strong><br>Nivel: media<br>Focos: 3<br>Últimas 6 h: 1<br>FRP total: 10.3 MW<br>Última detección UTC: 2026-09-30 02:38:00"
      }
    },
    {
      "type": "Feature",
      "geometry": {
        "type": "Point",
        "coordinates": [4.7434, 32.1745]
      },
      "properties": {
        "cluster_id": "ALERT-20260930-018",
        "alerta_operativa": "media",
        "score": 18.8,
        "n_focos": 6,
        "n_ultimas_6h": 0,
        "n_ultimas_24h": 4,
        "frp_total_mw": 9.8,
        "frp_max_mw": 3,
        "edad_min_h": 7.2,
        "ultima_deteccion_utc": "2026-09-30 01:17:00",
        "sensores": "VIIRS_NOAA20_NRT, VIIRS_SNPP_NRT",
        "satellites": "N, N20",
        "instruments": "VIIRS",
        "popup_label": "<strong>ALERT-20260930-018<\/strong><br>Nivel: media<br>Focos: 6<br>Últimas 6 h: 0<br>FRP total: 9.8 MW<br>Última detección UTC: 2026-09-30 01:17:00"
      }
    },
    {
      "type": "Feature",
      "geometry": {
        "type": "Point",
        "coordinates": [3.7669, 36.3746]
      },
      "properties": {
        "cluster_id": "ALERT-20260930-019",
        "alerta_operativa": "media",
        "score": 18.5,
        "n_focos": 4,
        "n_ultimas_6h": 0,
        "n_ultimas_24h": 4,
        "frp_total_mw": 25.2,
        "frp_max_mw": 10.1,
        "edad_min_h": 19.5,
        "ultima_deteccion_utc": "2026-09-29 12:55:00",
        "sensores": "VIIRS_NOAA20_NRT, VIIRS_SNPP_NRT",
        "satellites": "N, N20",
        "instruments": "VIIRS",
        "popup_label": "<strong>ALERT-20260930-019<\/strong><br>Nivel: media<br>Focos: 4<br>Últimas 6 h: 0<br>FRP total: 25.2 MW<br>Última detección UTC: 2026-09-29 12:55:00"
      }
    },
    {
      "type": "Feature",
      "geometry": {
        "type": "Point",
        "coordinates": [4.8961, 43.6415]
      },
      "properties": {
        "cluster_id": "ALERT-20260930-020",
        "alerta_operativa": "media",
        "score": 13.9,
        "n_focos": 3,
        "n_ultimas_6h": 0,
        "n_ultimas_24h": 3,
        "frp_total_mw": 10.6,
        "frp_max_mw": 3.6,
        "edad_min_h": 19.5,
        "ultima_deteccion_utc": "2026-09-29 12:57:00",
        "sensores": "VIIRS_NOAA20_NRT, VIIRS_SNPP_NRT",
        "satellites": "N, N20",
        "instruments": "VIIRS",
        "popup_label": "<strong>ALERT-20260930-020<\/strong><br>Nivel: media<br>Focos: 3<br>Últimas 6 h: 0<br>FRP total: 10.6 MW<br>Última detección UTC: 2026-09-29 12:57:00"
      }
    },
    {
      "type": "Feature",
      "geometry": {
        "type": "Point",
        "coordinates": [2.9283, 36.1403]
      },
      "properties": {
        "cluster_id": "ALERT-20260930-021",
        "alerta_operativa": "media",
        "score": 13.6,
        "n_focos": 3,
        "n_ultimas_6h": 1,
        "n_ultimas_24h": 2,
        "frp_total_mw": 1.2,
        "frp_max_mw": 0.5,
        "edad_min_h": 5.8,
        "ultima_deteccion_utc": "2026-09-30 02:38:00",
        "sensores": "VIIRS_NOAA20_NRT, VIIRS_SNPP_NRT",
        "satellites": "N, N20",
        "instruments": "VIIRS",
        "popup_label": "<strong>ALERT-20260930-021<\/strong><br>Nivel: media<br>Focos: 3<br>Últimas 6 h: 1<br>FRP total: 1.2 MW<br>Última detección UTC: 2026-09-30 02:38:00"
      }
    },
    {
      "type": "Feature",
      "geometry": {
        "type": "Point",
        "coordinates": [-9.1128, 30.2269]
      },
      "properties": {
        "cluster_id": "ALERT-20260930-022",
        "alerta_operativa": "media",
        "score": 12.4,
        "n_focos": 3,
        "n_ultimas_6h": 1,
        "n_ultimas_24h": 1,
        "frp_total_mw": 2.4,
        "frp_max_mw": 0.9,
        "edad_min_h": 5.8,
        "ultima_deteccion_utc": "2026-09-30 02:41:00",
        "sensores": "VIIRS_SNPP_NRT",
        "satellites": "N",
        "instruments": "VIIRS",
        "popup_label": "<strong>ALERT-20260930-022<\/strong><br>Nivel: media<br>Focos: 3<br>Últimas 6 h: 1<br>FRP total: 2.4 MW<br>Última detección UTC: 2026-09-30 02:41:00"
      }
    },
    {
      "type": "Feature",
      "geometry": {
        "type": "Point",
        "coordinates": [-8.4801, 32.346]
      },
      "properties": {
        "cluster_id": "ALERT-20260930-023",
        "alerta_operativa": "media",
        "score": 11.1,
        "n_focos": 2,
        "n_ultimas_6h": 1,
        "n_ultimas_24h": 1,
        "frp_total_mw": 1.8,
        "frp_max_mw": 0.9,
        "edad_min_h": 5.8,
        "ultima_deteccion_utc": "2026-09-30 02:41:00",
        "sensores": "VIIRS_SNPP_NRT",
        "satellites": "N",
        "instruments": "VIIRS",
        "popup_label": "<strong>ALERT-20260930-023<\/strong><br>Nivel: media<br>Focos: 2<br>Últimas 6 h: 1<br>FRP total: 1.8 MW<br>Última detección UTC: 2026-09-30 02:41:00"
      }
    },
    {
      "type": "Feature",
      "geometry": {
        "type": "Point",
        "coordinates": [-4.0549, 38.6716]
      },
      "properties": {
        "cluster_id": "ALERT-20260930-024",
        "alerta_operativa": "media",
        "score": 10.6,
        "n_focos": 3,
        "n_ultimas_6h": 0,
        "n_ultimas_24h": 2,
        "frp_total_mw": 5.2,
        "frp_max_mw": 1.8,
        "edad_min_h": 7.2,
        "ultima_deteccion_utc": "2026-09-30 01:15:00",
        "sensores": "VIIRS_NOAA20_NRT, VIIRS_SNPP_NRT",
        "satellites": "N, N20",
        "instruments": "VIIRS",
        "popup_label": "<strong>ALERT-20260930-024<\/strong><br>Nivel: media<br>Focos: 3<br>Últimas 6 h: 0<br>FRP total: 5.2 MW<br>Última detección UTC: 2026-09-30 01:15:00"
      }
    },
    {
      "type": "Feature",
      "geometry": {
        "type": "Point",
        "coordinates": [-4.3736, 37.8343]
      },
      "properties": {
        "cluster_id": "ALERT-20260930-025",
        "alerta_operativa": "media",
        "score": 10.2,
        "n_focos": 2,
        "n_ultimas_6h": 0,
        "n_ultimas_24h": 2,
        "frp_total_mw": 7.1,
        "frp_max_mw": 5,
        "edad_min_h": 19.5,
        "ultima_deteccion_utc": "2026-09-29 12:55:00",
        "sensores": "VIIRS_NOAA20_NRT, VIIRS_SNPP_NRT",
        "satellites": "N, N20",
        "instruments": "VIIRS",
        "popup_label": "<strong>ALERT-20260930-025<\/strong><br>Nivel: media<br>Focos: 2<br>Últimas 6 h: 0<br>FRP total: 7.1 MW<br>Última detección UTC: 2026-09-29 12:55:00"
      }
    },
    {
      "type": "Feature",
      "geometry": {
        "type": "Point",
        "coordinates": [-5.0603, 37.184]
      },
      "properties": {
        "cluster_id": "ALERT-20260930-026",
        "alerta_operativa": "media",
        "score": 10.2,
        "n_focos": 2,
        "n_ultimas_6h": 0,
        "n_ultimas_24h": 2,
        "frp_total_mw": 7,
        "frp_max_mw": 3.8,
        "edad_min_h": 19.5,
        "ultima_deteccion_utc": "2026-09-29 12:55:00",
        "sensores": "VIIRS_NOAA20_NRT",
        "satellites": "N20",
        "instruments": "VIIRS",
        "popup_label": "<strong>ALERT-20260930-026<\/strong><br>Nivel: media<br>Focos: 2<br>Últimas 6 h: 0<br>FRP total: 7 MW<br>Última detección UTC: 2026-09-29 12:55:00"
      }
    },
    {
      "type": "Feature",
      "geometry": {
        "type": "Point",
        "coordinates": [2.0577, 34.4388]
      },
      "properties": {
        "cluster_id": "ALERT-20260930-027",
        "alerta_operativa": "media",
        "score": 9.9,
        "n_focos": 3,
        "n_ultimas_6h": 0,
        "n_ultimas_24h": 2,
        "frp_total_mw": 3.2,
        "frp_max_mw": 1.7,
        "edad_min_h": 7.2,
        "ultima_deteccion_utc": "2026-09-30 01:17:00",
        "sensores": "VIIRS_NOAA20_NRT",
        "satellites": "N20",
        "instruments": "VIIRS",
        "popup_label": "<strong>ALERT-20260930-027<\/strong><br>Nivel: media<br>Focos: 3<br>Últimas 6 h: 0<br>FRP total: 3.2 MW<br>Última detección UTC: 2026-09-30 01:17:00"
      }
    },
    {
      "type": "Feature",
      "geometry": {
        "type": "Point",
        "coordinates": [-8.6057, 33.1342]
      },
      "properties": {
        "cluster_id": "ALERT-20260930-028",
        "alerta_operativa": "media",
        "score": 9.5,
        "n_focos": 1,
        "n_ultimas_6h": 1,
        "n_ultimas_24h": 1,
        "frp_total_mw": 1.1,
        "frp_max_mw": 1.1,
        "edad_min_h": 5.8,
        "ultima_deteccion_utc": "2026-09-30 02:41:00",
        "sensores": "VIIRS_SNPP_NRT",
        "satellites": "N",
        "instruments": "VIIRS",
        "popup_label": "<strong>ALERT-20260930-028<\/strong><br>Nivel: media<br>Focos: 1<br>Últimas 6 h: 1<br>FRP total: 1.1 MW<br>Última detección UTC: 2026-09-30 02:41:00"
      }
    },
    {
      "type": "Feature",
      "geometry": {
        "type": "Point",
        "coordinates": [-1.3458, 35.3134]
      },
      "properties": {
        "cluster_id": "ALERT-20260930-029",
        "alerta_operativa": "media",
        "score": 9.5,
        "n_focos": 1,
        "n_ultimas_6h": 1,
        "n_ultimas_24h": 1,
        "frp_total_mw": 1.1,
        "frp_max_mw": 1.1,
        "edad_min_h": 5.5,
        "ultima_deteccion_utc": "2026-09-30 02:58:00",
        "sensores": "VIIRS_NOAA20_NRT",
        "satellites": "N20",
        "instruments": "VIIRS",
        "popup_label": "<strong>ALERT-20260930-029<\/strong><br>Nivel: media<br>Focos: 1<br>Últimas 6 h: 1<br>FRP total: 1.1 MW<br>Última detección UTC: 2026-09-30 02:58:00"
      }
    },
    {
      "type": "Feature",
      "geometry": {
        "type": "Point",
        "coordinates": [-0.276, 35.532]
      },
      "properties": {
        "cluster_id": "ALERT-20260930-030",
        "alerta_operativa": "media",
        "score": 9.2,
        "n_focos": 1,
        "n_ultimas_6h": 1,
        "n_ultimas_24h": 1,
        "frp_total_mw": 0.8,
        "frp_max_mw": 0.8,
        "edad_min_h": 5.8,
        "ultima_deteccion_utc": "2026-09-30 02:38:00",
        "sensores": "VIIRS_SNPP_NRT",
        "satellites": "N",
        "instruments": "VIIRS",
        "popup_label": "<strong>ALERT-20260930-030<\/strong><br>Nivel: media<br>Focos: 1<br>Últimas 6 h: 1<br>FRP total: 0.8 MW<br>Última detección UTC: 2026-09-30 02:38:00"
      }
    },
    {
      "type": "Feature",
      "geometry": {
        "type": "Point",
        "coordinates": [-5.6901, 43.1493]
      },
      "properties": {
        "cluster_id": "ALERT-20260930-031",
        "alerta_operativa": "media",
        "score": 9.2,
        "n_focos": 1,
        "n_ultimas_6h": 1,
        "n_ultimas_24h": 1,
        "frp_total_mw": 0.8,
        "frp_max_mw": 0.8,
        "edad_min_h": 5.5,
        "ultima_deteccion_utc": "2026-09-30 02:56:00",
        "sensores": "VIIRS_NOAA20_NRT",
        "satellites": "N20",
        "instruments": "VIIRS",
        "popup_label": "<strong>ALERT-20260930-031<\/strong><br>Nivel: media<br>Focos: 1<br>Últimas 6 h: 1<br>FRP total: 0.8 MW<br>Última detección UTC: 2026-09-30 02:56:00"
      }
    },
    {
      "type": "Feature",
      "geometry": {
        "type": "Point",
        "coordinates": [-8.4347, 43.3445]
      },
      "properties": {
        "cluster_id": "ALERT-20260930-032",
        "alerta_operativa": "media",
        "score": 9.1,
        "n_focos": 1,
        "n_ultimas_6h": 1,
        "n_ultimas_24h": 1,
        "frp_total_mw": 0.7,
        "frp_max_mw": 0.7,
        "edad_min_h": 5.8,
        "ultima_deteccion_utc": "2026-09-30 02:36:00",
        "sensores": "VIIRS_SNPP_NRT",
        "satellites": "N",
        "instruments": "VIIRS",
        "popup_label": "<strong>ALERT-20260930-032<\/strong><br>Nivel: media<br>Focos: 1<br>Últimas 6 h: 1<br>FRP total: 0.7 MW<br>Última detección UTC: 2026-09-30 02:36:00"
      }
    },
    {
      "type": "Feature",
      "geometry": {
        "type": "Point",
        "coordinates": [-6.9482, 33.8919]
      },
      "properties": {
        "cluster_id": "ALERT-20260930-033",
        "alerta_operativa": "media",
        "score": 8.9,
        "n_focos": 1,
        "n_ultimas_6h": 1,
        "n_ultimas_24h": 1,
        "frp_total_mw": 0.6,
        "frp_max_mw": 0.6,
        "edad_min_h": 5.8,
        "ultima_deteccion_utc": "2026-09-30 02:41:00",
        "sensores": "VIIRS_SNPP_NRT",
        "satellites": "N",
        "instruments": "VIIRS",
        "popup_label": "<strong>ALERT-20260930-033<\/strong><br>Nivel: media<br>Focos: 1<br>Últimas 6 h: 1<br>FRP total: 0.6 MW<br>Última detección UTC: 2026-09-30 02:41:00"
      }
    },
    {
      "type": "Feature",
      "geometry": {
        "type": "Point",
        "coordinates": [-6.1373, 32.5664]
      },
      "properties": {
        "cluster_id": "ALERT-20260930-034",
        "alerta_operativa": "media",
        "score": 8.8,
        "n_focos": 1,
        "n_ultimas_6h": 1,
        "n_ultimas_24h": 1,
        "frp_total_mw": 0.5,
        "frp_max_mw": 0.5,
        "edad_min_h": 5.5,
        "ultima_deteccion_utc": "2026-09-30 02:58:00",
        "sensores": "VIIRS_NOAA20_NRT",
        "satellites": "N20",
        "instruments": "VIIRS",
        "popup_label": "<strong>ALERT-20260930-034<\/strong><br>Nivel: media<br>Focos: 1<br>Últimas 6 h: 1<br>FRP total: 0.5 MW<br>Última detección UTC: 2026-09-30 02:58:00"
      }
    },
    {
      "type": "Feature",
      "geometry": {
        "type": "Point",
        "coordinates": [0.3049, 28.115]
      },
      "properties": {
        "cluster_id": "ALERT-20260930-035",
        "alerta_operativa": "media",
        "score": 8.7,
        "n_focos": 1,
        "n_ultimas_6h": 1,
        "n_ultimas_24h": 1,
        "frp_total_mw": 0.4,
        "frp_max_mw": 0.4,
        "edad_min_h": 5.8,
        "ultima_deteccion_utc": "2026-09-30 02:41:00",
        "sensores": "VIIRS_SNPP_NRT",
        "satellites": "N",
        "instruments": "VIIRS",
        "popup_label": "<strong>ALERT-20260930-035<\/strong><br>Nivel: media<br>Focos: 1<br>Últimas 6 h: 1<br>FRP total: 0.4 MW<br>Última detección UTC: 2026-09-30 02:41:00"
      }
    },
    {
      "type": "Feature",
      "geometry": {
        "type": "Point",
        "coordinates": [-2.9645, 35.0921]
      },
      "properties": {
        "cluster_id": "ALERT-20260930-036",
        "alerta_operativa": "media",
        "score": 8.7,
        "n_focos": 1,
        "n_ultimas_6h": 1,
        "n_ultimas_24h": 1,
        "frp_total_mw": 0.4,
        "frp_max_mw": 0.4,
        "edad_min_h": 5.8,
        "ultima_deteccion_utc": "2026-09-30 02:38:00",
        "sensores": "VIIRS_SNPP_NRT",
        "satellites": "N",
        "instruments": "VIIRS",
        "popup_label": "<strong>ALERT-20260930-036<\/strong><br>Nivel: media<br>Focos: 1<br>Últimas 6 h: 1<br>FRP total: 0.4 MW<br>Última detección UTC: 2026-09-30 02:38:00"
      }
    },
    {
      "type": "Feature",
      "geometry": {
        "type": "Point",
        "coordinates": [-7.5375, 33.4358]
      },
      "properties": {
        "cluster_id": "ALERT-20260930-037",
        "alerta_operativa": "media",
        "score": 8.5,
        "n_focos": 1,
        "n_ultimas_6h": 1,
        "n_ultimas_24h": 1,
        "frp_total_mw": 0.3,
        "frp_max_mw": 0.3,
        "edad_min_h": 5.8,
        "ultima_deteccion_utc": "2026-09-30 02:41:00",
        "sensores": "VIIRS_SNPP_NRT",
        "satellites": "N",
        "instruments": "VIIRS",
        "popup_label": "<strong>ALERT-20260930-037<\/strong><br>Nivel: media<br>Focos: 1<br>Últimas 6 h: 1<br>FRP total: 0.3 MW<br>Última detección UTC: 2026-09-30 02:41:00"
      }
    },
    {
      "type": "Feature",
      "geometry": {
        "type": "Point",
        "coordinates": [-3.4753, 40.2465]
      },
      "properties": {
        "cluster_id": "ALERT-20260930-038",
        "alerta_operativa": "seguimiento",
        "score": 9.7,
        "n_focos": 3,
        "n_ultimas_6h": 0,
        "n_ultimas_24h": 1,
        "frp_total_mw": 9.5,
        "frp_max_mw": 3.9,
        "edad_min_h": 19.5,
        "ultima_deteccion_utc": "2026-09-29 12:57:00",
        "sensores": "VIIRS_NOAA20_NRT",
        "satellites": "N20",
        "instruments": "VIIRS",
        "popup_label": "<strong>ALERT-20260930-038<\/strong><br>Nivel: seguimiento<br>Focos: 3<br>Últimas 6 h: 0<br>FRP total: 9.5 MW<br>Última detección UTC: 2026-09-29 12:57:00"
      }
    },
    {
      "type": "Feature",
      "geometry": {
        "type": "Point",
        "coordinates": [1.0256, 43.8889]
      },
      "properties": {
        "cluster_id": "ALERT-20260930-039",
        "alerta_operativa": "seguimiento",
        "score": 7.4,
        "n_focos": 1,
        "n_ultimas_6h": 0,
        "n_ultimas_24h": 1,
        "frp_total_mw": 8.2,
        "frp_max_mw": 8.2,
        "edad_min_h": 19.8,
        "ultima_deteccion_utc": "2026-09-29 12:38:00",
        "sensores": "VIIRS_SNPP_NRT",
        "satellites": "N",
        "instruments": "VIIRS",
        "popup_label": "<strong>ALERT-20260930-039<\/strong><br>Nivel: seguimiento<br>Focos: 1<br>Últimas 6 h: 0<br>FRP total: 8.2 MW<br>Última detección UTC: 2026-09-29 12:38:00"
      }
    },
    {
      "type": "Feature",
      "geometry": {
        "type": "Point",
        "coordinates": [3.7504, 36.1783]
      },
      "properties": {
        "cluster_id": "ALERT-20260930-040",
        "alerta_operativa": "seguimiento",
        "score": 7.2,
        "n_focos": 2,
        "n_ultimas_6h": 0,
        "n_ultimas_24h": 1,
        "frp_total_mw": 4,
        "frp_max_mw": 2.6,
        "edad_min_h": 19.5,
        "ultima_deteccion_utc": "2026-09-29 12:55:00",
        "sensores": "VIIRS_NOAA20_NRT, VIIRS_SNPP_NRT",
        "satellites": "N, N20",
        "instruments": "VIIRS",
        "popup_label": "<strong>ALERT-20260930-040<\/strong><br>Nivel: seguimiento<br>Focos: 2<br>Últimas 6 h: 0<br>FRP total: 4 MW<br>Última detección UTC: 2026-09-29 12:55:00"
      }
    },
    {
      "type": "Feature",
      "geometry": {
        "type": "Point",
        "coordinates": [-5.8292, 33.2529]
      },
      "properties": {
        "cluster_id": "ALERT-20260930-041",
        "alerta_operativa": "seguimiento",
        "score": 7.1,
        "n_focos": 1,
        "n_ultimas_6h": 0,
        "n_ultimas_24h": 1,
        "frp_total_mw": 6.7,
        "frp_max_mw": 6.7,
        "edad_min_h": 19.8,
        "ultima_deteccion_utc": "2026-09-29 12:36:00",
        "sensores": "VIIRS_SNPP_NRT",
        "satellites": "N",
        "instruments": "VIIRS",
        "popup_label": "<strong>ALERT-20260930-041<\/strong><br>Nivel: seguimiento<br>Focos: 1<br>Últimas 6 h: 0<br>FRP total: 6.7 MW<br>Última detección UTC: 2026-09-29 12:36:00"
      }
    },
    {
      "type": "Feature",
      "geometry": {
        "type": "Point",
        "coordinates": [-1.2507, 40.4592]
      },
      "properties": {
        "cluster_id": "ALERT-20260930-042",
        "alerta_operativa": "seguimiento",
        "score": 7,
        "n_focos": 1,
        "n_ultimas_6h": 0,
        "n_ultimas_24h": 1,
        "frp_total_mw": 6.3,
        "frp_max_mw": 6.3,
        "edad_min_h": 19.5,
        "ultima_deteccion_utc": "2026-09-29 12:57:00",
        "sensores": "VIIRS_NOAA20_NRT",
        "satellites": "N20",
        "instruments": "VIIRS",
        "popup_label": "<strong>ALERT-20260930-042<\/strong><br>Nivel: seguimiento<br>Focos: 1<br>Últimas 6 h: 0<br>FRP total: 6.3 MW<br>Última detección UTC: 2026-09-29 12:57:00"
      }
    },
    {
      "type": "Feature",
      "geometry": {
        "type": "Point",
        "coordinates": [-6.9474, 32.3951]
      },
      "properties": {
        "cluster_id": "ALERT-20260930-043",
        "alerta_operativa": "seguimiento",
        "score": 6.7,
        "n_focos": 1,
        "n_ultimas_6h": 0,
        "n_ultimas_24h": 1,
        "frp_total_mw": 5.5,
        "frp_max_mw": 5.5,
        "edad_min_h": 19.5,
        "ultima_deteccion_utc": "2026-09-29 12:55:00",
        "sensores": "VIIRS_NOAA20_NRT",
        "satellites": "N20",
        "instruments": "VIIRS",
        "popup_label": "<strong>ALERT-20260930-043<\/strong><br>Nivel: seguimiento<br>Focos: 1<br>Últimas 6 h: 0<br>FRP total: 5.5 MW<br>Última detección UTC: 2026-09-29 12:55:00"
      }
    },
    {
      "type": "Feature",
      "geometry": {
        "type": "Point",
        "coordinates": [-5.9183, 36.7681]
      },
      "properties": {
        "cluster_id": "ALERT-20260930-044",
        "alerta_operativa": "seguimiento",
        "score": 6.7,
        "n_focos": 1,
        "n_ultimas_6h": 0,
        "n_ultimas_24h": 1,
        "frp_total_mw": 5.4,
        "frp_max_mw": 5.4,
        "edad_min_h": 19.5,
        "ultima_deteccion_utc": "2026-09-29 12:55:00",
        "sensores": "VIIRS_NOAA20_NRT",
        "satellites": "N20",
        "instruments": "VIIRS",
        "popup_label": "<strong>ALERT-20260930-044<\/strong><br>Nivel: seguimiento<br>Focos: 1<br>Últimas 6 h: 0<br>FRP total: 5.4 MW<br>Última detección UTC: 2026-09-29 12:55:00"
      }
    },
    {
      "type": "Feature",
      "geometry": {
        "type": "Point",
        "coordinates": [-0.267, 39.2192]
      },
      "properties": {
        "cluster_id": "ALERT-20260930-045",
        "alerta_operativa": "seguimiento",
        "score": 6.1,
        "n_focos": 1,
        "n_ultimas_6h": 0,
        "n_ultimas_24h": 1,
        "frp_total_mw": 3.7,
        "frp_max_mw": 3.7,
        "edad_min_h": 19.8,
        "ultima_deteccion_utc": "2026-09-29 12:38:00",
        "sensores": "VIIRS_SNPP_NRT",
        "satellites": "N",
        "instruments": "VIIRS",
        "popup_label": "<strong>ALERT-20260930-045<\/strong><br>Nivel: seguimiento<br>Focos: 1<br>Últimas 6 h: 0<br>FRP total: 3.7 MW<br>Última detección UTC: 2026-09-29 12:38:00"
      }
    },
    {
      "type": "Feature",
      "geometry": {
        "type": "Point",
        "coordinates": [4.475, 35.7097]
      },
      "properties": {
        "cluster_id": "ALERT-20260930-046",
        "alerta_operativa": "seguimiento",
        "score": 6.1,
        "n_focos": 2,
        "n_ultimas_6h": 0,
        "n_ultimas_24h": 1,
        "frp_total_mw": 1.8,
        "frp_max_mw": 1,
        "edad_min_h": 7.2,
        "ultima_deteccion_utc": "2026-09-30 01:15:00",
        "sensores": "VIIRS_NOAA20_NRT",
        "satellites": "N20",
        "instruments": "VIIRS",
        "popup_label": "<strong>ALERT-20260930-046<\/strong><br>Nivel: seguimiento<br>Focos: 2<br>Últimas 6 h: 0<br>FRP total: 1.8 MW<br>Última detección UTC: 2026-09-30 01:15:00"
      }
    },
    {
      "type": "Feature",
      "geometry": {
        "type": "Point",
        "coordinates": [-4.6761, 33.9076]
      },
      "properties": {
        "cluster_id": "ALERT-20260930-047",
        "alerta_operativa": "seguimiento",
        "score": 6,
        "n_focos": 1,
        "n_ultimas_6h": 0,
        "n_ultimas_24h": 1,
        "frp_total_mw": 3.4,
        "frp_max_mw": 3.4,
        "edad_min_h": 19.5,
        "ultima_deteccion_utc": "2026-09-29 12:55:00",
        "sensores": "VIIRS_NOAA20_NRT",
        "satellites": "N20",
        "instruments": "VIIRS",
        "popup_label": "<strong>ALERT-20260930-047<\/strong><br>Nivel: seguimiento<br>Focos: 1<br>Últimas 6 h: 0<br>FRP total: 3.4 MW<br>Última detección UTC: 2026-09-29 12:55:00"
      }
    },
    {
      "type": "Feature",
      "geometry": {
        "type": "Point",
        "coordinates": [-6.5596, 32.2661]
      },
      "properties": {
        "cluster_id": "ALERT-20260930-048",
        "alerta_operativa": "seguimiento",
        "score": 5.9,
        "n_focos": 1,
        "n_ultimas_6h": 0,
        "n_ultimas_24h": 1,
        "frp_total_mw": 3.2,
        "frp_max_mw": 3.2,
        "edad_min_h": 19.5,
        "ultima_deteccion_utc": "2026-09-29 12:55:00",
        "sensores": "VIIRS_NOAA20_NRT",
        "satellites": "N20",
        "instruments": "VIIRS",
        "popup_label": "<strong>ALERT-20260930-048<\/strong><br>Nivel: seguimiento<br>Focos: 1<br>Últimas 6 h: 0<br>FRP total: 3.2 MW<br>Última detección UTC: 2026-09-29 12:55:00"
      }
    },
    {
      "type": "Feature",
      "geometry": {
        "type": "Point",
        "coordinates": [1.165, 34.7841]
      },
      "properties": {
        "cluster_id": "ALERT-20260930-049",
        "alerta_operativa": "seguimiento",
        "score": 5.6,
        "n_focos": 1,
        "n_ultimas_6h": 0,
        "n_ultimas_24h": 1,
        "frp_total_mw": 2.6,
        "frp_max_mw": 2.6,
        "edad_min_h": 19.5,
        "ultima_deteccion_utc": "2026-09-29 12:55:00",
        "sensores": "VIIRS_NOAA20_NRT",
        "satellites": "N20",
        "instruments": "VIIRS",
        "popup_label": "<strong>ALERT-20260930-049<\/strong><br>Nivel: seguimiento<br>Focos: 1<br>Últimas 6 h: 0<br>FRP total: 2.6 MW<br>Última detección UTC: 2026-09-29 12:55:00"
      }
    },
    {
      "type": "Feature",
      "geometry": {
        "type": "Point",
        "coordinates": [-1.4952, 41.827]
      },
      "properties": {
        "cluster_id": "ALERT-20260930-050",
        "alerta_operativa": "seguimiento",
        "score": 5.4,
        "n_focos": 1,
        "n_ultimas_6h": 0,
        "n_ultimas_24h": 1,
        "frp_total_mw": 2.4,
        "frp_max_mw": 2.4,
        "edad_min_h": 19.5,
        "ultima_deteccion_utc": "2026-09-29 12:57:00",
        "sensores": "VIIRS_NOAA20_NRT",
        "satellites": "N20",
        "instruments": "VIIRS",
        "popup_label": "<strong>ALERT-20260930-050<\/strong><br>Nivel: seguimiento<br>Focos: 1<br>Últimas 6 h: 0<br>FRP total: 2.4 MW<br>Última detección UTC: 2026-09-29 12:57:00"
      }
    },
    {
      "type": "Feature",
      "geometry": {
        "type": "Point",
        "coordinates": [2.6846, 36.5033]
      },
      "properties": {
        "cluster_id": "ALERT-20260930-051",
        "alerta_operativa": "seguimiento",
        "score": 5.4,
        "n_focos": 1,
        "n_ultimas_6h": 0,
        "n_ultimas_24h": 1,
        "frp_total_mw": 2.4,
        "frp_max_mw": 2.4,
        "edad_min_h": 19.5,
        "ultima_deteccion_utc": "2026-09-29 12:55:00",
        "sensores": "VIIRS_NOAA20_NRT",
        "satellites": "N20",
        "instruments": "VIIRS",
        "popup_label": "<strong>ALERT-20260930-051<\/strong><br>Nivel: seguimiento<br>Focos: 1<br>Últimas 6 h: 0<br>FRP total: 2.4 MW<br>Última detección UTC: 2026-09-29 12:55:00"
      }
    },
    {
      "type": "Feature",
      "geometry": {
        "type": "Point",
        "coordinates": [-8.3295, 33.1127]
      },
      "properties": {
        "cluster_id": "ALERT-20260930-052",
        "alerta_operativa": "seguimiento",
        "score": 5.3,
        "n_focos": 1,
        "n_ultimas_6h": 0,
        "n_ultimas_24h": 1,
        "frp_total_mw": 2.2,
        "frp_max_mw": 2.2,
        "edad_min_h": 19.5,
        "ultima_deteccion_utc": "2026-09-29 12:55:00",
        "sensores": "VIIRS_NOAA20_NRT",
        "satellites": "N20",
        "instruments": "VIIRS",
        "popup_label": "<strong>ALERT-20260930-052<\/strong><br>Nivel: seguimiento<br>Focos: 1<br>Últimas 6 h: 0<br>FRP total: 2.2 MW<br>Última detección UTC: 2026-09-29 12:55:00"
      }
    },
    {
      "type": "Feature",
      "geometry": {
        "type": "Point",
        "coordinates": [-4.7044, 37.7338]
      },
      "properties": {
        "cluster_id": "ALERT-20260930-053",
        "alerta_operativa": "seguimiento",
        "score": 5.1,
        "n_focos": 1,
        "n_ultimas_6h": 0,
        "n_ultimas_24h": 1,
        "frp_total_mw": 1.8,
        "frp_max_mw": 1.8,
        "edad_min_h": 19.5,
        "ultima_deteccion_utc": "2026-09-29 12:55:00",
        "sensores": "VIIRS_NOAA20_NRT",
        "satellites": "N20",
        "instruments": "VIIRS",
        "popup_label": "<strong>ALERT-20260930-053<\/strong><br>Nivel: seguimiento<br>Focos: 1<br>Últimas 6 h: 0<br>FRP total: 1.8 MW<br>Última detección UTC: 2026-09-29 12:55:00"
      }
    },
    {
      "type": "Feature",
      "geometry": {
        "type": "Point",
        "coordinates": [0.9876, 43.1857]
      },
      "properties": {
        "cluster_id": "ALERT-20260930-054",
        "alerta_operativa": "seguimiento",
        "score": 3.7,
        "n_focos": 1,
        "n_ultimas_6h": 0,
        "n_ultimas_24h": 1,
        "frp_total_mw": 0.4,
        "frp_max_mw": 0.4,
        "edad_min_h": 7.2,
        "ultima_deteccion_utc": "2026-09-30 01:15:00",
        "sensores": "VIIRS_NOAA20_NRT",
        "satellites": "N20",
        "instruments": "VIIRS",
        "popup_label": "<strong>ALERT-20260930-054<\/strong><br>Nivel: seguimiento<br>Focos: 1<br>Últimas 6 h: 0<br>FRP total: 0.4 MW<br>Última detección UTC: 2026-09-30 01:15:00"
      }
    },
    {
      "type": "Feature",
      "geometry": {
        "type": "Point",
        "coordinates": [-5.7671, 43.5325]
      },
      "properties": {
        "cluster_id": "ALERT-20260930-055",
        "alerta_operativa": "informativa",
        "score": 18.6,
        "n_focos": 13,
        "n_ultimas_6h": 0,
        "n_ultimas_24h": 0,
        "frp_total_mw": 15.5,
        "frp_max_mw": 2.5,
        "edad_min_h": 29.2,
        "ultima_deteccion_utc": "2026-09-29 03:15:00",
        "sensores": "VIIRS_NOAA20_NRT, VIIRS_SNPP_NRT",
        "satellites": "N, N20",
        "instruments": "VIIRS",
        "popup_label": "<strong>ALERT-20260930-055<\/strong><br>Nivel: informativa<br>Focos: 13<br>Últimas 6 h: 0<br>FRP total: 15.5 MW<br>Última detección UTC: 2026-09-29 03:15:00"
      }
    },
    {
      "type": "Feature",
      "geometry": {
        "type": "Point",
        "coordinates": [-4.3714, 41.8738]
      },
      "properties": {
        "cluster_id": "ALERT-20260930-056",
        "alerta_operativa": "informativa",
        "score": 8.8,
        "n_focos": 4,
        "n_ultimas_6h": 0,
        "n_ultimas_24h": 0,
        "frp_total_mw": 10.1,
        "frp_max_mw": 3.6,
        "edad_min_h": 29.5,
        "ultima_deteccion_utc": "2026-09-29 02:56:00",
        "sensores": "VIIRS_NOAA20_NRT, VIIRS_SNPP_NRT",
        "satellites": "N, N20",
        "instruments": "VIIRS",
        "popup_label": "<strong>ALERT-20260930-056<\/strong><br>Nivel: informativa<br>Focos: 4<br>Últimas 6 h: 0<br>FRP total: 10.1 MW<br>Última detección UTC: 2026-09-29 02:56:00"
      }
    },
    {
      "type": "Feature",
      "geometry": {
        "type": "Point",
        "coordinates": [3.2319, 32.9369]
      },
      "properties": {
        "cluster_id": "ALERT-20260930-057",
        "alerta_operativa": "informativa",
        "score": 8.7,
        "n_focos": 5,
        "n_ultimas_6h": 0,
        "n_ultimas_24h": 0,
        "frp_total_mw": 5.3,
        "frp_max_mw": 2.3,
        "edad_min_h": 30.9,
        "ultima_deteccion_utc": "2026-09-29 01:34:00",
        "sensores": "VIIRS_NOAA20_NRT, VIIRS_SNPP_NRT",
        "satellites": "N, N20",
        "instruments": "VIIRS",
        "popup_label": "<strong>ALERT-20260930-057<\/strong><br>Nivel: informativa<br>Focos: 5<br>Últimas 6 h: 0<br>FRP total: 5.3 MW<br>Última detección UTC: 2026-09-29 01:34:00"
      }
    },
    {
      "type": "Feature",
      "geometry": {
        "type": "Point",
        "coordinates": [3.9865, 32.2778]
      },
      "properties": {
        "cluster_id": "ALERT-20260930-058",
        "alerta_operativa": "informativa",
        "score": 7.7,
        "n_focos": 3,
        "n_ultimas_6h": 0,
        "n_ultimas_24h": 0,
        "frp_total_mw": 9.4,
        "frp_max_mw": 4.4,
        "edad_min_h": 30.8,
        "ultima_deteccion_utc": "2026-09-29 01:37:00",
        "sensores": "VIIRS_NOAA20_NRT, VIIRS_SNPP_NRT",
        "satellites": "N, N20",
        "instruments": "VIIRS",
        "popup_label": "<strong>ALERT-20260930-058<\/strong><br>Nivel: informativa<br>Focos: 3<br>Últimas 6 h: 0<br>FRP total: 9.4 MW<br>Última detección UTC: 2026-09-29 01:37:00"
      }
    },
    {
      "type": "Feature",
      "geometry": {
        "type": "Point",
        "coordinates": [-7.2178, 33.2766]
      },
      "properties": {
        "cluster_id": "ALERT-20260930-059",
        "alerta_operativa": "informativa",
        "score": 7.2,
        "n_focos": 4,
        "n_ultimas_6h": 0,
        "n_ultimas_24h": 0,
        "frp_total_mw": 3.9,
        "frp_max_mw": 1.2,
        "edad_min_h": 29.1,
        "ultima_deteccion_utc": "2026-09-29 03:19:00",
        "sensores": "VIIRS_NOAA20_NRT, VIIRS_SNPP_NRT",
        "satellites": "N, N20",
        "instruments": "VIIRS",
        "popup_label": "<strong>ALERT-20260930-059<\/strong><br>Nivel: informativa<br>Focos: 4<br>Últimas 6 h: 0<br>FRP total: 3.9 MW<br>Última detección UTC: 2026-09-29 03:19:00"
      }
    },
    {
      "type": "Feature",
      "geometry": {
        "type": "Point",
        "coordinates": [3.1693, 32.5547]
      },
      "properties": {
        "cluster_id": "ALERT-20260930-060",
        "alerta_operativa": "informativa",
        "score": 6.9,
        "n_focos": 3,
        "n_ultimas_6h": 0,
        "n_ultimas_24h": 0,
        "frp_total_mw": 6.1,
        "frp_max_mw": 3.2,
        "edad_min_h": 30.8,
        "ultima_deteccion_utc": "2026-09-29 01:37:00",
        "sensores": "VIIRS_NOAA20_NRT, VIIRS_SNPP_NRT",
        "satellites": "N, N20",
        "instruments": "VIIRS",
        "popup_label": "<strong>ALERT-20260930-060<\/strong><br>Nivel: informativa<br>Focos: 3<br>Últimas 6 h: 0<br>FRP total: 6.1 MW<br>Última detección UTC: 2026-09-29 01:37:00"
      }
    },
    {
      "type": "Feature",
      "geometry": {
        "type": "Point",
        "coordinates": [-3.0137, 43.3033]
      },
      "properties": {
        "cluster_id": "ALERT-20260930-061",
        "alerta_operativa": "informativa",
        "score": 6.6,
        "n_focos": 3,
        "n_ultimas_6h": 0,
        "n_ultimas_24h": 0,
        "frp_total_mw": 5,
        "frp_max_mw": 2,
        "edad_min_h": 30.9,
        "ultima_deteccion_utc": "2026-09-29 01:34:00",
        "sensores": "VIIRS_NOAA20_NRT, VIIRS_SNPP_NRT",
        "satellites": "N, N20",
        "instruments": "VIIRS",
        "popup_label": "<strong>ALERT-20260930-061<\/strong><br>Nivel: informativa<br>Focos: 3<br>Últimas 6 h: 0<br>FRP total: 5 MW<br>Última detección UTC: 2026-09-29 01:34:00"
      }
    },
    {
      "type": "Feature",
      "geometry": {
        "type": "Point",
        "coordinates": [-4.2496, 43.0424]
      },
      "properties": {
        "cluster_id": "ALERT-20260930-062",
        "alerta_operativa": "informativa",
        "score": 5.4,
        "n_focos": 2,
        "n_ultimas_6h": 0,
        "n_ultimas_24h": 0,
        "frp_total_mw": 4.4,
        "frp_max_mw": 2.9,
        "edad_min_h": 29.5,
        "ultima_deteccion_utc": "2026-09-29 02:56:00",
        "sensores": "VIIRS_NOAA20_NRT, VIIRS_SNPP_NRT",
        "satellites": "N, N20",
        "instruments": "VIIRS",
        "popup_label": "<strong>ALERT-20260930-062<\/strong><br>Nivel: informativa<br>Focos: 2<br>Últimas 6 h: 0<br>FRP total: 4.4 MW<br>Última detección UTC: 2026-09-29 02:56:00"
      }
    },
    {
      "type": "Feature",
      "geometry": {
        "type": "Point",
        "coordinates": [-4.6556, 43.055]
      },
      "properties": {
        "cluster_id": "ALERT-20260930-063",
        "alerta_operativa": "informativa",
        "score": 4.3,
        "n_focos": 2,
        "n_ultimas_6h": 0,
        "n_ultimas_24h": 0,
        "frp_total_mw": 2.2,
        "frp_max_mw": 1.2,
        "edad_min_h": 29.2,
        "ultima_deteccion_utc": "2026-09-29 03:15:00",
        "sensores": "VIIRS_NOAA20_NRT, VIIRS_SNPP_NRT",
        "satellites": "N, N20",
        "instruments": "VIIRS",
        "popup_label": "<strong>ALERT-20260930-063<\/strong><br>Nivel: informativa<br>Focos: 2<br>Últimas 6 h: 0<br>FRP total: 2.2 MW<br>Última detección UTC: 2026-09-29 03:15:00"
      }
    },
    {
      "type": "Feature",
      "geometry": {
        "type": "Point",
        "coordinates": [3.1033, 36.7136]
      },
      "properties": {
        "cluster_id": "ALERT-20260930-064",
        "alerta_operativa": "informativa",
        "score": 4.3,
        "n_focos": 2,
        "n_ultimas_6h": 0,
        "n_ultimas_24h": 0,
        "frp_total_mw": 2.1,
        "frp_max_mw": 1.1,
        "edad_min_h": 29.5,
        "ultima_deteccion_utc": "2026-09-29 02:56:00",
        "sensores": "VIIRS_NOAA20_NRT, VIIRS_SNPP_NRT",
        "satellites": "N, N20",
        "instruments": "VIIRS",
        "popup_label": "<strong>ALERT-20260930-064<\/strong><br>Nivel: informativa<br>Focos: 2<br>Últimas 6 h: 0<br>FRP total: 2.1 MW<br>Última detección UTC: 2026-09-29 02:56:00"
      }
    },
    {
      "type": "Feature",
      "geometry": {
        "type": "Point",
        "coordinates": [-9.5442, 30.3373]
      },
      "properties": {
        "cluster_id": "ALERT-20260930-065",
        "alerta_operativa": "informativa",
        "score": 3.8,
        "n_focos": 2,
        "n_ultimas_6h": 0,
        "n_ultimas_24h": 0,
        "frp_total_mw": 1.4,
        "frp_max_mw": 0.8,
        "edad_min_h": 30.8,
        "ultima_deteccion_utc": "2026-09-29 01:37:00",
        "sensores": "VIIRS_NOAA20_NRT",
        "satellites": "N20",
        "instruments": "VIIRS",
        "popup_label": "<strong>ALERT-20260930-065<\/strong><br>Nivel: informativa<br>Focos: 2<br>Últimas 6 h: 0<br>FRP total: 1.4 MW<br>Última detección UTC: 2026-09-29 01:37:00"
      }
    },
    {
      "type": "Feature",
      "geometry": {
        "type": "Point",
        "coordinates": [4.0045, 32.4028]
      },
      "properties": {
        "cluster_id": "ALERT-20260930-066",
        "alerta_operativa": "informativa",
        "score": 3.3,
        "n_focos": 2,
        "n_ultimas_6h": 0,
        "n_ultimas_24h": 0,
        "frp_total_mw": 0.9,
        "frp_max_mw": 0.6,
        "edad_min_h": 30.8,
        "ultima_deteccion_utc": "2026-09-29 01:37:00",
        "sensores": "VIIRS_NOAA20_NRT, VIIRS_SNPP_NRT",
        "satellites": "N, N20",
        "instruments": "VIIRS",
        "popup_label": "<strong>ALERT-20260930-066<\/strong><br>Nivel: informativa<br>Focos: 2<br>Últimas 6 h: 0<br>FRP total: 0.9 MW<br>Última detección UTC: 2026-09-29 01:37:00"
      }
    },
    {
      "type": "Feature",
      "geometry": {
        "type": "Point",
        "coordinates": [4.4473, 35.8782]
      },
      "properties": {
        "cluster_id": "ALERT-20260930-067",
        "alerta_operativa": "informativa",
        "score": 2.2,
        "n_focos": 1,
        "n_ultimas_6h": 0,
        "n_ultimas_24h": 0,
        "frp_total_mw": 0.8,
        "frp_max_mw": 0.8,
        "edad_min_h": 30.9,
        "ultima_deteccion_utc": "2026-09-29 01:34:00",
        "sensores": "VIIRS_NOAA20_NRT",
        "satellites": "N20",
        "instruments": "VIIRS",
        "popup_label": "<strong>ALERT-20260930-067<\/strong><br>Nivel: informativa<br>Focos: 1<br>Últimas 6 h: 0<br>FRP total: 0.8 MW<br>Última detección UTC: 2026-09-29 01:34:00"
      }
    },
    {
      "type": "Feature",
      "geometry": {
        "type": "Point",
        "coordinates": [-5.9138, 35.6477]
      },
      "properties": {
        "cluster_id": "ALERT-20260930-068",
        "alerta_operativa": "informativa",
        "score": 1.9,
        "n_focos": 1,
        "n_ultimas_6h": 0,
        "n_ultimas_24h": 0,
        "frp_total_mw": 0.6,
        "frp_max_mw": 0.6,
        "edad_min_h": 30.9,
        "ultima_deteccion_utc": "2026-09-29 01:34:00",
        "sensores": "VIIRS_NOAA20_NRT",
        "satellites": "N20",
        "instruments": "VIIRS",
        "popup_label": "<strong>ALERT-20260930-068<\/strong><br>Nivel: informativa<br>Focos: 1<br>Últimas 6 h: 0<br>FRP total: 0.6 MW<br>Última detección UTC: 2026-09-29 01:34:00"
      }
    },
    {
      "type": "Feature",
      "geometry": {
        "type": "Point",
        "coordinates": [-6.4858, 38.3795]
      },
      "properties": {
        "cluster_id": "ALERT-20260930-069",
        "alerta_operativa": "informativa",
        "score": 1.8,
        "n_focos": 1,
        "n_ultimas_6h": 0,
        "n_ultimas_24h": 0,
        "frp_total_mw": 0.5,
        "frp_max_mw": 0.5,
        "edad_min_h": 30.8,
        "ultima_deteccion_utc": "2026-09-29 01:37:00",
        "sensores": "VIIRS_NOAA20_NRT",
        "satellites": "N20",
        "instruments": "VIIRS",
        "popup_label": "<strong>ALERT-20260930-069<\/strong><br>Nivel: informativa<br>Focos: 1<br>Últimas 6 h: 0<br>FRP total: 0.5 MW<br>Última detección UTC: 2026-09-29 01:37:00"
      }
    },
    {
      "type": "Feature",
      "geometry": {
        "type": "Point",
        "coordinates": [2.88, 36.5951]
      },
      "properties": {
        "cluster_id": "ALERT-20260930-070",
        "alerta_operativa": "informativa",
        "score": 1.7,
        "n_focos": 1,
        "n_ultimas_6h": 0,
        "n_ultimas_24h": 0,
        "frp_total_mw": 0.4,
        "frp_max_mw": 0.4,
        "edad_min_h": 30.8,
        "ultima_deteccion_utc": "2026-09-29 01:37:00",
        "sensores": "VIIRS_NOAA20_NRT",
        "satellites": "N20",
        "instruments": "VIIRS",
        "popup_label": "<strong>ALERT-20260930-070<\/strong><br>Nivel: informativa<br>Focos: 1<br>Últimas 6 h: 0<br>FRP total: 0.4 MW<br>Última detección UTC: 2026-09-29 01:37:00"
      }
    },
    {
      "type": "Feature",
      "geometry": {
        "type": "Point",
        "coordinates": [3.2415, 36.2372]
      },
      "properties": {
        "cluster_id": "ALERT-20260930-071",
        "alerta_operativa": "informativa",
        "score": 1.7,
        "n_focos": 1,
        "n_ultimas_6h": 0,
        "n_ultimas_24h": 0,
        "frp_total_mw": 0.4,
        "frp_max_mw": 0.4,
        "edad_min_h": 30.9,
        "ultima_deteccion_utc": "2026-09-29 01:34:00",
        "sensores": "VIIRS_NOAA20_NRT",
        "satellites": "N20",
        "instruments": "VIIRS",
        "popup_label": "<strong>ALERT-20260930-071<\/strong><br>Nivel: informativa<br>Focos: 1<br>Últimas 6 h: 0<br>FRP total: 0.4 MW<br>Última detección UTC: 2026-09-29 01:34:00"
      }
    }
  ]
}
