{
  "type": "FeatureCollection",
  "features": [
    {
      "type": "Feature",
      "geometry": {
        "type": "Point",
        "coordinates": [0.4553, 42.9015]
      },
      "properties": {
        "cluster_id": "ALERT-20260908-001",
        "alerta_operativa": "alta",
        "score": 96.3,
        "n_focos": 42,
        "n_ultimas_6h": 0,
        "n_ultimas_24h": 22,
        "frp_total_mw": 171.9,
        "frp_max_mw": 11.3,
        "edad_min_h": 11.6,
        "ultima_deteccion_utc": "2026-09-08 03:08:00",
        "sensores": "VIIRS_NOAA20_NRT, VIIRS_SNPP_NRT",
        "satellites": "N, N20",
        "instruments": "VIIRS",
        "popup_label": "<strong>ALERT-20260908-001<\/strong><br>Nivel: alta<br>Focos: 42<br>Últimas 6 h: 0<br>FRP total: 171.9 MW<br>Última detección UTC: 2026-09-08 03:08:00"
      }
    },
    {
      "type": "Feature",
      "geometry": {
        "type": "Point",
        "coordinates": [3.3276, 33.1265]
      },
      "properties": {
        "cluster_id": "ALERT-20260908-002",
        "alerta_operativa": "alta",
        "score": 89.6,
        "n_focos": 31,
        "n_ultimas_6h": 2,
        "n_ultimas_24h": 20,
        "frp_total_mw": 74.3,
        "frp_max_mw": 19,
        "edad_min_h": 2.2,
        "ultima_deteccion_utc": "2026-09-08 12:29:00",
        "sensores": "VIIRS_NOAA20_NRT, VIIRS_SNPP_NRT",
        "satellites": "N, N20",
        "instruments": "VIIRS",
        "popup_label": "<strong>ALERT-20260908-002<\/strong><br>Nivel: alta<br>Focos: 31<br>Últimas 6 h: 2<br>FRP total: 74.3 MW<br>Última detección UTC: 2026-09-08 12:29:00"
      }
    },
    {
      "type": "Feature",
      "geometry": {
        "type": "Point",
        "coordinates": [-5.3366, 43.1374]
      },
      "properties": {
        "cluster_id": "ALERT-20260908-003",
        "alerta_operativa": "alta",
        "score": 43.3,
        "n_focos": 24,
        "n_ultimas_6h": 0,
        "n_ultimas_24h": 4,
        "frp_total_mw": 277.8,
        "frp_max_mw": 46,
        "edad_min_h": 11.9,
        "ultima_deteccion_utc": "2026-09-08 02:47:00",
        "sensores": "VIIRS_NOAA20_NRT, VIIRS_SNPP_NRT",
        "satellites": "N, N20",
        "instruments": "VIIRS",
        "popup_label": "<strong>ALERT-20260908-003<\/strong><br>Nivel: alta<br>Focos: 24<br>Últimas 6 h: 0<br>FRP total: 277.8 MW<br>Última detección UTC: 2026-09-08 02:47:00"
      }
    },
    {
      "type": "Feature",
      "geometry": {
        "type": "Point",
        "coordinates": [3.9875, 32.2767]
      },
      "properties": {
        "cluster_id": "ALERT-20260908-004",
        "alerta_operativa": "alta",
        "score": 41.1,
        "n_focos": 11,
        "n_ultimas_6h": 2,
        "n_ultimas_24h": 6,
        "frp_total_mw": 56.7,
        "frp_max_mw": 13,
        "edad_min_h": 2.3,
        "ultima_deteccion_utc": "2026-09-08 12:27:00",
        "sensores": "VIIRS_NOAA20_NRT, VIIRS_SNPP_NRT",
        "satellites": "N, N20",
        "instruments": "VIIRS",
        "popup_label": "<strong>ALERT-20260908-004<\/strong><br>Nivel: alta<br>Focos: 11<br>Últimas 6 h: 2<br>FRP total: 56.7 MW<br>Última detección UTC: 2026-09-08 12:27:00"
      }
    },
    {
      "type": "Feature",
      "geometry": {
        "type": "Point",
        "coordinates": [3.2238, 32.9064]
      },
      "properties": {
        "cluster_id": "ALERT-20260908-005",
        "alerta_operativa": "media",
        "score": 112.6,
        "n_focos": 43,
        "n_ultimas_6h": 1,
        "n_ultimas_24h": 28,
        "frp_total_mw": 72.4,
        "frp_max_mw": 7.1,
        "edad_min_h": 2.2,
        "ultima_deteccion_utc": "2026-09-08 12:29:00",
        "sensores": "VIIRS_NOAA20_NRT, VIIRS_SNPP_NRT",
        "satellites": "N, N20",
        "instruments": "VIIRS",
        "popup_label": "<strong>ALERT-20260908-005<\/strong><br>Nivel: media<br>Focos: 43<br>Últimas 6 h: 1<br>FRP total: 72.4 MW<br>Última detección UTC: 2026-09-08 12:29:00"
      }
    },
    {
      "type": "Feature",
      "geometry": {
        "type": "Point",
        "coordinates": [-0.2636, 35.8016]
      },
      "properties": {
        "cluster_id": "ALERT-20260908-006",
        "alerta_operativa": "media",
        "score": 88.2,
        "n_focos": 32,
        "n_ultimas_6h": 0,
        "n_ultimas_24h": 24,
        "frp_total_mw": 58.8,
        "frp_max_mw": 4.1,
        "edad_min_h": 11.9,
        "ultima_deteccion_utc": "2026-09-08 02:49:00",
        "sensores": "VIIRS_NOAA20_NRT, VIIRS_SNPP_NRT",
        "satellites": "N, N20",
        "instruments": "VIIRS",
        "popup_label": "<strong>ALERT-20260908-006<\/strong><br>Nivel: media<br>Focos: 32<br>Últimas 6 h: 0<br>FRP total: 58.8 MW<br>Última detección UTC: 2026-09-08 02:49:00"
      }
    },
    {
      "type": "Feature",
      "geometry": {
        "type": "Point",
        "coordinates": [4.8926, 43.4427]
      },
      "properties": {
        "cluster_id": "ALERT-20260908-007",
        "alerta_operativa": "media",
        "score": 53.3,
        "n_focos": 29,
        "n_ultimas_6h": 0,
        "n_ultimas_24h": 8,
        "frp_total_mw": 61.8,
        "frp_max_mw": 8.1,
        "edad_min_h": 11.9,
        "ultima_deteccion_utc": "2026-09-08 02:47:00",
        "sensores": "VIIRS_NOAA20_NRT, VIIRS_SNPP_NRT",
        "satellites": "N, N20",
        "instruments": "VIIRS",
        "popup_label": "<strong>ALERT-20260908-007<\/strong><br>Nivel: media<br>Focos: 29<br>Últimas 6 h: 0<br>FRP total: 61.8 MW<br>Última detección UTC: 2026-09-08 02:47:00"
      }
    },
    {
      "type": "Feature",
      "geometry": {
        "type": "Point",
        "coordinates": [3.1681, 32.555]
      },
      "properties": {
        "cluster_id": "ALERT-20260908-008",
        "alerta_operativa": "media",
        "score": 36.5,
        "n_focos": 11,
        "n_ultimas_6h": 1,
        "n_ultimas_24h": 7,
        "frp_total_mw": 25,
        "frp_max_mw": 4.8,
        "edad_min_h": 2.2,
        "ultima_deteccion_utc": "2026-09-08 12:29:00",
        "sensores": "VIIRS_NOAA20_NRT, VIIRS_SNPP_NRT",
        "satellites": "N, N20",
        "instruments": "VIIRS",
        "popup_label": "<strong>ALERT-20260908-008<\/strong><br>Nivel: media<br>Focos: 11<br>Últimas 6 h: 1<br>FRP total: 25 MW<br>Última detección UTC: 2026-09-08 12:29:00"
      }
    },
    {
      "type": "Feature",
      "geometry": {
        "type": "Point",
        "coordinates": [3.0935, 36.6717]
      },
      "properties": {
        "cluster_id": "ALERT-20260908-009",
        "alerta_operativa": "media",
        "score": 34.9,
        "n_focos": 15,
        "n_ultimas_6h": 0,
        "n_ultimas_24h": 7,
        "frp_total_mw": 18.5,
        "frp_max_mw": 3,
        "edad_min_h": 13.3,
        "ultima_deteccion_utc": "2026-09-08 01:28:00",
        "sensores": "VIIRS_NOAA20_NRT, VIIRS_SNPP_NRT",
        "satellites": "N, N20",
        "instruments": "VIIRS",
        "popup_label": "<strong>ALERT-20260908-009<\/strong><br>Nivel: media<br>Focos: 15<br>Últimas 6 h: 0<br>FRP total: 18.5 MW<br>Última detección UTC: 2026-09-08 01:28:00"
      }
    },
    {
      "type": "Feature",
      "geometry": {
        "type": "Point",
        "coordinates": [-0.5177, 28.2002]
      },
      "properties": {
        "cluster_id": "ALERT-20260908-010",
        "alerta_operativa": "media",
        "score": 33.6,
        "n_focos": 10,
        "n_ultimas_6h": 1,
        "n_ultimas_24h": 6,
        "frp_total_mw": 25.8,
        "frp_max_mw": 4.6,
        "edad_min_h": 2.3,
        "ultima_deteccion_utc": "2026-09-08 12:27:00",
        "sensores": "VIIRS_NOAA20_NRT, VIIRS_SNPP_NRT",
        "satellites": "N, N20",
        "instruments": "VIIRS",
        "popup_label": "<strong>ALERT-20260908-010<\/strong><br>Nivel: media<br>Focos: 10<br>Últimas 6 h: 1<br>FRP total: 25.8 MW<br>Última detección UTC: 2026-09-08 12:27:00"
      }
    },
    {
      "type": "Feature",
      "geometry": {
        "type": "Point",
        "coordinates": [-2.5284, 42.9706]
      },
      "properties": {
        "cluster_id": "ALERT-20260908-011",
        "alerta_operativa": "media",
        "score": 33.3,
        "n_focos": 9,
        "n_ultimas_6h": 0,
        "n_ultimas_24h": 9,
        "frp_total_mw": 22.3,
        "frp_max_mw": 3.9,
        "edad_min_h": 11.6,
        "ultima_deteccion_utc": "2026-09-08 03:08:00",
        "sensores": "VIIRS_NOAA20_NRT, VIIRS_SNPP_NRT",
        "satellites": "N, N20",
        "instruments": "VIIRS",
        "popup_label": "<strong>ALERT-20260908-011<\/strong><br>Nivel: media<br>Focos: 9<br>Últimas 6 h: 0<br>FRP total: 22.3 MW<br>Última detección UTC: 2026-09-08 03:08:00"
      }
    },
    {
      "type": "Feature",
      "geometry": {
        "type": "Point",
        "coordinates": [-6.711, 37.2898]
      },
      "properties": {
        "cluster_id": "ALERT-20260908-012",
        "alerta_operativa": "media",
        "score": 27.5,
        "n_focos": 6,
        "n_ultimas_6h": 0,
        "n_ultimas_24h": 6,
        "frp_total_mw": 115.6,
        "frp_max_mw": 46.5,
        "edad_min_h": 11.6,
        "ultima_deteccion_utc": "2026-09-08 03:10:00",
        "sensores": "VIIRS_NOAA20_NRT, VIIRS_SNPP_NRT",
        "satellites": "N, N20",
        "instruments": "VIIRS",
        "popup_label": "<strong>ALERT-20260908-012<\/strong><br>Nivel: media<br>Focos: 6<br>Últimas 6 h: 0<br>FRP total: 115.6 MW<br>Última detección UTC: 2026-09-08 03:10:00"
      }
    },
    {
      "type": "Feature",
      "geometry": {
        "type": "Point",
        "coordinates": [-3.7833, 39.0447]
      },
      "properties": {
        "cluster_id": "ALERT-20260908-013",
        "alerta_operativa": "media",
        "score": 25.2,
        "n_focos": 7,
        "n_ultimas_6h": 0,
        "n_ultimas_24h": 7,
        "frp_total_mw": 7.3,
        "frp_max_mw": 1.4,
        "edad_min_h": 11.6,
        "ultima_deteccion_utc": "2026-09-08 03:08:00",
        "sensores": "VIIRS_NOAA20_NRT, VIIRS_SNPP_NRT",
        "satellites": "N, N20",
        "instruments": "VIIRS",
        "popup_label": "<strong>ALERT-20260908-013<\/strong><br>Nivel: media<br>Focos: 7<br>Últimas 6 h: 0<br>FRP total: 7.3 MW<br>Última detección UTC: 2026-09-08 03:08:00"
      }
    },
    {
      "type": "Feature",
      "geometry": {
        "type": "Point",
        "coordinates": [4.4475, 35.8793]
      },
      "properties": {
        "cluster_id": "ALERT-20260908-014",
        "alerta_operativa": "media",
        "score": 24.7,
        "n_focos": 9,
        "n_ultimas_6h": 0,
        "n_ultimas_24h": 5,
        "frp_total_mw": 16.4,
        "frp_max_mw": 4.9,
        "edad_min_h": 11.9,
        "ultima_deteccion_utc": "2026-09-08 02:49:00",
        "sensores": "VIIRS_NOAA20_NRT, VIIRS_SNPP_NRT",
        "satellites": "N, N20",
        "instruments": "VIIRS",
        "popup_label": "<strong>ALERT-20260908-014<\/strong><br>Nivel: media<br>Focos: 9<br>Últimas 6 h: 0<br>FRP total: 16.4 MW<br>Última detección UTC: 2026-09-08 02:49:00"
      }
    },
    {
      "type": "Feature",
      "geometry": {
        "type": "Point",
        "coordinates": [0.6245, 41.5178]
      },
      "properties": {
        "cluster_id": "ALERT-20260908-015",
        "alerta_operativa": "media",
        "score": 19.4,
        "n_focos": 11,
        "n_ultimas_6h": 0,
        "n_ultimas_24h": 0,
        "frp_total_mw": 65.1,
        "frp_max_mw": 13,
        "edad_min_h": 25.9,
        "ultima_deteccion_utc": "2026-09-07 12:51:00",
        "sensores": "VIIRS_NOAA20_NRT, VIIRS_SNPP_NRT",
        "satellites": "N, N20",
        "instruments": "VIIRS",
        "popup_label": "<strong>ALERT-20260908-015<\/strong><br>Nivel: media<br>Focos: 11<br>Últimas 6 h: 0<br>FRP total: 65.1 MW<br>Última detección UTC: 2026-09-07 12:51:00"
      }
    },
    {
      "type": "Feature",
      "geometry": {
        "type": "Point",
        "coordinates": [3.7489, 36.1799]
      },
      "properties": {
        "cluster_id": "ALERT-20260908-016",
        "alerta_operativa": "media",
        "score": 19.3,
        "n_focos": 6,
        "n_ultimas_6h": 0,
        "n_ultimas_24h": 4,
        "frp_total_mw": 13.5,
        "frp_max_mw": 3.1,
        "edad_min_h": 11.9,
        "ultima_deteccion_utc": "2026-09-08 02:49:00",
        "sensores": "VIIRS_NOAA20_NRT, VIIRS_SNPP_NRT",
        "satellites": "N, N20",
        "instruments": "VIIRS",
        "popup_label": "<strong>ALERT-20260908-016<\/strong><br>Nivel: media<br>Focos: 6<br>Últimas 6 h: 0<br>FRP total: 13.5 MW<br>Última detección UTC: 2026-09-08 02:49:00"
      }
    },
    {
      "type": "Feature",
      "geometry": {
        "type": "Point",
        "coordinates": [1.2421, 36.1263]
      },
      "properties": {
        "cluster_id": "ALERT-20260908-017",
        "alerta_operativa": "media",
        "score": 18.7,
        "n_focos": 6,
        "n_ultimas_6h": 0,
        "n_ultimas_24h": 4,
        "frp_total_mw": 9.3,
        "frp_max_mw": 2,
        "edad_min_h": 11.9,
        "ultima_deteccion_utc": "2026-09-08 02:49:00",
        "sensores": "VIIRS_NOAA20_NRT, VIIRS_SNPP_NRT",
        "satellites": "N, N20",
        "instruments": "VIIRS",
        "popup_label": "<strong>ALERT-20260908-017<\/strong><br>Nivel: media<br>Focos: 6<br>Últimas 6 h: 0<br>FRP total: 9.3 MW<br>Última detección UTC: 2026-09-08 02:49:00"
      }
    },
    {
      "type": "Feature",
      "geometry": {
        "type": "Point",
        "coordinates": [4.4758, 35.709]
      },
      "properties": {
        "cluster_id": "ALERT-20260908-018",
        "alerta_operativa": "media",
        "score": 18,
        "n_focos": 7,
        "n_ultimas_6h": 0,
        "n_ultimas_24h": 3,
        "frp_total_mw": 11,
        "frp_max_mw": 2.4,
        "edad_min_h": 13.2,
        "ultima_deteccion_utc": "2026-09-08 01:30:00",
        "sensores": "VIIRS_NOAA20_NRT, VIIRS_SNPP_NRT",
        "satellites": "N, N20",
        "instruments": "VIIRS",
        "popup_label": "<strong>ALERT-20260908-018<\/strong><br>Nivel: media<br>Focos: 7<br>Últimas 6 h: 0<br>FRP total: 11 MW<br>Última detección UTC: 2026-09-08 01:30:00"
      }
    },
    {
      "type": "Feature",
      "geometry": {
        "type": "Point",
        "coordinates": [-0.3956, 35.4585]
      },
      "properties": {
        "cluster_id": "ALERT-20260908-019",
        "alerta_operativa": "media",
        "score": 16.9,
        "n_focos": 7,
        "n_ultimas_6h": 0,
        "n_ultimas_24h": 3,
        "frp_total_mw": 6,
        "frp_max_mw": 1.2,
        "edad_min_h": 11.9,
        "ultima_deteccion_utc": "2026-09-08 02:49:00",
        "sensores": "VIIRS_NOAA20_NRT, VIIRS_SNPP_NRT",
        "satellites": "N, N20",
        "instruments": "VIIRS",
        "popup_label": "<strong>ALERT-20260908-019<\/strong><br>Nivel: media<br>Focos: 7<br>Últimas 6 h: 0<br>FRP total: 6 MW<br>Última detección UTC: 2026-09-08 02:49:00"
      }
    },
    {
      "type": "Feature",
      "geometry": {
        "type": "Point",
        "coordinates": [-1.9055, 36.9664]
      },
      "properties": {
        "cluster_id": "ALERT-20260908-020",
        "alerta_operativa": "media",
        "score": 15,
        "n_focos": 6,
        "n_ultimas_6h": 0,
        "n_ultimas_24h": 2,
        "frp_total_mw": 11.4,
        "frp_max_mw": 2.1,
        "edad_min_h": 11.9,
        "ultima_deteccion_utc": "2026-09-08 02:49:00",
        "sensores": "VIIRS_NOAA20_NRT, VIIRS_SNPP_NRT",
        "satellites": "N, N20",
        "instruments": "VIIRS",
        "popup_label": "<strong>ALERT-20260908-020<\/strong><br>Nivel: media<br>Focos: 6<br>Últimas 6 h: 0<br>FRP total: 11.4 MW<br>Última detección UTC: 2026-09-08 02:49:00"
      }
    },
    {
      "type": "Feature",
      "geometry": {
        "type": "Point",
        "coordinates": [-3.3802, 38.7496]
      },
      "properties": {
        "cluster_id": "ALERT-20260908-021",
        "alerta_operativa": "media",
        "score": 14.4,
        "n_focos": 3,
        "n_ultimas_6h": 0,
        "n_ultimas_24h": 3,
        "frp_total_mw": 13.7,
        "frp_max_mw": 7,
        "edad_min_h": 13.6,
        "ultima_deteccion_utc": "2026-09-08 01:09:00",
        "sensores": "VIIRS_SNPP_NRT",
        "satellites": "N",
        "instruments": "VIIRS",
        "popup_label": "<strong>ALERT-20260908-021<\/strong><br>Nivel: media<br>Focos: 3<br>Últimas 6 h: 0<br>FRP total: 13.7 MW<br>Última detección UTC: 2026-09-08 01:09:00"
      }
    },
    {
      "type": "Feature",
      "geometry": {
        "type": "Point",
        "coordinates": [3.3727, 32.906]
      },
      "properties": {
        "cluster_id": "ALERT-20260908-022",
        "alerta_operativa": "media",
        "score": 14.2,
        "n_focos": 1,
        "n_ultimas_6h": 1,
        "n_ultimas_24h": 1,
        "frp_total_mw": 21.6,
        "frp_max_mw": 21.6,
        "edad_min_h": 2.2,
        "ultima_deteccion_utc": "2026-09-08 12:29:00",
        "sensores": "VIIRS_SNPP_NRT",
        "satellites": "N",
        "instruments": "VIIRS",
        "popup_label": "<strong>ALERT-20260908-022<\/strong><br>Nivel: media<br>Focos: 1<br>Últimas 6 h: 1<br>FRP total: 21.6 MW<br>Última detección UTC: 2026-09-08 12:29:00"
      }
    },
    {
      "type": "Feature",
      "geometry": {
        "type": "Point",
        "coordinates": [-3.4787, 41.2542]
      },
      "properties": {
        "cluster_id": "ALERT-20260908-023",
        "alerta_operativa": "media",
        "score": 14,
        "n_focos": 5,
        "n_ultimas_6h": 0,
        "n_ultimas_24h": 0,
        "frp_total_mw": 89.7,
        "frp_max_mw": 25.4,
        "edad_min_h": 24.2,
        "ultima_deteccion_utc": "2026-09-07 14:31:00",
        "sensores": "VIIRS_NOAA20_NRT, VIIRS_SNPP_NRT",
        "satellites": "N, N20",
        "instruments": "VIIRS",
        "popup_label": "<strong>ALERT-20260908-023<\/strong><br>Nivel: media<br>Focos: 5<br>Últimas 6 h: 0<br>FRP total: 89.7 MW<br>Última detección UTC: 2026-09-07 14:31:00"
      }
    },
    {
      "type": "Feature",
      "geometry": {
        "type": "Point",
        "coordinates": [2.8781, 36.597]
      },
      "properties": {
        "cluster_id": "ALERT-20260908-024",
        "alerta_operativa": "media",
        "score": 13.5,
        "n_focos": 5,
        "n_ultimas_6h": 0,
        "n_ultimas_24h": 2,
        "frp_total_mw": 8.5,
        "frp_max_mw": 3.4,
        "edad_min_h": 13.3,
        "ultima_deteccion_utc": "2026-09-08 01:28:00",
        "sensores": "VIIRS_NOAA20_NRT, VIIRS_SNPP_NRT",
        "satellites": "N, N20",
        "instruments": "VIIRS",
        "popup_label": "<strong>ALERT-20260908-024<\/strong><br>Nivel: media<br>Focos: 5<br>Últimas 6 h: 0<br>FRP total: 8.5 MW<br>Última detección UTC: 2026-09-08 01:28:00"
      }
    },
    {
      "type": "Feature",
      "geometry": {
        "type": "Point",
        "coordinates": [2.9634, 30.4472]
      },
      "properties": {
        "cluster_id": "ALERT-20260908-025",
        "alerta_operativa": "media",
        "score": 12.9,
        "n_focos": 3,
        "n_ultimas_6h": 0,
        "n_ultimas_24h": 3,
        "frp_total_mw": 5.9,
        "frp_max_mw": 3.8,
        "edad_min_h": 11.9,
        "ultima_deteccion_utc": "2026-09-08 02:51:00",
        "sensores": "VIIRS_NOAA20_NRT, VIIRS_SNPP_NRT",
        "satellites": "N, N20",
        "instruments": "VIIRS",
        "popup_label": "<strong>ALERT-20260908-025<\/strong><br>Nivel: media<br>Focos: 3<br>Últimas 6 h: 0<br>FRP total: 5.9 MW<br>Última detección UTC: 2026-09-08 02:51:00"
      }
    },
    {
      "type": "Feature",
      "geometry": {
        "type": "Point",
        "coordinates": [-6.5738, 34.2833]
      },
      "properties": {
        "cluster_id": "ALERT-20260908-026",
        "alerta_operativa": "media",
        "score": 12.7,
        "n_focos": 3,
        "n_ultimas_6h": 0,
        "n_ultimas_24h": 3,
        "frp_total_mw": 5.3,
        "frp_max_mw": 2.4,
        "edad_min_h": 11.6,
        "ultima_deteccion_utc": "2026-09-08 03:10:00",
        "sensores": "VIIRS_NOAA20_NRT, VIIRS_SNPP_NRT",
        "satellites": "N, N20",
        "instruments": "VIIRS",
        "popup_label": "<strong>ALERT-20260908-026<\/strong><br>Nivel: media<br>Focos: 3<br>Últimas 6 h: 0<br>FRP total: 5.3 MW<br>Última detección UTC: 2026-09-08 03:10:00"
      }
    },
    {
      "type": "Feature",
      "geometry": {
        "type": "Point",
        "coordinates": [0.5413, 40.5761]
      },
      "properties": {
        "cluster_id": "ALERT-20260908-027",
        "alerta_operativa": "media",
        "score": 12,
        "n_focos": 4,
        "n_ultimas_6h": 0,
        "n_ultimas_24h": 2,
        "frp_total_mw": 6.5,
        "frp_max_mw": 2.1,
        "edad_min_h": 13.3,
        "ultima_deteccion_utc": "2026-09-08 01:28:00",
        "sensores": "VIIRS_NOAA20_NRT, VIIRS_SNPP_NRT",
        "satellites": "N, N20",
        "instruments": "VIIRS",
        "popup_label": "<strong>ALERT-20260908-027<\/strong><br>Nivel: media<br>Focos: 4<br>Últimas 6 h: 0<br>FRP total: 6.5 MW<br>Última detección UTC: 2026-09-08 01:28:00"
      }
    },
    {
      "type": "Feature",
      "geometry": {
        "type": "Point",
        "coordinates": [-0.2141, 38.8297]
      },
      "properties": {
        "cluster_id": "ALERT-20260908-028",
        "alerta_operativa": "media",
        "score": 12,
        "n_focos": 3,
        "n_ultimas_6h": 0,
        "n_ultimas_24h": 3,
        "frp_total_mw": 3.5,
        "frp_max_mw": 2,
        "edad_min_h": 11.9,
        "ultima_deteccion_utc": "2026-09-08 02:49:00",
        "sensores": "VIIRS_NOAA20_NRT, VIIRS_SNPP_NRT",
        "satellites": "N, N20",
        "instruments": "VIIRS",
        "popup_label": "<strong>ALERT-20260908-028<\/strong><br>Nivel: media<br>Focos: 3<br>Últimas 6 h: 0<br>FRP total: 3.5 MW<br>Última detección UTC: 2026-09-08 02:49:00"
      }
    },
    {
      "type": "Feature",
      "geometry": {
        "type": "Point",
        "coordinates": [-2.8472, 39.3479]
      },
      "properties": {
        "cluster_id": "ALERT-20260908-029",
        "alerta_operativa": "media",
        "score": 11.9,
        "n_focos": 3,
        "n_ultimas_6h": 0,
        "n_ultimas_24h": 0,
        "frp_total_mw": 82.6,
        "frp_max_mw": 47,
        "edad_min_h": 25.6,
        "ultima_deteccion_utc": "2026-09-07 13:10:00",
        "sensores": "VIIRS_NOAA20_NRT, VIIRS_SNPP_NRT",
        "satellites": "N, N20",
        "instruments": "VIIRS",
        "popup_label": "<strong>ALERT-20260908-029<\/strong><br>Nivel: media<br>Focos: 3<br>Últimas 6 h: 0<br>FRP total: 82.6 MW<br>Última detección UTC: 2026-09-07 13:10:00"
      }
    },
    {
      "type": "Feature",
      "geometry": {
        "type": "Point",
        "coordinates": [-5.6749, 41.001]
      },
      "properties": {
        "cluster_id": "ALERT-20260908-030",
        "alerta_operativa": "media",
        "score": 11.9,
        "n_focos": 3,
        "n_ultimas_6h": 0,
        "n_ultimas_24h": 3,
        "frp_total_mw": 3.2,
        "frp_max_mw": 1.6,
        "edad_min_h": 11.6,
        "ultima_deteccion_utc": "2026-09-08 03:08:00",
        "sensores": "VIIRS_NOAA20_NRT",
        "satellites": "N20",
        "instruments": "VIIRS",
        "popup_label": "<strong>ALERT-20260908-030<\/strong><br>Nivel: media<br>Focos: 3<br>Últimas 6 h: 0<br>FRP total: 3.2 MW<br>Última detección UTC: 2026-09-08 03:08:00"
      }
    },
    {
      "type": "Feature",
      "geometry": {
        "type": "Point",
        "coordinates": [3.3359, 35.0138]
      },
      "properties": {
        "cluster_id": "ALERT-20260908-031",
        "alerta_operativa": "media",
        "score": 11.6,
        "n_focos": 1,
        "n_ultimas_6h": 1,
        "n_ultimas_24h": 1,
        "frp_total_mw": 5.1,
        "frp_max_mw": 5.1,
        "edad_min_h": 2.2,
        "ultima_deteccion_utc": "2026-09-08 12:29:00",
        "sensores": "VIIRS_SNPP_NRT",
        "satellites": "N",
        "instruments": "VIIRS",
        "popup_label": "<strong>ALERT-20260908-031<\/strong><br>Nivel: media<br>Focos: 1<br>Últimas 6 h: 1<br>FRP total: 5.1 MW<br>Última detección UTC: 2026-09-08 12:29:00"
      }
    },
    {
      "type": "Feature",
      "geometry": {
        "type": "Point",
        "coordinates": [4.0054, 32.4017]
      },
      "properties": {
        "cluster_id": "ALERT-20260908-032",
        "alerta_operativa": "media",
        "score": 10.9,
        "n_focos": 4,
        "n_ultimas_6h": 0,
        "n_ultimas_24h": 2,
        "frp_total_mw": 3.3,
        "frp_max_mw": 1.1,
        "edad_min_h": 13.2,
        "ultima_deteccion_utc": "2026-09-08 01:30:00",
        "sensores": "VIIRS_NOAA20_NRT, VIIRS_SNPP_NRT",
        "satellites": "N, N20",
        "instruments": "VIIRS",
        "popup_label": "<strong>ALERT-20260908-032<\/strong><br>Nivel: media<br>Focos: 4<br>Últimas 6 h: 0<br>FRP total: 3.3 MW<br>Última detección UTC: 2026-09-08 01:30:00"
      }
    },
    {
      "type": "Feature",
      "geometry": {
        "type": "Point",
        "coordinates": [-8.4945, 32.3752]
      },
      "properties": {
        "cluster_id": "ALERT-20260908-033",
        "alerta_operativa": "media",
        "score": 9.4,
        "n_focos": 2,
        "n_ultimas_6h": 0,
        "n_ultimas_24h": 2,
        "frp_total_mw": 4.4,
        "frp_max_mw": 2.3,
        "edad_min_h": 13.2,
        "ultima_deteccion_utc": "2026-09-08 01:30:00",
        "sensores": "VIIRS_NOAA20_NRT",
        "satellites": "N20",
        "instruments": "VIIRS",
        "popup_label": "<strong>ALERT-20260908-033<\/strong><br>Nivel: media<br>Focos: 2<br>Últimas 6 h: 0<br>FRP total: 4.4 MW<br>Última detección UTC: 2026-09-08 01:30:00"
      }
    },
    {
      "type": "Feature",
      "geometry": {
        "type": "Point",
        "coordinates": [-6.7694, 42.5518]
      },
      "properties": {
        "cluster_id": "ALERT-20260908-034",
        "alerta_operativa": "media",
        "score": 9.3,
        "n_focos": 3,
        "n_ultimas_6h": 0,
        "n_ultimas_24h": 2,
        "frp_total_mw": 2.2,
        "frp_max_mw": 0.9,
        "edad_min_h": 11.9,
        "ultima_deteccion_utc": "2026-09-08 02:49:00",
        "sensores": "VIIRS_NOAA20_NRT, VIIRS_SNPP_NRT",
        "satellites": "N, N20",
        "instruments": "VIIRS",
        "popup_label": "<strong>ALERT-20260908-034<\/strong><br>Nivel: media<br>Focos: 3<br>Últimas 6 h: 0<br>FRP total: 2.2 MW<br>Última detección UTC: 2026-09-08 02:49:00"
      }
    },
    {
      "type": "Feature",
      "geometry": {
        "type": "Point",
        "coordinates": [-0.9148, 37.5718]
      },
      "properties": {
        "cluster_id": "ALERT-20260908-035",
        "alerta_operativa": "media",
        "score": 9,
        "n_focos": 2,
        "n_ultimas_6h": 0,
        "n_ultimas_24h": 2,
        "frp_total_mw": 3.5,
        "frp_max_mw": 2.2,
        "edad_min_h": 11.9,
        "ultima_deteccion_utc": "2026-09-08 02:49:00",
        "sensores": "VIIRS_NOAA20_NRT, VIIRS_SNPP_NRT",
        "satellites": "N, N20",
        "instruments": "VIIRS",
        "popup_label": "<strong>ALERT-20260908-035<\/strong><br>Nivel: media<br>Focos: 2<br>Últimas 6 h: 0<br>FRP total: 3.5 MW<br>Última detección UTC: 2026-09-08 02:49:00"
      }
    },
    {
      "type": "Feature",
      "geometry": {
        "type": "Point",
        "coordinates": [-0.5956, 38.97]
      },
      "properties": {
        "cluster_id": "ALERT-20260908-036",
        "alerta_operativa": "media",
        "score": 9,
        "n_focos": 2,
        "n_ultimas_6h": 0,
        "n_ultimas_24h": 2,
        "frp_total_mw": 3.4,
        "frp_max_mw": 2,
        "edad_min_h": 11.6,
        "ultima_deteccion_utc": "2026-09-08 03:08:00",
        "sensores": "VIIRS_NOAA20_NRT",
        "satellites": "N20",
        "instruments": "VIIRS",
        "popup_label": "<strong>ALERT-20260908-036<\/strong><br>Nivel: media<br>Focos: 2<br>Últimas 6 h: 0<br>FRP total: 3.4 MW<br>Última detección UTC: 2026-09-08 03:08:00"
      }
    },
    {
      "type": "Feature",
      "geometry": {
        "type": "Point",
        "coordinates": [2.9285, 36.1409]
      },
      "properties": {
        "cluster_id": "ALERT-20260908-037",
        "alerta_operativa": "media",
        "score": 8.8,
        "n_focos": 3,
        "n_ultimas_6h": 0,
        "n_ultimas_24h": 2,
        "frp_total_mw": 1.4,
        "frp_max_mw": 0.7,
        "edad_min_h": 13.2,
        "ultima_deteccion_utc": "2026-09-08 01:30:00",
        "sensores": "VIIRS_NOAA20_NRT, VIIRS_SNPP_NRT",
        "satellites": "N, N20",
        "instruments": "VIIRS",
        "popup_label": "<strong>ALERT-20260908-037<\/strong><br>Nivel: media<br>Focos: 3<br>Últimas 6 h: 0<br>FRP total: 1.4 MW<br>Última detección UTC: 2026-09-08 01:30:00"
      }
    },
    {
      "type": "Feature",
      "geometry": {
        "type": "Point",
        "coordinates": [-2.3469, 34.5955]
      },
      "properties": {
        "cluster_id": "ALERT-20260908-038",
        "alerta_operativa": "media",
        "score": 7.8,
        "n_focos": 2,
        "n_ultimas_6h": 0,
        "n_ultimas_24h": 2,
        "frp_total_mw": 1.5,
        "frp_max_mw": 1,
        "edad_min_h": 11.9,
        "ultima_deteccion_utc": "2026-09-08 02:49:00",
        "sensores": "VIIRS_NOAA20_NRT, VIIRS_SNPP_NRT",
        "satellites": "N, N20",
        "instruments": "VIIRS",
        "popup_label": "<strong>ALERT-20260908-038<\/strong><br>Nivel: media<br>Focos: 2<br>Últimas 6 h: 0<br>FRP total: 1.5 MW<br>Última detección UTC: 2026-09-08 02:49:00"
      }
    },
    {
      "type": "Feature",
      "geometry": {
        "type": "Point",
        "coordinates": [-6.8533, 41.8987]
      },
      "properties": {
        "cluster_id": "ALERT-20260908-039",
        "alerta_operativa": "media",
        "score": 7.7,
        "n_focos": 2,
        "n_ultimas_6h": 0,
        "n_ultimas_24h": 2,
        "frp_total_mw": 1.3,
        "frp_max_mw": 0.9,
        "edad_min_h": 11.6,
        "ultima_deteccion_utc": "2026-09-08 03:08:00",
        "sensores": "VIIRS_NOAA20_NRT, VIIRS_SNPP_NRT",
        "satellites": "N, N20",
        "instruments": "VIIRS",
        "popup_label": "<strong>ALERT-20260908-039<\/strong><br>Nivel: media<br>Focos: 2<br>Últimas 6 h: 0<br>FRP total: 1.3 MW<br>Última detección UTC: 2026-09-08 03:08:00"
      }
    },
    {
      "type": "Feature",
      "geometry": {
        "type": "Point",
        "coordinates": [1.3555, 35.3393]
      },
      "properties": {
        "cluster_id": "ALERT-20260908-040",
        "alerta_operativa": "seguimiento",
        "score": 8.4,
        "n_focos": 3,
        "n_ultimas_6h": 0,
        "n_ultimas_24h": 1,
        "frp_total_mw": 4.5,
        "frp_max_mw": 3.1,
        "edad_min_h": 13.2,
        "ultima_deteccion_utc": "2026-09-08 01:30:00",
        "sensores": "VIIRS_NOAA20_NRT",
        "satellites": "N20",
        "instruments": "VIIRS",
        "popup_label": "<strong>ALERT-20260908-040<\/strong><br>Nivel: seguimiento<br>Focos: 3<br>Últimas 6 h: 0<br>FRP total: 4.5 MW<br>Última detección UTC: 2026-09-08 01:30:00"
      }
    },
    {
      "type": "Feature",
      "geometry": {
        "type": "Point",
        "coordinates": [-0.2775, 35.5294]
      },
      "properties": {
        "cluster_id": "ALERT-20260908-041",
        "alerta_operativa": "seguimiento",
        "score": 7.4,
        "n_focos": 3,
        "n_ultimas_6h": 0,
        "n_ultimas_24h": 1,
        "frp_total_mw": 2.3,
        "frp_max_mw": 1.2,
        "edad_min_h": 11.9,
        "ultima_deteccion_utc": "2026-09-08 02:49:00",
        "sensores": "VIIRS_NOAA20_NRT, VIIRS_SNPP_NRT",
        "satellites": "N, N20",
        "instruments": "VIIRS",
        "popup_label": "<strong>ALERT-20260908-041<\/strong><br>Nivel: seguimiento<br>Focos: 3<br>Últimas 6 h: 0<br>FRP total: 2.3 MW<br>Última detección UTC: 2026-09-08 02:49:00"
      }
    },
    {
      "type": "Feature",
      "geometry": {
        "type": "Point",
        "coordinates": [0.5402, 35.7851]
      },
      "properties": {
        "cluster_id": "ALERT-20260908-042",
        "alerta_operativa": "seguimiento",
        "score": 6.8,
        "n_focos": 2,
        "n_ultimas_6h": 0,
        "n_ultimas_24h": 1,
        "frp_total_mw": 3.1,
        "frp_max_mw": 1.8,
        "edad_min_h": 13.2,
        "ultima_deteccion_utc": "2026-09-08 01:30:00",
        "sensores": "VIIRS_NOAA20_NRT",
        "satellites": "N20",
        "instruments": "VIIRS",
        "popup_label": "<strong>ALERT-20260908-042<\/strong><br>Nivel: seguimiento<br>Focos: 2<br>Últimas 6 h: 0<br>FRP total: 3.1 MW<br>Última detección UTC: 2026-09-08 01:30:00"
      }
    },
    {
      "type": "Feature",
      "geometry": {
        "type": "Point",
        "coordinates": [-0.9382, 35.5673]
      },
      "properties": {
        "cluster_id": "ALERT-20260908-043",
        "alerta_operativa": "seguimiento",
        "score": 6.7,
        "n_focos": 2,
        "n_ultimas_6h": 0,
        "n_ultimas_24h": 1,
        "frp_total_mw": 2.9,
        "frp_max_mw": 1.6,
        "edad_min_h": 13.2,
        "ultima_deteccion_utc": "2026-09-08 01:30:00",
        "sensores": "VIIRS_NOAA20_NRT",
        "satellites": "N20",
        "instruments": "VIIRS",
        "popup_label": "<strong>ALERT-20260908-043<\/strong><br>Nivel: seguimiento<br>Focos: 2<br>Últimas 6 h: 0<br>FRP total: 2.9 MW<br>Última detección UTC: 2026-09-08 01:30:00"
      }
    },
    {
      "type": "Feature",
      "geometry": {
        "type": "Point",
        "coordinates": [-9.0109, 38.9215]
      },
      "properties": {
        "cluster_id": "ALERT-20260908-044",
        "alerta_operativa": "seguimiento",
        "score": 6.5,
        "n_focos": 2,
        "n_ultimas_6h": 0,
        "n_ultimas_24h": 1,
        "frp_total_mw": 2.5,
        "frp_max_mw": 1.3,
        "edad_min_h": 11.9,
        "ultima_deteccion_utc": "2026-09-08 02:49:00",
        "sensores": "VIIRS_NOAA20_NRT, VIIRS_SNPP_NRT",
        "satellites": "N, N20",
        "instruments": "VIIRS",
        "popup_label": "<strong>ALERT-20260908-044<\/strong><br>Nivel: seguimiento<br>Focos: 2<br>Últimas 6 h: 0<br>FRP total: 2.5 MW<br>Última detección UTC: 2026-09-08 02:49:00"
      }
    },
    {
      "type": "Feature",
      "geometry": {
        "type": "Point",
        "coordinates": [-5.699, 38.2418]
      },
      "properties": {
        "cluster_id": "ALERT-20260908-045",
        "alerta_operativa": "seguimiento",
        "score": 6,
        "n_focos": 1,
        "n_ultimas_6h": 0,
        "n_ultimas_24h": 1,
        "frp_total_mw": 3.4,
        "frp_max_mw": 3.4,
        "edad_min_h": 13.3,
        "ultima_deteccion_utc": "2026-09-08 01:28:00",
        "sensores": "VIIRS_NOAA20_NRT",
        "satellites": "N20",
        "instruments": "VIIRS",
        "popup_label": "<strong>ALERT-20260908-045<\/strong><br>Nivel: seguimiento<br>Focos: 1<br>Últimas 6 h: 0<br>FRP total: 3.4 MW<br>Última detección UTC: 2026-09-08 01:28:00"
      }
    },
    {
      "type": "Feature",
      "geometry": {
        "type": "Point",
        "coordinates": [-5.1626, 43.1595]
      },
      "properties": {
        "cluster_id": "ALERT-20260908-046",
        "alerta_operativa": "seguimiento",
        "score": 5,
        "n_focos": 1,
        "n_ultimas_6h": 0,
        "n_ultimas_24h": 1,
        "frp_total_mw": 1.7,
        "frp_max_mw": 1.7,
        "edad_min_h": 13.3,
        "ultima_deteccion_utc": "2026-09-08 01:28:00",
        "sensores": "VIIRS_NOAA20_NRT",
        "satellites": "N20",
        "instruments": "VIIRS",
        "popup_label": "<strong>ALERT-20260908-046<\/strong><br>Nivel: seguimiento<br>Focos: 1<br>Últimas 6 h: 0<br>FRP total: 1.7 MW<br>Última detección UTC: 2026-09-08 01:28:00"
      }
    },
    {
      "type": "Feature",
      "geometry": {
        "type": "Point",
        "coordinates": [-3.1792, 40.6688]
      },
      "properties": {
        "cluster_id": "ALERT-20260908-047",
        "alerta_operativa": "seguimiento",
        "score": 4.9,
        "n_focos": 1,
        "n_ultimas_6h": 0,
        "n_ultimas_24h": 1,
        "frp_total_mw": 1.6,
        "frp_max_mw": 1.6,
        "edad_min_h": 13.3,
        "ultima_deteccion_utc": "2026-09-08 01:28:00",
        "sensores": "VIIRS_NOAA20_NRT",
        "satellites": "N20",
        "instruments": "VIIRS",
        "popup_label": "<strong>ALERT-20260908-047<\/strong><br>Nivel: seguimiento<br>Focos: 1<br>Últimas 6 h: 0<br>FRP total: 1.6 MW<br>Última detección UTC: 2026-09-08 01:28:00"
      }
    },
    {
      "type": "Feature",
      "geometry": {
        "type": "Point",
        "coordinates": [-0.1614, 28.2115]
      },
      "properties": {
        "cluster_id": "ALERT-20260908-048",
        "alerta_operativa": "seguimiento",
        "score": 4.6,
        "n_focos": 1,
        "n_ultimas_6h": 0,
        "n_ultimas_24h": 1,
        "frp_total_mw": 1.2,
        "frp_max_mw": 1.2,
        "edad_min_h": 13.5,
        "ultima_deteccion_utc": "2026-09-08 01:11:00",
        "sensores": "VIIRS_SNPP_NRT",
        "satellites": "N",
        "instruments": "VIIRS",
        "popup_label": "<strong>ALERT-20260908-048<\/strong><br>Nivel: seguimiento<br>Focos: 1<br>Últimas 6 h: 0<br>FRP total: 1.2 MW<br>Última detección UTC: 2026-09-08 01:11:00"
      }
    },
    {
      "type": "Feature",
      "geometry": {
        "type": "Point",
        "coordinates": [-8.4192, 40.2893]
      },
      "properties": {
        "cluster_id": "ALERT-20260908-049",
        "alerta_operativa": "seguimiento",
        "score": 4.5,
        "n_focos": 1,
        "n_ultimas_6h": 0,
        "n_ultimas_24h": 1,
        "frp_total_mw": 1.1,
        "frp_max_mw": 1.1,
        "edad_min_h": 11.9,
        "ultima_deteccion_utc": "2026-09-08 02:49:00",
        "sensores": "VIIRS_SNPP_NRT",
        "satellites": "N",
        "instruments": "VIIRS",
        "popup_label": "<strong>ALERT-20260908-049<\/strong><br>Nivel: seguimiento<br>Focos: 1<br>Últimas 6 h: 0<br>FRP total: 1.1 MW<br>Última detección UTC: 2026-09-08 02:49:00"
      }
    },
    {
      "type": "Feature",
      "geometry": {
        "type": "Point",
        "coordinates": [-8.7973, 37.9531]
      },
      "properties": {
        "cluster_id": "ALERT-20260908-050",
        "alerta_operativa": "seguimiento",
        "score": 4.2,
        "n_focos": 1,
        "n_ultimas_6h": 0,
        "n_ultimas_24h": 1,
        "frp_total_mw": 0.8,
        "frp_max_mw": 0.8,
        "edad_min_h": 11.6,
        "ultima_deteccion_utc": "2026-09-08 03:10:00",
        "sensores": "VIIRS_NOAA20_NRT",
        "satellites": "N20",
        "instruments": "VIIRS",
        "popup_label": "<strong>ALERT-20260908-050<\/strong><br>Nivel: seguimiento<br>Focos: 1<br>Últimas 6 h: 0<br>FRP total: 0.8 MW<br>Última detección UTC: 2026-09-08 03:10:00"
      }
    },
    {
      "type": "Feature",
      "geometry": {
        "type": "Point",
        "coordinates": [-4.3302, 36.7131]
      },
      "properties": {
        "cluster_id": "ALERT-20260908-051",
        "alerta_operativa": "seguimiento",
        "score": 4.1,
        "n_focos": 1,
        "n_ultimas_6h": 0,
        "n_ultimas_24h": 1,
        "frp_total_mw": 0.7,
        "frp_max_mw": 0.7,
        "edad_min_h": 11.9,
        "ultima_deteccion_utc": "2026-09-08 02:49:00",
        "sensores": "VIIRS_SNPP_NRT",
        "satellites": "N",
        "instruments": "VIIRS",
        "popup_label": "<strong>ALERT-20260908-051<\/strong><br>Nivel: seguimiento<br>Focos: 1<br>Últimas 6 h: 0<br>FRP total: 0.7 MW<br>Última detección UTC: 2026-09-08 02:49:00"
      }
    },
    {
      "type": "Feature",
      "geometry": {
        "type": "Point",
        "coordinates": [-6.3016, 43.0989]
      },
      "properties": {
        "cluster_id": "ALERT-20260908-052",
        "alerta_operativa": "seguimiento",
        "score": 3.5,
        "n_focos": 1,
        "n_ultimas_6h": 0,
        "n_ultimas_24h": 1,
        "frp_total_mw": 0.3,
        "frp_max_mw": 0.3,
        "edad_min_h": 11.9,
        "ultima_deteccion_utc": "2026-09-08 02:47:00",
        "sensores": "VIIRS_SNPP_NRT",
        "satellites": "N",
        "instruments": "VIIRS",
        "popup_label": "<strong>ALERT-20260908-052<\/strong><br>Nivel: seguimiento<br>Focos: 1<br>Últimas 6 h: 0<br>FRP total: 0.3 MW<br>Última detección UTC: 2026-09-08 02:47:00"
      }
    },
    {
      "type": "Feature",
      "geometry": {
        "type": "Point",
        "coordinates": [-5.3783, 41.5819]
      },
      "properties": {
        "cluster_id": "ALERT-20260908-053",
        "alerta_operativa": "informativa",
        "score": 12.2,
        "n_focos": 8,
        "n_ultimas_6h": 0,
        "n_ultimas_24h": 0,
        "frp_total_mw": 7.1,
        "frp_max_mw": 1.5,
        "edad_min_h": 35.3,
        "ultima_deteccion_utc": "2026-09-07 03:25:00",
        "sensores": "VIIRS_NOAA20_NRT, VIIRS_SNPP_NRT",
        "satellites": "N, N20",
        "instruments": "VIIRS",
        "popup_label": "<strong>ALERT-20260908-053<\/strong><br>Nivel: informativa<br>Focos: 8<br>Últimas 6 h: 0<br>FRP total: 7.1 MW<br>Última detección UTC: 2026-09-07 03:25:00"
      }
    },
    {
      "type": "Feature",
      "geometry": {
        "type": "Point",
        "coordinates": [-6.4902, 42.0456]
      },
      "properties": {
        "cluster_id": "ALERT-20260908-054",
        "alerta_operativa": "informativa",
        "score": 11.7,
        "n_focos": 4,
        "n_ultimas_6h": 0,
        "n_ultimas_24h": 0,
        "frp_total_mw": 47.1,
        "frp_max_mw": 23.9,
        "edad_min_h": 25.6,
        "ultima_deteccion_utc": "2026-09-07 13:10:00",
        "sensores": "VIIRS_NOAA20_NRT, VIIRS_SNPP_NRT",
        "satellites": "N, N20",
        "instruments": "VIIRS",
        "popup_label": "<strong>ALERT-20260908-054<\/strong><br>Nivel: informativa<br>Focos: 4<br>Últimas 6 h: 0<br>FRP total: 47.1 MW<br>Última detección UTC: 2026-09-07 13:10:00"
      }
    },
    {
      "type": "Feature",
      "geometry": {
        "type": "Point",
        "coordinates": [-3.9719, 40.1036]
      },
      "properties": {
        "cluster_id": "ALERT-20260908-055",
        "alerta_operativa": "informativa",
        "score": 11,
        "n_focos": 4,
        "n_ultimas_6h": 0,
        "n_ultimas_24h": 0,
        "frp_total_mw": 32.1,
        "frp_max_mw": 9.1,
        "edad_min_h": 25.9,
        "ultima_deteccion_utc": "2026-09-07 12:51:00",
        "sensores": "VIIRS_SNPP_NRT",
        "satellites": "N",
        "instruments": "VIIRS",
        "popup_label": "<strong>ALERT-20260908-055<\/strong><br>Nivel: informativa<br>Focos: 4<br>Últimas 6 h: 0<br>FRP total: 32.1 MW<br>Última detección UTC: 2026-09-07 12:51:00"
      }
    },
    {
      "type": "Feature",
      "geometry": {
        "type": "Point",
        "coordinates": [1.1824, 41.1691]
      },
      "properties": {
        "cluster_id": "ALERT-20260908-056",
        "alerta_operativa": "informativa",
        "score": 9.9,
        "n_focos": 4,
        "n_ultimas_6h": 0,
        "n_ultimas_24h": 0,
        "frp_total_mw": 17.7,
        "frp_max_mw": 8,
        "edad_min_h": 25.9,
        "ultima_deteccion_utc": "2026-09-07 12:51:00",
        "sensores": "VIIRS_SNPP_NRT",
        "satellites": "N",
        "instruments": "VIIRS",
        "popup_label": "<strong>ALERT-20260908-056<\/strong><br>Nivel: informativa<br>Focos: 4<br>Últimas 6 h: 0<br>FRP total: 17.7 MW<br>Última detección UTC: 2026-09-07 12:51:00"
      }
    },
    {
      "type": "Feature",
      "geometry": {
        "type": "Point",
        "coordinates": [4.9265, 36.4134]
      },
      "properties": {
        "cluster_id": "ALERT-20260908-057",
        "alerta_operativa": "informativa",
        "score": 9.9,
        "n_focos": 5,
        "n_ultimas_6h": 0,
        "n_ultimas_24h": 0,
        "frp_total_mw": 10.5,
        "frp_max_mw": 3.2,
        "edad_min_h": 36.9,
        "ultima_deteccion_utc": "2026-09-07 01:47:00",
        "sensores": "VIIRS_NOAA20_NRT, VIIRS_SNPP_NRT",
        "satellites": "N, N20",
        "instruments": "VIIRS",
        "popup_label": "<strong>ALERT-20260908-057<\/strong><br>Nivel: informativa<br>Focos: 5<br>Últimas 6 h: 0<br>FRP total: 10.5 MW<br>Última detección UTC: 2026-09-07 01:47:00"
      }
    },
    {
      "type": "Feature",
      "geometry": {
        "type": "Point",
        "coordinates": [-1.3833, 37.829]
      },
      "properties": {
        "cluster_id": "ALERT-20260908-058",
        "alerta_operativa": "informativa",
        "score": 9.6,
        "n_focos": 4,
        "n_ultimas_6h": 0,
        "n_ultimas_24h": 0,
        "frp_total_mw": 15.5,
        "frp_max_mw": 6.4,
        "edad_min_h": 36.9,
        "ultima_deteccion_utc": "2026-09-07 01:47:00",
        "sensores": "VIIRS_NOAA20_NRT, VIIRS_SNPP_NRT",
        "satellites": "N, N20",
        "instruments": "VIIRS",
        "popup_label": "<strong>ALERT-20260908-058<\/strong><br>Nivel: informativa<br>Focos: 4<br>Últimas 6 h: 0<br>FRP total: 15.5 MW<br>Última detección UTC: 2026-09-07 01:47:00"
      }
    },
    {
      "type": "Feature",
      "geometry": {
        "type": "Point",
        "coordinates": [0.3341, 28.0957]
      },
      "properties": {
        "cluster_id": "ALERT-20260908-059",
        "alerta_operativa": "informativa",
        "score": 9.4,
        "n_focos": 3,
        "n_ultimas_6h": 0,
        "n_ultimas_24h": 0,
        "frp_total_mw": 23.6,
        "frp_max_mw": 10.4,
        "edad_min_h": 36.9,
        "ultima_deteccion_utc": "2026-09-07 01:49:00",
        "sensores": "VIIRS_NOAA20_NRT, VIIRS_SNPP_NRT",
        "satellites": "N, N20",
        "instruments": "VIIRS",
        "popup_label": "<strong>ALERT-20260908-059<\/strong><br>Nivel: informativa<br>Focos: 3<br>Últimas 6 h: 0<br>FRP total: 23.6 MW<br>Última detección UTC: 2026-09-07 01:49:00"
      }
    },
    {
      "type": "Feature",
      "geometry": {
        "type": "Point",
        "coordinates": [2.0819, 43.251]
      },
      "properties": {
        "cluster_id": "ALERT-20260908-060",
        "alerta_operativa": "informativa",
        "score": 8.7,
        "n_focos": 2,
        "n_ultimas_6h": 0,
        "n_ultimas_24h": 0,
        "frp_total_mw": 27.9,
        "frp_max_mw": 17.9,
        "edad_min_h": 25.9,
        "ultima_deteccion_utc": "2026-09-07 12:51:00",
        "sensores": "VIIRS_SNPP_NRT",
        "satellites": "N",
        "instruments": "VIIRS",
        "popup_label": "<strong>ALERT-20260908-060<\/strong><br>Nivel: informativa<br>Focos: 2<br>Últimas 6 h: 0<br>FRP total: 27.9 MW<br>Última detección UTC: 2026-09-07 12:51:00"
      }
    },
    {
      "type": "Feature",
      "geometry": {
        "type": "Point",
        "coordinates": [-4.5756, 34.3156]
      },
      "properties": {
        "cluster_id": "ALERT-20260908-061",
        "alerta_operativa": "informativa",
        "score": 8.5,
        "n_focos": 3,
        "n_ultimas_6h": 0,
        "n_ultimas_24h": 0,
        "frp_total_mw": 14.8,
        "frp_max_mw": 5.9,
        "edad_min_h": 25.9,
        "ultima_deteccion_utc": "2026-09-07 12:49:00",
        "sensores": "VIIRS_SNPP_NRT",
        "satellites": "N",
        "instruments": "VIIRS",
        "popup_label": "<strong>ALERT-20260908-061<\/strong><br>Nivel: informativa<br>Focos: 3<br>Últimas 6 h: 0<br>FRP total: 14.8 MW<br>Última detección UTC: 2026-09-07 12:49:00"
      }
    },
    {
      "type": "Feature",
      "geometry": {
        "type": "Point",
        "coordinates": [-5.9334, 36.7809]
      },
      "properties": {
        "cluster_id": "ALERT-20260908-062",
        "alerta_operativa": "informativa",
        "score": 8.5,
        "n_focos": 3,
        "n_ultimas_6h": 0,
        "n_ultimas_24h": 0,
        "frp_total_mw": 14.3,
        "frp_max_mw": 6.3,
        "edad_min_h": 25.6,
        "ultima_deteccion_utc": "2026-09-07 13:08:00",
        "sensores": "VIIRS_NOAA20_NRT, VIIRS_SNPP_NRT",
        "satellites": "N, N20",
        "instruments": "VIIRS",
        "popup_label": "<strong>ALERT-20260908-062<\/strong><br>Nivel: informativa<br>Focos: 3<br>Últimas 6 h: 0<br>FRP total: 14.3 MW<br>Última detección UTC: 2026-09-07 13:08:00"
      }
    },
    {
      "type": "Feature",
      "geometry": {
        "type": "Point",
        "coordinates": [-4.9806, 37.4752]
      },
      "properties": {
        "cluster_id": "ALERT-20260908-063",
        "alerta_operativa": "informativa",
        "score": 8.2,
        "n_focos": 3,
        "n_ultimas_6h": 0,
        "n_ultimas_24h": 0,
        "frp_total_mw": 12.8,
        "frp_max_mw": 4.4,
        "edad_min_h": 24.2,
        "ultima_deteccion_utc": "2026-09-07 14:29:00",
        "sensores": "VIIRS_SNPP_NRT",
        "satellites": "N",
        "instruments": "VIIRS",
        "popup_label": "<strong>ALERT-20260908-063<\/strong><br>Nivel: informativa<br>Focos: 3<br>Últimas 6 h: 0<br>FRP total: 12.8 MW<br>Última detección UTC: 2026-09-07 14:29:00"
      }
    },
    {
      "type": "Feature",
      "geometry": {
        "type": "Point",
        "coordinates": [-5.7608, 43.5295]
      },
      "properties": {
        "cluster_id": "ALERT-20260908-064",
        "alerta_operativa": "informativa",
        "score": 7.9,
        "n_focos": 3,
        "n_ultimas_6h": 0,
        "n_ultimas_24h": 0,
        "frp_total_mw": 10.6,
        "frp_max_mw": 3.7,
        "edad_min_h": 25.6,
        "ultima_deteccion_utc": "2026-09-07 13:10:00",
        "sensores": "VIIRS_NOAA20_NRT",
        "satellites": "N20",
        "instruments": "VIIRS",
        "popup_label": "<strong>ALERT-20260908-064<\/strong><br>Nivel: informativa<br>Focos: 3<br>Últimas 6 h: 0<br>FRP total: 10.6 MW<br>Última detección UTC: 2026-09-07 13:10:00"
      }
    },
    {
      "type": "Feature",
      "geometry": {
        "type": "Point",
        "coordinates": [-3.6658, 37.0911]
      },
      "properties": {
        "cluster_id": "ALERT-20260908-065",
        "alerta_operativa": "informativa",
        "score": 7.8,
        "n_focos": 2,
        "n_ultimas_6h": 0,
        "n_ultimas_24h": 0,
        "frp_total_mw": 17.4,
        "frp_max_mw": 12,
        "edad_min_h": 24.2,
        "ultima_deteccion_utc": "2026-09-07 14:29:00",
        "sensores": "VIIRS_SNPP_NRT",
        "satellites": "N",
        "instruments": "VIIRS",
        "popup_label": "<strong>ALERT-20260908-065<\/strong><br>Nivel: informativa<br>Focos: 2<br>Últimas 6 h: 0<br>FRP total: 17.4 MW<br>Última detección UTC: 2026-09-07 14:29:00"
      }
    },
    {
      "type": "Feature",
      "geometry": {
        "type": "Point",
        "coordinates": [-8.9219, 39.0479]
      },
      "properties": {
        "cluster_id": "ALERT-20260908-066",
        "alerta_operativa": "informativa",
        "score": 7.7,
        "n_focos": 2,
        "n_ultimas_6h": 0,
        "n_ultimas_24h": 0,
        "frp_total_mw": 16.6,
        "frp_max_mw": 9.6,
        "edad_min_h": 24.2,
        "ultima_deteccion_utc": "2026-09-07 14:29:00",
        "sensores": "VIIRS_SNPP_NRT",
        "satellites": "N",
        "instruments": "VIIRS",
        "popup_label": "<strong>ALERT-20260908-066<\/strong><br>Nivel: informativa<br>Focos: 2<br>Últimas 6 h: 0<br>FRP total: 16.6 MW<br>Última detección UTC: 2026-09-07 14:29:00"
      }
    },
    {
      "type": "Feature",
      "geometry": {
        "type": "Point",
        "coordinates": [-6.2749, 34.9045]
      },
      "properties": {
        "cluster_id": "ALERT-20260908-067",
        "alerta_operativa": "informativa",
        "score": 7.6,
        "n_focos": 2,
        "n_ultimas_6h": 0,
        "n_ultimas_24h": 0,
        "frp_total_mw": 15.3,
        "frp_max_mw": 9.7,
        "edad_min_h": 25.6,
        "ultima_deteccion_utc": "2026-09-07 13:08:00",
        "sensores": "VIIRS_NOAA20_NRT, VIIRS_SNPP_NRT",
        "satellites": "N, N20",
        "instruments": "VIIRS",
        "popup_label": "<strong>ALERT-20260908-067<\/strong><br>Nivel: informativa<br>Focos: 2<br>Últimas 6 h: 0<br>FRP total: 15.3 MW<br>Última detección UTC: 2026-09-07 13:08:00"
      }
    },
    {
      "type": "Feature",
      "geometry": {
        "type": "Point",
        "coordinates": [-6.5403, 38.8837]
      },
      "properties": {
        "cluster_id": "ALERT-20260908-068",
        "alerta_operativa": "informativa",
        "score": 7.5,
        "n_focos": 3,
        "n_ultimas_6h": 0,
        "n_ultimas_24h": 0,
        "frp_total_mw": 8.6,
        "frp_max_mw": 3.2,
        "edad_min_h": 25.6,
        "ultima_deteccion_utc": "2026-09-07 13:10:00",
        "sensores": "VIIRS_NOAA20_NRT, VIIRS_SNPP_NRT",
        "satellites": "N, N20",
        "instruments": "VIIRS",
        "popup_label": "<strong>ALERT-20260908-068<\/strong><br>Nivel: informativa<br>Focos: 3<br>Últimas 6 h: 0<br>FRP total: 8.6 MW<br>Última detección UTC: 2026-09-07 13:10:00"
      }
    },
    {
      "type": "Feature",
      "geometry": {
        "type": "Point",
        "coordinates": [-0.5419, 44.3432]
      },
      "properties": {
        "cluster_id": "ALERT-20260908-069",
        "alerta_operativa": "informativa",
        "score": 7.4,
        "n_focos": 1,
        "n_ultimas_6h": 0,
        "n_ultimas_24h": 0,
        "frp_total_mw": 24,
        "frp_max_mw": 24,
        "edad_min_h": 25.8,
        "ultima_deteccion_utc": "2026-09-07 12:53:00",
        "sensores": "VIIRS_SNPP_NRT",
        "satellites": "N",
        "instruments": "VIIRS",
        "popup_label": "<strong>ALERT-20260908-069<\/strong><br>Nivel: informativa<br>Focos: 1<br>Últimas 6 h: 0<br>FRP total: 24 MW<br>Última detección UTC: 2026-09-07 12:53:00"
      }
    },
    {
      "type": "Feature",
      "geometry": {
        "type": "Point",
        "coordinates": [-5.2232, 37.461]
      },
      "properties": {
        "cluster_id": "ALERT-20260908-070",
        "alerta_operativa": "informativa",
        "score": 7,
        "n_focos": 2,
        "n_ultimas_6h": 0,
        "n_ultimas_24h": 0,
        "frp_total_mw": 11.2,
        "frp_max_mw": 7,
        "edad_min_h": 25.6,
        "ultima_deteccion_utc": "2026-09-07 13:08:00",
        "sensores": "VIIRS_NOAA20_NRT, VIIRS_SNPP_NRT",
        "satellites": "N, N20",
        "instruments": "VIIRS",
        "popup_label": "<strong>ALERT-20260908-070<\/strong><br>Nivel: informativa<br>Focos: 2<br>Últimas 6 h: 0<br>FRP total: 11.2 MW<br>Última detección UTC: 2026-09-07 13:08:00"
      }
    },
    {
      "type": "Feature",
      "geometry": {
        "type": "Point",
        "coordinates": [3.3388, 36.6868]
      },
      "properties": {
        "cluster_id": "ALERT-20260908-071",
        "alerta_operativa": "informativa",
        "score": 6.9,
        "n_focos": 3,
        "n_ultimas_6h": 0,
        "n_ultimas_24h": 0,
        "frp_total_mw": 5.9,
        "frp_max_mw": 4.2,
        "edad_min_h": 25.6,
        "ultima_deteccion_utc": "2026-09-07 13:08:00",
        "sensores": "VIIRS_NOAA20_NRT, VIIRS_SNPP_NRT",
        "satellites": "N, N20",
        "instruments": "VIIRS",
        "popup_label": "<strong>ALERT-20260908-071<\/strong><br>Nivel: informativa<br>Focos: 3<br>Últimas 6 h: 0<br>FRP total: 5.9 MW<br>Última detección UTC: 2026-09-07 13:08:00"
      }
    },
    {
      "type": "Feature",
      "geometry": {
        "type": "Point",
        "coordinates": [-4.1215, 39.937]
      },
      "properties": {
        "cluster_id": "ALERT-20260908-072",
        "alerta_operativa": "informativa",
        "score": 6.7,
        "n_focos": 2,
        "n_ultimas_6h": 0,
        "n_ultimas_24h": 0,
        "frp_total_mw": 9.5,
        "frp_max_mw": 5.2,
        "edad_min_h": 25.6,
        "ultima_deteccion_utc": "2026-09-07 13:10:00",
        "sensores": "VIIRS_NOAA20_NRT, VIIRS_SNPP_NRT",
        "satellites": "N, N20",
        "instruments": "VIIRS",
        "popup_label": "<strong>ALERT-20260908-072<\/strong><br>Nivel: informativa<br>Focos: 2<br>Últimas 6 h: 0<br>FRP total: 9.5 MW<br>Última detección UTC: 2026-09-07 13:10:00"
      }
    },
    {
      "type": "Feature",
      "geometry": {
        "type": "Point",
        "coordinates": [0.0129, 28.3077]
      },
      "properties": {
        "cluster_id": "ALERT-20260908-073",
        "alerta_operativa": "informativa",
        "score": 6.5,
        "n_focos": 1,
        "n_ultimas_6h": 0,
        "n_ultimas_24h": 0,
        "frp_total_mw": 14.4,
        "frp_max_mw": 14.4,
        "edad_min_h": 26,
        "ultima_deteccion_utc": "2026-09-07 12:46:00",
        "sensores": "VIIRS_SNPP_NRT",
        "satellites": "N",
        "instruments": "VIIRS",
        "popup_label": "<strong>ALERT-20260908-073<\/strong><br>Nivel: informativa<br>Focos: 1<br>Últimas 6 h: 0<br>FRP total: 14.4 MW<br>Última detección UTC: 2026-09-07 12:46:00"
      }
    },
    {
      "type": "Feature",
      "geometry": {
        "type": "Point",
        "coordinates": [-5.6115, 37.3506]
      },
      "properties": {
        "cluster_id": "ALERT-20260908-074",
        "alerta_operativa": "informativa",
        "score": 6.1,
        "n_focos": 2,
        "n_ultimas_6h": 0,
        "n_ultimas_24h": 0,
        "frp_total_mw": 6.7,
        "frp_max_mw": 3.7,
        "edad_min_h": 24.2,
        "ultima_deteccion_utc": "2026-09-07 14:29:00",
        "sensores": "VIIRS_SNPP_NRT",
        "satellites": "N",
        "instruments": "VIIRS",
        "popup_label": "<strong>ALERT-20260908-074<\/strong><br>Nivel: informativa<br>Focos: 2<br>Últimas 6 h: 0<br>FRP total: 6.7 MW<br>Última detección UTC: 2026-09-07 14:29:00"
      }
    },
    {
      "type": "Feature",
      "geometry": {
        "type": "Point",
        "coordinates": [-4.8094, 37.877]
      },
      "properties": {
        "cluster_id": "ALERT-20260908-075",
        "alerta_operativa": "informativa",
        "score": 6.1,
        "n_focos": 2,
        "n_ultimas_6h": 0,
        "n_ultimas_24h": 0,
        "frp_total_mw": 6.6,
        "frp_max_mw": 3.3,
        "edad_min_h": 25.6,
        "ultima_deteccion_utc": "2026-09-07 13:10:00",
        "sensores": "VIIRS_NOAA20_NRT",
        "satellites": "N20",
        "instruments": "VIIRS",
        "popup_label": "<strong>ALERT-20260908-075<\/strong><br>Nivel: informativa<br>Focos: 2<br>Últimas 6 h: 0<br>FRP total: 6.6 MW<br>Última detección UTC: 2026-09-07 13:10:00"
      }
    },
    {
      "type": "Feature",
      "geometry": {
        "type": "Point",
        "coordinates": [3.6923, 36.7979]
      },
      "properties": {
        "cluster_id": "ALERT-20260908-076",
        "alerta_operativa": "informativa",
        "score": 5.9,
        "n_focos": 2,
        "n_ultimas_6h": 0,
        "n_ultimas_24h": 0,
        "frp_total_mw": 6,
        "frp_max_mw": 3.5,
        "edad_min_h": 25.9,
        "ultima_deteccion_utc": "2026-09-07 12:51:00",
        "sensores": "VIIRS_SNPP_NRT",
        "satellites": "N",
        "instruments": "VIIRS",
        "popup_label": "<strong>ALERT-20260908-076<\/strong><br>Nivel: informativa<br>Focos: 2<br>Últimas 6 h: 0<br>FRP total: 6 MW<br>Última detección UTC: 2026-09-07 12:51:00"
      }
    },
    {
      "type": "Feature",
      "geometry": {
        "type": "Point",
        "coordinates": [0.9868, 43.1466]
      },
      "properties": {
        "cluster_id": "ALERT-20260908-077",
        "alerta_operativa": "informativa",
        "score": 5.4,
        "n_focos": 1,
        "n_ultimas_6h": 0,
        "n_ultimas_24h": 0,
        "frp_total_mw": 8,
        "frp_max_mw": 8,
        "edad_min_h": 25.9,
        "ultima_deteccion_utc": "2026-09-07 12:51:00",
        "sensores": "VIIRS_SNPP_NRT",
        "satellites": "N",
        "instruments": "VIIRS",
        "popup_label": "<strong>ALERT-20260908-077<\/strong><br>Nivel: informativa<br>Focos: 1<br>Últimas 6 h: 0<br>FRP total: 8 MW<br>Última detección UTC: 2026-09-07 12:51:00"
      }
    },
    {
      "type": "Feature",
      "geometry": {
        "type": "Point",
        "coordinates": [4.6532, 36.7091]
      },
      "properties": {
        "cluster_id": "ALERT-20260908-078",
        "alerta_operativa": "informativa",
        "score": 5.4,
        "n_focos": 1,
        "n_ultimas_6h": 0,
        "n_ultimas_24h": 0,
        "frp_total_mw": 7.9,
        "frp_max_mw": 7.9,
        "edad_min_h": 25.9,
        "ultima_deteccion_utc": "2026-09-07 12:51:00",
        "sensores": "VIIRS_SNPP_NRT",
        "satellites": "N",
        "instruments": "VIIRS",
        "popup_label": "<strong>ALERT-20260908-078<\/strong><br>Nivel: informativa<br>Focos: 1<br>Últimas 6 h: 0<br>FRP total: 7.9 MW<br>Última detección UTC: 2026-09-07 12:51:00"
      }
    },
    {
      "type": "Feature",
      "geometry": {
        "type": "Point",
        "coordinates": [-2.674, 42.8646]
      },
      "properties": {
        "cluster_id": "ALERT-20260908-079",
        "alerta_operativa": "informativa",
        "score": 4.8,
        "n_focos": 1,
        "n_ultimas_6h": 0,
        "n_ultimas_24h": 0,
        "frp_total_mw": 5.6,
        "frp_max_mw": 5.6,
        "edad_min_h": 25.9,
        "ultima_deteccion_utc": "2026-09-07 12:51:00",
        "sensores": "VIIRS_SNPP_NRT",
        "satellites": "N",
        "instruments": "VIIRS",
        "popup_label": "<strong>ALERT-20260908-079<\/strong><br>Nivel: informativa<br>Focos: 1<br>Últimas 6 h: 0<br>FRP total: 5.6 MW<br>Última detección UTC: 2026-09-07 12:51:00"
      }
    },
    {
      "type": "Feature",
      "geometry": {
        "type": "Point",
        "coordinates": [1.9775, 41.4544]
      },
      "properties": {
        "cluster_id": "ALERT-20260908-080",
        "alerta_operativa": "informativa",
        "score": 4.6,
        "n_focos": 2,
        "n_ultimas_6h": 0,
        "n_ultimas_24h": 0,
        "frp_total_mw": 2.7,
        "frp_max_mw": 1.9,
        "edad_min_h": 37,
        "ultima_deteccion_utc": "2026-09-07 01:45:00",
        "sensores": "VIIRS_NOAA20_NRT, VIIRS_SNPP_NRT",
        "satellites": "N, N20",
        "instruments": "VIIRS",
        "popup_label": "<strong>ALERT-20260908-080<\/strong><br>Nivel: informativa<br>Focos: 2<br>Últimas 6 h: 0<br>FRP total: 2.7 MW<br>Última detección UTC: 2026-09-07 01:45:00"
      }
    },
    {
      "type": "Feature",
      "geometry": {
        "type": "Point",
        "coordinates": [2.0581, 34.438]
      },
      "properties": {
        "cluster_id": "ALERT-20260908-081",
        "alerta_operativa": "informativa",
        "score": 4.5,
        "n_focos": 2,
        "n_ultimas_6h": 0,
        "n_ultimas_24h": 0,
        "frp_total_mw": 2.5,
        "frp_max_mw": 1.4,
        "edad_min_h": 36.9,
        "ultima_deteccion_utc": "2026-09-07 01:47:00",
        "sensores": "VIIRS_NOAA20_NRT, VIIRS_SNPP_NRT",
        "satellites": "N, N20",
        "instruments": "VIIRS",
        "popup_label": "<strong>ALERT-20260908-081<\/strong><br>Nivel: informativa<br>Focos: 2<br>Últimas 6 h: 0<br>FRP total: 2.5 MW<br>Última detección UTC: 2026-09-07 01:47:00"
      }
    },
    {
      "type": "Feature",
      "geometry": {
        "type": "Point",
        "coordinates": [-3.0251, 43.31]
      },
      "properties": {
        "cluster_id": "ALERT-20260908-082",
        "alerta_operativa": "informativa",
        "score": 4.5,
        "n_focos": 2,
        "n_ultimas_6h": 0,
        "n_ultimas_24h": 0,
        "frp_total_mw": 2.5,
        "frp_max_mw": 1.3,
        "edad_min_h": 37.3,
        "ultima_deteccion_utc": "2026-09-07 01:26:00",
        "sensores": "VIIRS_SNPP_NRT",
        "satellites": "N",
        "instruments": "VIIRS",
        "popup_label": "<strong>ALERT-20260908-082<\/strong><br>Nivel: informativa<br>Focos: 2<br>Últimas 6 h: 0<br>FRP total: 2.5 MW<br>Última detección UTC: 2026-09-07 01:26:00"
      }
    },
    {
      "type": "Feature",
      "geometry": {
        "type": "Point",
        "coordinates": [-5.8749, 41.7631]
      },
      "properties": {
        "cluster_id": "ALERT-20260908-083",
        "alerta_operativa": "informativa",
        "score": 4.1,
        "n_focos": 1,
        "n_ultimas_6h": 0,
        "n_ultimas_24h": 0,
        "frp_total_mw": 3.8,
        "frp_max_mw": 3.8,
        "edad_min_h": 25.6,
        "ultima_deteccion_utc": "2026-09-07 13:10:00",
        "sensores": "VIIRS_NOAA20_NRT",
        "satellites": "N20",
        "instruments": "VIIRS",
        "popup_label": "<strong>ALERT-20260908-083<\/strong><br>Nivel: informativa<br>Focos: 1<br>Últimas 6 h: 0<br>FRP total: 3.8 MW<br>Última detección UTC: 2026-09-07 13:10:00"
      }
    },
    {
      "type": "Feature",
      "geometry": {
        "type": "Point",
        "coordinates": [-4.0688, 38.0308]
      },
      "properties": {
        "cluster_id": "ALERT-20260908-084",
        "alerta_operativa": "informativa",
        "score": 4.1,
        "n_focos": 1,
        "n_ultimas_6h": 0,
        "n_ultimas_24h": 0,
        "frp_total_mw": 3.7,
        "frp_max_mw": 3.7,
        "edad_min_h": 25.6,
        "ultima_deteccion_utc": "2026-09-07 13:10:00",
        "sensores": "VIIRS_NOAA20_NRT",
        "satellites": "N20",
        "instruments": "VIIRS",
        "popup_label": "<strong>ALERT-20260908-084<\/strong><br>Nivel: informativa<br>Focos: 1<br>Últimas 6 h: 0<br>FRP total: 3.7 MW<br>Última detección UTC: 2026-09-07 13:10:00"
      }
    },
    {
      "type": "Feature",
      "geometry": {
        "type": "Point",
        "coordinates": [-0.5427, 42.9253]
      },
      "properties": {
        "cluster_id": "ALERT-20260908-085",
        "alerta_operativa": "informativa",
        "score": 4.1,
        "n_focos": 2,
        "n_ultimas_6h": 0,
        "n_ultimas_24h": 0,
        "frp_total_mw": 1.8,
        "frp_max_mw": 0.9,
        "edad_min_h": 35.6,
        "ultima_deteccion_utc": "2026-09-07 03:08:00",
        "sensores": "VIIRS_NOAA20_NRT, VIIRS_SNPP_NRT",
        "satellites": "N, N20",
        "instruments": "VIIRS",
        "popup_label": "<strong>ALERT-20260908-085<\/strong><br>Nivel: informativa<br>Focos: 2<br>Últimas 6 h: 0<br>FRP total: 1.8 MW<br>Última detección UTC: 2026-09-07 03:08:00"
      }
    },
    {
      "type": "Feature",
      "geometry": {
        "type": "Point",
        "coordinates": [-3.7144, 37.3104]
      },
      "properties": {
        "cluster_id": "ALERT-20260908-086",
        "alerta_operativa": "informativa",
        "score": 3.9,
        "n_focos": 1,
        "n_ultimas_6h": 0,
        "n_ultimas_24h": 0,
        "frp_total_mw": 3.3,
        "frp_max_mw": 3.3,
        "edad_min_h": 25.6,
        "ultima_deteccion_utc": "2026-09-07 13:08:00",
        "sensores": "VIIRS_NOAA20_NRT",
        "satellites": "N20",
        "instruments": "VIIRS",
        "popup_label": "<strong>ALERT-20260908-086<\/strong><br>Nivel: informativa<br>Focos: 1<br>Últimas 6 h: 0<br>FRP total: 3.3 MW<br>Última detección UTC: 2026-09-07 13:08:00"
      }
    },
    {
      "type": "Feature",
      "geometry": {
        "type": "Point",
        "coordinates": [-2.2186, 43.0406]
      },
      "properties": {
        "cluster_id": "ALERT-20260908-087",
        "alerta_operativa": "informativa",
        "score": 3.9,
        "n_focos": 2,
        "n_ultimas_6h": 0,
        "n_ultimas_24h": 0,
        "frp_total_mw": 1.6,
        "frp_max_mw": 0.9,
        "edad_min_h": 37,
        "ultima_deteccion_utc": "2026-09-07 01:45:00",
        "sensores": "VIIRS_NOAA20_NRT, VIIRS_SNPP_NRT",
        "satellites": "N, N20",
        "instruments": "VIIRS",
        "popup_label": "<strong>ALERT-20260908-087<\/strong><br>Nivel: informativa<br>Focos: 2<br>Últimas 6 h: 0<br>FRP total: 1.6 MW<br>Última detección UTC: 2026-09-07 01:45:00"
      }
    },
    {
      "type": "Feature",
      "geometry": {
        "type": "Point",
        "coordinates": [2.232, 42.9752]
      },
      "properties": {
        "cluster_id": "ALERT-20260908-088",
        "alerta_operativa": "informativa",
        "score": 3.8,
        "n_focos": 1,
        "n_ultimas_6h": 0,
        "n_ultimas_24h": 0,
        "frp_total_mw": 3.1,
        "frp_max_mw": 3.1,
        "edad_min_h": 25.9,
        "ultima_deteccion_utc": "2026-09-07 12:51:00",
        "sensores": "VIIRS_SNPP_NRT",
        "satellites": "N",
        "instruments": "VIIRS",
        "popup_label": "<strong>ALERT-20260908-088<\/strong><br>Nivel: informativa<br>Focos: 1<br>Últimas 6 h: 0<br>FRP total: 3.1 MW<br>Última detección UTC: 2026-09-07 12:51:00"
      }
    },
    {
      "type": "Feature",
      "geometry": {
        "type": "Point",
        "coordinates": [2.7414, 42.8015]
      },
      "properties": {
        "cluster_id": "ALERT-20260908-089",
        "alerta_operativa": "informativa",
        "score": 3.4,
        "n_focos": 1,
        "n_ultimas_6h": 0,
        "n_ultimas_24h": 0,
        "frp_total_mw": 2.3,
        "frp_max_mw": 2.3,
        "edad_min_h": 25.9,
        "ultima_deteccion_utc": "2026-09-07 12:51:00",
        "sensores": "VIIRS_SNPP_NRT",
        "satellites": "N",
        "instruments": "VIIRS",
        "popup_label": "<strong>ALERT-20260908-089<\/strong><br>Nivel: informativa<br>Focos: 1<br>Últimas 6 h: 0<br>FRP total: 2.3 MW<br>Última detección UTC: 2026-09-07 12:51:00"
      }
    },
    {
      "type": "Feature",
      "geometry": {
        "type": "Point",
        "coordinates": [1.1494, 43.2707]
      },
      "properties": {
        "cluster_id": "ALERT-20260908-090",
        "alerta_operativa": "informativa",
        "score": 3.3,
        "n_focos": 1,
        "n_ultimas_6h": 0,
        "n_ultimas_24h": 0,
        "frp_total_mw": 2.2,
        "frp_max_mw": 2.2,
        "edad_min_h": 25.9,
        "ultima_deteccion_utc": "2026-09-07 12:51:00",
        "sensores": "VIIRS_SNPP_NRT",
        "satellites": "N",
        "instruments": "VIIRS",
        "popup_label": "<strong>ALERT-20260908-090<\/strong><br>Nivel: informativa<br>Focos: 1<br>Últimas 6 h: 0<br>FRP total: 2.2 MW<br>Última detección UTC: 2026-09-07 12:51:00"
      }
    },
    {
      "type": "Feature",
      "geometry": {
        "type": "Point",
        "coordinates": [-7.2716, 33.3323]
      },
      "properties": {
        "cluster_id": "ALERT-20260908-091",
        "alerta_operativa": "informativa",
        "score": 3.3,
        "n_focos": 1,
        "n_ultimas_6h": 0,
        "n_ultimas_24h": 0,
        "frp_total_mw": 2.1,
        "frp_max_mw": 2.1,
        "edad_min_h": 24.3,
        "ultima_deteccion_utc": "2026-09-07 14:27:00",
        "sensores": "VIIRS_SNPP_NRT",
        "satellites": "N",
        "instruments": "VIIRS",
        "popup_label": "<strong>ALERT-20260908-091<\/strong><br>Nivel: informativa<br>Focos: 1<br>Últimas 6 h: 0<br>FRP total: 2.1 MW<br>Última detección UTC: 2026-09-07 14:27:00"
      }
    },
    {
      "type": "Feature",
      "geometry": {
        "type": "Point",
        "coordinates": [4.9656, 43.9367]
      },
      "properties": {
        "cluster_id": "ALERT-20260908-092",
        "alerta_operativa": "informativa",
        "score": 3.3,
        "n_focos": 1,
        "n_ultimas_6h": 0,
        "n_ultimas_24h": 0,
        "frp_total_mw": 2.1,
        "frp_max_mw": 2.1,
        "edad_min_h": 25.9,
        "ultima_deteccion_utc": "2026-09-07 12:51:00",
        "sensores": "VIIRS_SNPP_NRT",
        "satellites": "N",
        "instruments": "VIIRS",
        "popup_label": "<strong>ALERT-20260908-092<\/strong><br>Nivel: informativa<br>Focos: 1<br>Últimas 6 h: 0<br>FRP total: 2.1 MW<br>Última detección UTC: 2026-09-07 12:51:00"
      }
    },
    {
      "type": "Feature",
      "geometry": {
        "type": "Point",
        "coordinates": [-0.0083, 43.2902]
      },
      "properties": {
        "cluster_id": "ALERT-20260908-093",
        "alerta_operativa": "informativa",
        "score": 3.2,
        "n_focos": 1,
        "n_ultimas_6h": 0,
        "n_ultimas_24h": 0,
        "frp_total_mw": 2,
        "frp_max_mw": 2,
        "edad_min_h": 25.9,
        "ultima_deteccion_utc": "2026-09-07 12:51:00",
        "sensores": "VIIRS_SNPP_NRT",
        "satellites": "N",
        "instruments": "VIIRS",
        "popup_label": "<strong>ALERT-20260908-093<\/strong><br>Nivel: informativa<br>Focos: 1<br>Últimas 6 h: 0<br>FRP total: 2 MW<br>Última detección UTC: 2026-09-07 12:51:00"
      }
    },
    {
      "type": "Feature",
      "geometry": {
        "type": "Point",
        "coordinates": [-7.1535, 33.4639]
      },
      "properties": {
        "cluster_id": "ALERT-20260908-094",
        "alerta_operativa": "informativa",
        "score": 3.2,
        "n_focos": 1,
        "n_ultimas_6h": 0,
        "n_ultimas_24h": 0,
        "frp_total_mw": 2,
        "frp_max_mw": 2,
        "edad_min_h": 25.6,
        "ultima_deteccion_utc": "2026-09-07 13:08:00",
        "sensores": "VIIRS_NOAA20_NRT",
        "satellites": "N20",
        "instruments": "VIIRS",
        "popup_label": "<strong>ALERT-20260908-094<\/strong><br>Nivel: informativa<br>Focos: 1<br>Últimas 6 h: 0<br>FRP total: 2 MW<br>Última detección UTC: 2026-09-07 13:08:00"
      }
    },
    {
      "type": "Feature",
      "geometry": {
        "type": "Point",
        "coordinates": [-4.1693, 40.1561]
      },
      "properties": {
        "cluster_id": "ALERT-20260908-095",
        "alerta_operativa": "informativa",
        "score": 3.2,
        "n_focos": 1,
        "n_ultimas_6h": 0,
        "n_ultimas_24h": 0,
        "frp_total_mw": 2,
        "frp_max_mw": 2,
        "edad_min_h": 35.3,
        "ultima_deteccion_utc": "2026-09-07 03:28:00",
        "sensores": "VIIRS_NOAA20_NRT",
        "satellites": "N20",
        "instruments": "VIIRS",
        "popup_label": "<strong>ALERT-20260908-095<\/strong><br>Nivel: informativa<br>Focos: 1<br>Últimas 6 h: 0<br>FRP total: 2 MW<br>Última detección UTC: 2026-09-07 03:28:00"
      }
    },
    {
      "type": "Feature",
      "geometry": {
        "type": "Point",
        "coordinates": [1.2566, 41.3163]
      },
      "properties": {
        "cluster_id": "ALERT-20260908-096",
        "alerta_operativa": "informativa",
        "score": 3,
        "n_focos": 1,
        "n_ultimas_6h": 0,
        "n_ultimas_24h": 0,
        "frp_total_mw": 1.7,
        "frp_max_mw": 1.7,
        "edad_min_h": 25.9,
        "ultima_deteccion_utc": "2026-09-07 12:51:00",
        "sensores": "VIIRS_SNPP_NRT",
        "satellites": "N",
        "instruments": "VIIRS",
        "popup_label": "<strong>ALERT-20260908-096<\/strong><br>Nivel: informativa<br>Focos: 1<br>Últimas 6 h: 0<br>FRP total: 1.7 MW<br>Última detección UTC: 2026-09-07 12:51:00"
      }
    },
    {
      "type": "Feature",
      "geometry": {
        "type": "Point",
        "coordinates": [1.611, 41.248]
      },
      "properties": {
        "cluster_id": "ALERT-20260908-097",
        "alerta_operativa": "informativa",
        "score": 2.9,
        "n_focos": 1,
        "n_ultimas_6h": 0,
        "n_ultimas_24h": 0,
        "frp_total_mw": 1.6,
        "frp_max_mw": 1.6,
        "edad_min_h": 25.9,
        "ultima_deteccion_utc": "2026-09-07 12:51:00",
        "sensores": "VIIRS_SNPP_NRT",
        "satellites": "N",
        "instruments": "VIIRS",
        "popup_label": "<strong>ALERT-20260908-097<\/strong><br>Nivel: informativa<br>Focos: 1<br>Últimas 6 h: 0<br>FRP total: 1.6 MW<br>Última detección UTC: 2026-09-07 12:51:00"
      }
    },
    {
      "type": "Feature",
      "geometry": {
        "type": "Point",
        "coordinates": [-9.2547, 38.7779]
      },
      "properties": {
        "cluster_id": "ALERT-20260908-098",
        "alerta_operativa": "informativa",
        "score": 2.8,
        "n_focos": 1,
        "n_ultimas_6h": 0,
        "n_ultimas_24h": 0,
        "frp_total_mw": 1.5,
        "frp_max_mw": 1.5,
        "edad_min_h": 25.6,
        "ultima_deteccion_utc": "2026-09-07 13:10:00",
        "sensores": "VIIRS_NOAA20_NRT",
        "satellites": "N20",
        "instruments": "VIIRS",
        "popup_label": "<strong>ALERT-20260908-098<\/strong><br>Nivel: informativa<br>Focos: 1<br>Últimas 6 h: 0<br>FRP total: 1.5 MW<br>Última detección UTC: 2026-09-07 13:10:00"
      }
    },
    {
      "type": "Feature",
      "geometry": {
        "type": "Point",
        "coordinates": [-3.8844, 39.6486]
      },
      "properties": {
        "cluster_id": "ALERT-20260908-099",
        "alerta_operativa": "informativa",
        "score": 2.8,
        "n_focos": 1,
        "n_ultimas_6h": 0,
        "n_ultimas_24h": 0,
        "frp_total_mw": 1.4,
        "frp_max_mw": 1.4,
        "edad_min_h": 25.6,
        "ultima_deteccion_utc": "2026-09-07 13:10:00",
        "sensores": "VIIRS_NOAA20_NRT",
        "satellites": "N20",
        "instruments": "VIIRS",
        "popup_label": "<strong>ALERT-20260908-099<\/strong><br>Nivel: informativa<br>Focos: 1<br>Últimas 6 h: 0<br>FRP total: 1.4 MW<br>Última detección UTC: 2026-09-07 13:10:00"
      }
    },
    {
      "type": "Feature",
      "geometry": {
        "type": "Point",
        "coordinates": [-1.9128, 38.0153]
      },
      "properties": {
        "cluster_id": "ALERT-20260908-100",
        "alerta_operativa": "informativa",
        "score": 2.8,
        "n_focos": 1,
        "n_ultimas_6h": 0,
        "n_ultimas_24h": 0,
        "frp_total_mw": 1.4,
        "frp_max_mw": 1.4,
        "edad_min_h": 25.6,
        "ultima_deteccion_utc": "2026-09-07 13:08:00",
        "sensores": "VIIRS_NOAA20_NRT",
        "satellites": "N20",
        "instruments": "VIIRS",
        "popup_label": "<strong>ALERT-20260908-100<\/strong><br>Nivel: informativa<br>Focos: 1<br>Últimas 6 h: 0<br>FRP total: 1.4 MW<br>Última detección UTC: 2026-09-07 13:08:00"
      }
    },
    {
      "type": "Feature",
      "geometry": {
        "type": "Point",
        "coordinates": [0.1255, 36.0183]
      },
      "properties": {
        "cluster_id": "ALERT-20260908-101",
        "alerta_operativa": "informativa",
        "score": 2.8,
        "n_focos": 1,
        "n_ultimas_6h": 0,
        "n_ultimas_24h": 0,
        "frp_total_mw": 1.4,
        "frp_max_mw": 1.4,
        "edad_min_h": 36.9,
        "ultima_deteccion_utc": "2026-09-07 01:47:00",
        "sensores": "VIIRS_NOAA20_NRT",
        "satellites": "N20",
        "instruments": "VIIRS",
        "popup_label": "<strong>ALERT-20260908-101<\/strong><br>Nivel: informativa<br>Focos: 1<br>Últimas 6 h: 0<br>FRP total: 1.4 MW<br>Última detección UTC: 2026-09-07 01:47:00"
      }
    },
    {
      "type": "Feature",
      "geometry": {
        "type": "Point",
        "coordinates": [-1.4866, 41.4748]
      },
      "properties": {
        "cluster_id": "ALERT-20260908-102",
        "alerta_operativa": "informativa",
        "score": 2.8,
        "n_focos": 1,
        "n_ultimas_6h": 0,
        "n_ultimas_24h": 0,
        "frp_total_mw": 1.4,
        "frp_max_mw": 1.4,
        "edad_min_h": 37,
        "ultima_deteccion_utc": "2026-09-07 01:45:00",
        "sensores": "VIIRS_NOAA20_NRT",
        "satellites": "N20",
        "instruments": "VIIRS",
        "popup_label": "<strong>ALERT-20260908-102<\/strong><br>Nivel: informativa<br>Focos: 1<br>Últimas 6 h: 0<br>FRP total: 1.4 MW<br>Última detección UTC: 2026-09-07 01:45:00"
      }
    },
    {
      "type": "Feature",
      "geometry": {
        "type": "Point",
        "coordinates": [0.4599, 44.3778]
      },
      "properties": {
        "cluster_id": "ALERT-20260908-103",
        "alerta_operativa": "informativa",
        "score": 2.7,
        "n_focos": 1,
        "n_ultimas_6h": 0,
        "n_ultimas_24h": 0,
        "frp_total_mw": 1.3,
        "frp_max_mw": 1.3,
        "edad_min_h": 25.8,
        "ultima_deteccion_utc": "2026-09-07 12:53:00",
        "sensores": "VIIRS_SNPP_NRT",
        "satellites": "N",
        "instruments": "VIIRS",
        "popup_label": "<strong>ALERT-20260908-103<\/strong><br>Nivel: informativa<br>Focos: 1<br>Últimas 6 h: 0<br>FRP total: 1.3 MW<br>Última detección UTC: 2026-09-07 12:53:00"
      }
    },
    {
      "type": "Feature",
      "geometry": {
        "type": "Point",
        "coordinates": [0.3285, 34.8004]
      },
      "properties": {
        "cluster_id": "ALERT-20260908-104",
        "alerta_operativa": "informativa",
        "score": 2.5,
        "n_focos": 1,
        "n_ultimas_6h": 0,
        "n_ultimas_24h": 0,
        "frp_total_mw": 1.1,
        "frp_max_mw": 1.1,
        "edad_min_h": 36.9,
        "ultima_deteccion_utc": "2026-09-07 01:47:00",
        "sensores": "VIIRS_NOAA20_NRT",
        "satellites": "N20",
        "instruments": "VIIRS",
        "popup_label": "<strong>ALERT-20260908-104<\/strong><br>Nivel: informativa<br>Focos: 1<br>Últimas 6 h: 0<br>FRP total: 1.1 MW<br>Última detección UTC: 2026-09-07 01:47:00"
      }
    },
    {
      "type": "Feature",
      "geometry": {
        "type": "Point",
        "coordinates": [2.0912, 41.3384]
      },
      "properties": {
        "cluster_id": "ALERT-20260908-105",
        "alerta_operativa": "informativa",
        "score": 1.9,
        "n_focos": 1,
        "n_ultimas_6h": 0,
        "n_ultimas_24h": 0,
        "frp_total_mw": 0.6,
        "frp_max_mw": 0.6,
        "edad_min_h": 25.9,
        "ultima_deteccion_utc": "2026-09-07 12:51:00",
        "sensores": "VIIRS_SNPP_NRT",
        "satellites": "N",
        "instruments": "VIIRS",
        "popup_label": "<strong>ALERT-20260908-105<\/strong><br>Nivel: informativa<br>Focos: 1<br>Últimas 6 h: 0<br>FRP total: 0.6 MW<br>Última detección UTC: 2026-09-07 12:51:00"
      }
    },
    {
      "type": "Feature",
      "geometry": {
        "type": "Point",
        "coordinates": [-2.7699, 36.7483]
      },
      "properties": {
        "cluster_id": "ALERT-20260908-106",
        "alerta_operativa": "informativa",
        "score": 1.8,
        "n_focos": 1,
        "n_ultimas_6h": 0,
        "n_ultimas_24h": 0,
        "frp_total_mw": 0.5,
        "frp_max_mw": 0.5,
        "edad_min_h": 35.6,
        "ultima_deteccion_utc": "2026-09-07 03:08:00",
        "sensores": "VIIRS_SNPP_NRT",
        "satellites": "N",
        "instruments": "VIIRS",
        "popup_label": "<strong>ALERT-20260908-106<\/strong><br>Nivel: informativa<br>Focos: 1<br>Últimas 6 h: 0<br>FRP total: 0.5 MW<br>Última detección UTC: 2026-09-07 03:08:00"
      }
    },
    {
      "type": "Feature",
      "geometry": {
        "type": "Point",
        "coordinates": [-1.5112, 42.9223]
      },
      "properties": {
        "cluster_id": "ALERT-20260908-107",
        "alerta_operativa": "informativa",
        "score": 1.7,
        "n_focos": 1,
        "n_ultimas_6h": 0,
        "n_ultimas_24h": 0,
        "frp_total_mw": 0.4,
        "frp_max_mw": 0.4,
        "edad_min_h": 35.6,
        "ultima_deteccion_utc": "2026-09-07 03:08:00",
        "sensores": "VIIRS_SNPP_NRT",
        "satellites": "N",
        "instruments": "VIIRS",
        "popup_label": "<strong>ALERT-20260908-107<\/strong><br>Nivel: informativa<br>Focos: 1<br>Últimas 6 h: 0<br>FRP total: 0.4 MW<br>Última detección UTC: 2026-09-07 03:08:00"
      }
    }
  ]
}
