{
  "type": "FeatureCollection",
  "features": [
    {
      "type": "Feature",
      "geometry": {
        "type": "Point",
        "coordinates": [-0.2531, 35.799]
      },
      "properties": {
        "cluster_id": "ALERT-20261004-001",
        "alerta_operativa": "media",
        "score": 104.9,
        "n_focos": 45,
        "n_ultimas_6h": 0,
        "n_ultimas_24h": 25,
        "frp_total_mw": 139.3,
        "frp_max_mw": 10,
        "edad_min_h": 8.7,
        "ultima_deteccion_utc": "2026-10-04 13:01:00",
        "sensores": "VIIRS_NOAA20_NRT, VIIRS_SNPP_NRT",
        "satellites": "N, N20",
        "instruments": "VIIRS",
        "popup_label": "<strong>ALERT-20261004-001<\/strong><br>Nivel: media<br>Focos: 45<br>Últimas 6 h: 0<br>FRP total: 139.3 MW<br>Última detección UTC: 2026-10-04 13:01:00"
      }
    },
    {
      "type": "Feature",
      "geometry": {
        "type": "Point",
        "coordinates": [3.2226, 32.8981]
      },
      "properties": {
        "cluster_id": "ALERT-20261004-002",
        "alerta_operativa": "media",
        "score": 103.9,
        "n_focos": 39,
        "n_ultimas_6h": 0,
        "n_ultimas_24h": 29,
        "frp_total_mw": 31,
        "frp_max_mw": 4.2,
        "edad_min_h": 20,
        "ultima_deteccion_utc": "2026-10-04 01:43:00",
        "sensores": "VIIRS_NOAA20_NRT, VIIRS_SNPP_NRT",
        "satellites": "N, N20",
        "instruments": "VIIRS",
        "popup_label": "<strong>ALERT-20261004-002<\/strong><br>Nivel: media<br>Focos: 39<br>Últimas 6 h: 0<br>FRP total: 31 MW<br>Última detección UTC: 2026-10-04 01:43:00"
      }
    },
    {
      "type": "Feature",
      "geometry": {
        "type": "Point",
        "coordinates": [4.8952, 43.4397]
      },
      "properties": {
        "cluster_id": "ALERT-20261004-003",
        "alerta_operativa": "media",
        "score": 103.3,
        "n_focos": 39,
        "n_ultimas_6h": 0,
        "n_ultimas_24h": 28,
        "frp_total_mw": 61.1,
        "frp_max_mw": 4.2,
        "edad_min_h": 18.7,
        "ultima_deteccion_utc": "2026-10-04 03:00:00",
        "sensores": "VIIRS_NOAA20_NRT, VIIRS_SNPP_NRT",
        "satellites": "N, N20",
        "instruments": "VIIRS",
        "popup_label": "<strong>ALERT-20261004-003<\/strong><br>Nivel: media<br>Focos: 39<br>Últimas 6 h: 0<br>FRP total: 61.1 MW<br>Última detección UTC: 2026-10-04 03:00:00"
      }
    },
    {
      "type": "Feature",
      "geometry": {
        "type": "Point",
        "coordinates": [3.3285, 33.1229]
      },
      "properties": {
        "cluster_id": "ALERT-20261004-004",
        "alerta_operativa": "media",
        "score": 48.1,
        "n_focos": 15,
        "n_ultimas_6h": 0,
        "n_ultimas_24h": 13,
        "frp_total_mw": 34.4,
        "frp_max_mw": 13.2,
        "edad_min_h": 8.7,
        "ultima_deteccion_utc": "2026-10-04 13:01:00",
        "sensores": "VIIRS_NOAA20_NRT, VIIRS_SNPP_NRT",
        "satellites": "N, N20",
        "instruments": "VIIRS",
        "popup_label": "<strong>ALERT-20261004-004<\/strong><br>Nivel: media<br>Focos: 15<br>Últimas 6 h: 0<br>FRP total: 34.4 MW<br>Última detección UTC: 2026-10-04 13:01:00"
      }
    },
    {
      "type": "Feature",
      "geometry": {
        "type": "Point",
        "coordinates": [3.9876, 32.277]
      },
      "properties": {
        "cluster_id": "ALERT-20261004-005",
        "alerta_operativa": "media",
        "score": 35.7,
        "n_focos": 16,
        "n_ultimas_6h": 0,
        "n_ultimas_24h": 6,
        "frp_total_mw": 46,
        "frp_max_mw": 8.9,
        "edad_min_h": 8.7,
        "ultima_deteccion_utc": "2026-10-04 13:01:00",
        "sensores": "VIIRS_NOAA20_NRT, VIIRS_SNPP_NRT",
        "satellites": "N, N20",
        "instruments": "VIIRS",
        "popup_label": "<strong>ALERT-20261004-005<\/strong><br>Nivel: media<br>Focos: 16<br>Últimas 6 h: 0<br>FRP total: 46 MW<br>Última detección UTC: 2026-10-04 13:01:00"
      }
    },
    {
      "type": "Feature",
      "geometry": {
        "type": "Point",
        "coordinates": [3.1685, 32.5546]
      },
      "properties": {
        "cluster_id": "ALERT-20261004-006",
        "alerta_operativa": "media",
        "score": 35.6,
        "n_focos": 14,
        "n_ultimas_6h": 0,
        "n_ultimas_24h": 7,
        "frp_total_mw": 44.4,
        "frp_max_mw": 6.3,
        "edad_min_h": 8.7,
        "ultima_deteccion_utc": "2026-10-04 13:01:00",
        "sensores": "VIIRS_NOAA20_NRT, VIIRS_SNPP_NRT",
        "satellites": "N, N20",
        "instruments": "VIIRS",
        "popup_label": "<strong>ALERT-20261004-006<\/strong><br>Nivel: media<br>Focos: 14<br>Últimas 6 h: 0<br>FRP total: 44.4 MW<br>Última detección UTC: 2026-10-04 13:01:00"
      }
    },
    {
      "type": "Feature",
      "geometry": {
        "type": "Point",
        "coordinates": [-0.5172, 28.2006]
      },
      "properties": {
        "cluster_id": "ALERT-20261004-007",
        "alerta_operativa": "media",
        "score": 26.7,
        "n_focos": 10,
        "n_ultimas_6h": 0,
        "n_ultimas_24h": 5,
        "frp_total_mw": 27.9,
        "frp_max_mw": 5.6,
        "edad_min_h": 8.8,
        "ultima_deteccion_utc": "2026-10-04 12:59:00",
        "sensores": "VIIRS_NOAA20_NRT, VIIRS_SNPP_NRT",
        "satellites": "N, N20",
        "instruments": "VIIRS",
        "popup_label": "<strong>ALERT-20261004-007<\/strong><br>Nivel: media<br>Focos: 10<br>Últimas 6 h: 0<br>FRP total: 27.9 MW<br>Última detección UTC: 2026-10-04 12:59:00"
      }
    },
    {
      "type": "Feature",
      "geometry": {
        "type": "Point",
        "coordinates": [1.2415, 36.1276]
      },
      "properties": {
        "cluster_id": "ALERT-20261004-008",
        "alerta_operativa": "media",
        "score": 23.1,
        "n_focos": 8,
        "n_ultimas_6h": 0,
        "n_ultimas_24h": 5,
        "frp_total_mw": 11.9,
        "frp_max_mw": 2.5,
        "edad_min_h": 8.7,
        "ultima_deteccion_utc": "2026-10-04 13:01:00",
        "sensores": "VIIRS_NOAA20_NRT, VIIRS_SNPP_NRT",
        "satellites": "N, N20",
        "instruments": "VIIRS",
        "popup_label": "<strong>ALERT-20261004-008<\/strong><br>Nivel: media<br>Focos: 8<br>Últimas 6 h: 0<br>FRP total: 11.9 MW<br>Última detección UTC: 2026-10-04 13:01:00"
      }
    },
    {
      "type": "Feature",
      "geometry": {
        "type": "Point",
        "coordinates": [0.2362, 27.8236]
      },
      "properties": {
        "cluster_id": "ALERT-20261004-009",
        "alerta_operativa": "media",
        "score": 22.5,
        "n_focos": 9,
        "n_ultimas_6h": 0,
        "n_ultimas_24h": 3,
        "frp_total_mw": 42,
        "frp_max_mw": 8.7,
        "edad_min_h": 20,
        "ultima_deteccion_utc": "2026-10-04 01:43:00",
        "sensores": "VIIRS_NOAA20_NRT, VIIRS_SNPP_NRT",
        "satellites": "N, N20",
        "instruments": "VIIRS",
        "popup_label": "<strong>ALERT-20261004-009<\/strong><br>Nivel: media<br>Focos: 9<br>Últimas 6 h: 0<br>FRP total: 42 MW<br>Última detección UTC: 2026-10-04 01:43:00"
      }
    },
    {
      "type": "Feature",
      "geometry": {
        "type": "Point",
        "coordinates": [3.0608, 36.636]
      },
      "properties": {
        "cluster_id": "ALERT-20261004-010",
        "alerta_operativa": "media",
        "score": 22.3,
        "n_focos": 8,
        "n_ultimas_6h": 0,
        "n_ultimas_24h": 4,
        "frp_total_mw": 21.9,
        "frp_max_mw": 3.6,
        "edad_min_h": 8.7,
        "ultima_deteccion_utc": "2026-10-04 13:01:00",
        "sensores": "VIIRS_NOAA20_NRT, VIIRS_SNPP_NRT",
        "satellites": "N, N20",
        "instruments": "VIIRS",
        "popup_label": "<strong>ALERT-20261004-010<\/strong><br>Nivel: media<br>Focos: 8<br>Últimas 6 h: 0<br>FRP total: 21.9 MW<br>Última detección UTC: 2026-10-04 13:01:00"
      }
    },
    {
      "type": "Feature",
      "geometry": {
        "type": "Point",
        "coordinates": [1.0971, 35.4186]
      },
      "properties": {
        "cluster_id": "ALERT-20261004-011",
        "alerta_operativa": "media",
        "score": 18.4,
        "n_focos": 3,
        "n_ultimas_6h": 0,
        "n_ultimas_24h": 3,
        "frp_total_mw": 107.1,
        "frp_max_mw": 35.7,
        "edad_min_h": 9,
        "ultima_deteccion_utc": "2026-10-04 12:44:00",
        "sensores": "VIIRS_SNPP_NRT",
        "satellites": "N",
        "instruments": "VIIRS",
        "popup_label": "<strong>ALERT-20261004-011<\/strong><br>Nivel: media<br>Focos: 3<br>Últimas 6 h: 0<br>FRP total: 107.1 MW<br>Última detección UTC: 2026-10-04 12:44:00"
      }
    },
    {
      "type": "Feature",
      "geometry": {
        "type": "Point",
        "coordinates": [-3.4753, 40.2446]
      },
      "properties": {
        "cluster_id": "ALERT-20261004-012",
        "alerta_operativa": "media",
        "score": 18.2,
        "n_focos": 5,
        "n_ultimas_6h": 0,
        "n_ultimas_24h": 4,
        "frp_total_mw": 12.2,
        "frp_max_mw": 3.5,
        "edad_min_h": 20,
        "ultima_deteccion_utc": "2026-10-04 01:43:00",
        "sensores": "VIIRS_NOAA20_NRT, VIIRS_SNPP_NRT",
        "satellites": "N, N20",
        "instruments": "VIIRS",
        "popup_label": "<strong>ALERT-20261004-012<\/strong><br>Nivel: media<br>Focos: 5<br>Últimas 6 h: 0<br>FRP total: 12.2 MW<br>Última detección UTC: 2026-10-04 01:43:00"
      }
    },
    {
      "type": "Feature",
      "geometry": {
        "type": "Point",
        "coordinates": [-0.1592, 28.2116]
      },
      "properties": {
        "cluster_id": "ALERT-20261004-013",
        "alerta_operativa": "media",
        "score": 18.1,
        "n_focos": 6,
        "n_ultimas_6h": 0,
        "n_ultimas_24h": 4,
        "frp_total_mw": 6.8,
        "frp_max_mw": 2,
        "edad_min_h": 8.8,
        "ultima_deteccion_utc": "2026-10-04 12:59:00",
        "sensores": "VIIRS_NOAA20_NRT, VIIRS_SNPP_NRT",
        "satellites": "N, N20",
        "instruments": "VIIRS",
        "popup_label": "<strong>ALERT-20261004-013<\/strong><br>Nivel: media<br>Focos: 6<br>Últimas 6 h: 0<br>FRP total: 6.8 MW<br>Última detección UTC: 2026-10-04 12:59:00"
      }
    },
    {
      "type": "Feature",
      "geometry": {
        "type": "Point",
        "coordinates": [0.1256, 36.0174]
      },
      "properties": {
        "cluster_id": "ALERT-20261004-014",
        "alerta_operativa": "media",
        "score": 17,
        "n_focos": 5,
        "n_ultimas_6h": 0,
        "n_ultimas_24h": 4,
        "frp_total_mw": 6.3,
        "frp_max_mw": 2.3,
        "edad_min_h": 9,
        "ultima_deteccion_utc": "2026-10-04 12:44:00",
        "sensores": "VIIRS_NOAA20_NRT, VIIRS_SNPP_NRT",
        "satellites": "N, N20",
        "instruments": "VIIRS",
        "popup_label": "<strong>ALERT-20261004-014<\/strong><br>Nivel: media<br>Focos: 5<br>Últimas 6 h: 0<br>FRP total: 6.3 MW<br>Última detección UTC: 2026-10-04 12:44:00"
      }
    },
    {
      "type": "Feature",
      "geometry": {
        "type": "Point",
        "coordinates": [-0.9391, 35.5668]
      },
      "properties": {
        "cluster_id": "ALERT-20261004-015",
        "alerta_operativa": "media",
        "score": 15.2,
        "n_focos": 6,
        "n_ultimas_6h": 0,
        "n_ultimas_24h": 3,
        "frp_total_mw": 3.9,
        "frp_max_mw": 1.2,
        "edad_min_h": 20.1,
        "ultima_deteccion_utc": "2026-10-04 01:41:00",
        "sensores": "VIIRS_NOAA20_NRT, VIIRS_SNPP_NRT",
        "satellites": "N, N20",
        "instruments": "VIIRS",
        "popup_label": "<strong>ALERT-20261004-015<\/strong><br>Nivel: media<br>Focos: 6<br>Últimas 6 h: 0<br>FRP total: 3.9 MW<br>Última detección UTC: 2026-10-04 01:41:00"
      }
    },
    {
      "type": "Feature",
      "geometry": {
        "type": "Point",
        "coordinates": [-0.3947, 35.4601]
      },
      "properties": {
        "cluster_id": "ALERT-20261004-016",
        "alerta_operativa": "media",
        "score": 14.7,
        "n_focos": 4,
        "n_ultimas_6h": 0,
        "n_ultimas_24h": 4,
        "frp_total_mw": 2.8,
        "frp_max_mw": 1.1,
        "edad_min_h": 18.7,
        "ultima_deteccion_utc": "2026-10-04 03:04:00",
        "sensores": "VIIRS_NOAA20_NRT, VIIRS_SNPP_NRT",
        "satellites": "N, N20",
        "instruments": "VIIRS",
        "popup_label": "<strong>ALERT-20261004-016<\/strong><br>Nivel: media<br>Focos: 4<br>Últimas 6 h: 0<br>FRP total: 2.8 MW<br>Última detección UTC: 2026-10-04 03:04:00"
      }
    },
    {
      "type": "Feature",
      "geometry": {
        "type": "Point",
        "coordinates": [4.4759, 35.708]
      },
      "properties": {
        "cluster_id": "ALERT-20261004-017",
        "alerta_operativa": "media",
        "score": 14.6,
        "n_focos": 5,
        "n_ultimas_6h": 0,
        "n_ultimas_24h": 3,
        "frp_total_mw": 5,
        "frp_max_mw": 1.4,
        "edad_min_h": 20.1,
        "ultima_deteccion_utc": "2026-10-04 01:41:00",
        "sensores": "VIIRS_NOAA20_NRT, VIIRS_SNPP_NRT",
        "satellites": "N, N20",
        "instruments": "VIIRS",
        "popup_label": "<strong>ALERT-20261004-017<\/strong><br>Nivel: media<br>Focos: 5<br>Últimas 6 h: 0<br>FRP total: 5 MW<br>Última detección UTC: 2026-10-04 01:41:00"
      }
    },
    {
      "type": "Feature",
      "geometry": {
        "type": "Point",
        "coordinates": [2.9322, 30.1306]
      },
      "properties": {
        "cluster_id": "ALERT-20261004-018",
        "alerta_operativa": "media",
        "score": 13.8,
        "n_focos": 2,
        "n_ultimas_6h": 0,
        "n_ultimas_24h": 2,
        "frp_total_mw": 49,
        "frp_max_mw": 34.7,
        "edad_min_h": 9,
        "ultima_deteccion_utc": "2026-10-04 12:42:00",
        "sensores": "VIIRS_SNPP_NRT",
        "satellites": "N",
        "instruments": "VIIRS",
        "popup_label": "<strong>ALERT-20261004-018<\/strong><br>Nivel: media<br>Focos: 2<br>Últimas 6 h: 0<br>FRP total: 49 MW<br>Última detección UTC: 2026-10-04 12:42:00"
      }
    },
    {
      "type": "Feature",
      "geometry": {
        "type": "Point",
        "coordinates": [3.3937, 32.843]
      },
      "properties": {
        "cluster_id": "ALERT-20261004-019",
        "alerta_operativa": "media",
        "score": 13.2,
        "n_focos": 4,
        "n_ultimas_6h": 0,
        "n_ultimas_24h": 2,
        "frp_total_mw": 12.4,
        "frp_max_mw": 4,
        "edad_min_h": 8.7,
        "ultima_deteccion_utc": "2026-10-04 13:01:00",
        "sensores": "VIIRS_NOAA20_NRT, VIIRS_SNPP_NRT",
        "satellites": "N, N20",
        "instruments": "VIIRS",
        "popup_label": "<strong>ALERT-20261004-019<\/strong><br>Nivel: media<br>Focos: 4<br>Últimas 6 h: 0<br>FRP total: 12.4 MW<br>Última detección UTC: 2026-10-04 13:01:00"
      }
    },
    {
      "type": "Feature",
      "geometry": {
        "type": "Point",
        "coordinates": [-0.5449, 38.3779]
      },
      "properties": {
        "cluster_id": "ALERT-20261004-020",
        "alerta_operativa": "media",
        "score": 12.5,
        "n_focos": 4,
        "n_ultimas_6h": 0,
        "n_ultimas_24h": 3,
        "frp_total_mw": 2.5,
        "frp_max_mw": 1,
        "edad_min_h": 18.7,
        "ultima_deteccion_utc": "2026-10-04 03:02:00",
        "sensores": "VIIRS_NOAA20_NRT, VIIRS_SNPP_NRT",
        "satellites": "N, N20",
        "instruments": "VIIRS",
        "popup_label": "<strong>ALERT-20261004-020<\/strong><br>Nivel: media<br>Focos: 4<br>Últimas 6 h: 0<br>FRP total: 2.5 MW<br>Última detección UTC: 2026-10-04 03:02:00"
      }
    },
    {
      "type": "Feature",
      "geometry": {
        "type": "Point",
        "coordinates": [-6.9738, 43.0005]
      },
      "properties": {
        "cluster_id": "ALERT-20261004-021",
        "alerta_operativa": "media",
        "score": 11.2,
        "n_focos": 3,
        "n_ultimas_6h": 0,
        "n_ultimas_24h": 0,
        "frp_total_mw": 60.3,
        "frp_max_mw": 23.8,
        "edad_min_h": 32.3,
        "ultima_deteccion_utc": "2026-10-03 13:25:00",
        "sensores": "VIIRS_NOAA20_NRT, VIIRS_SNPP_NRT",
        "satellites": "N, N20",
        "instruments": "VIIRS",
        "popup_label": "<strong>ALERT-20261004-021<\/strong><br>Nivel: media<br>Focos: 3<br>Últimas 6 h: 0<br>FRP total: 60.3 MW<br>Última detección UTC: 2026-10-03 13:25:00"
      }
    },
    {
      "type": "Feature",
      "geometry": {
        "type": "Point",
        "coordinates": [4.0053, 32.4013]
      },
      "properties": {
        "cluster_id": "ALERT-20261004-022",
        "alerta_operativa": "media",
        "score": 11.1,
        "n_focos": 4,
        "n_ultimas_6h": 0,
        "n_ultimas_24h": 2,
        "frp_total_mw": 3.6,
        "frp_max_mw": 1.4,
        "edad_min_h": 20,
        "ultima_deteccion_utc": "2026-10-04 01:43:00",
        "sensores": "VIIRS_NOAA20_NRT, VIIRS_SNPP_NRT",
        "satellites": "N, N20",
        "instruments": "VIIRS",
        "popup_label": "<strong>ALERT-20261004-022<\/strong><br>Nivel: media<br>Focos: 4<br>Últimas 6 h: 0<br>FRP total: 3.6 MW<br>Última detección UTC: 2026-10-04 01:43:00"
      }
    },
    {
      "type": "Feature",
      "geometry": {
        "type": "Point",
        "coordinates": [3.3669, 39.5765]
      },
      "properties": {
        "cluster_id": "ALERT-20261004-023",
        "alerta_operativa": "media",
        "score": 10.7,
        "n_focos": 2,
        "n_ultimas_6h": 0,
        "n_ultimas_24h": 2,
        "frp_total_mw": 9.3,
        "frp_max_mw": 5.6,
        "edad_min_h": 9,
        "ultima_deteccion_utc": "2026-10-04 12:44:00",
        "sensores": "VIIRS_SNPP_NRT",
        "satellites": "N",
        "instruments": "VIIRS",
        "popup_label": "<strong>ALERT-20261004-023<\/strong><br>Nivel: media<br>Focos: 2<br>Últimas 6 h: 0<br>FRP total: 9.3 MW<br>Última detección UTC: 2026-10-04 12:44:00"
      }
    },
    {
      "type": "Feature",
      "geometry": {
        "type": "Point",
        "coordinates": [-1.3419, 35.3113]
      },
      "properties": {
        "cluster_id": "ALERT-20261004-024",
        "alerta_operativa": "media",
        "score": 10.6,
        "n_focos": 4,
        "n_ultimas_6h": 0,
        "n_ultimas_24h": 2,
        "frp_total_mw": 2.6,
        "frp_max_mw": 1,
        "edad_min_h": 18.7,
        "ultima_deteccion_utc": "2026-10-04 03:04:00",
        "sensores": "VIIRS_NOAA20_NRT, VIIRS_SNPP_NRT",
        "satellites": "N, N20",
        "instruments": "VIIRS",
        "popup_label": "<strong>ALERT-20261004-024<\/strong><br>Nivel: media<br>Focos: 4<br>Últimas 6 h: 0<br>FRP total: 2.6 MW<br>Última detección UTC: 2026-10-04 03:04:00"
      }
    },
    {
      "type": "Feature",
      "geometry": {
        "type": "Point",
        "coordinates": [3.1055, 39.3663]
      },
      "properties": {
        "cluster_id": "ALERT-20261004-025",
        "alerta_operativa": "media",
        "score": 10.4,
        "n_focos": 2,
        "n_ultimas_6h": 0,
        "n_ultimas_24h": 2,
        "frp_total_mw": 8,
        "frp_max_mw": 4.8,
        "edad_min_h": 9,
        "ultima_deteccion_utc": "2026-10-04 12:44:00",
        "sensores": "VIIRS_SNPP_NRT",
        "satellites": "N",
        "instruments": "VIIRS",
        "popup_label": "<strong>ALERT-20261004-025<\/strong><br>Nivel: media<br>Focos: 2<br>Últimas 6 h: 0<br>FRP total: 8 MW<br>Última detección UTC: 2026-10-04 12:44:00"
      }
    },
    {
      "type": "Feature",
      "geometry": {
        "type": "Point",
        "coordinates": [-8.4215, 40.2885]
      },
      "properties": {
        "cluster_id": "ALERT-20261004-026",
        "alerta_operativa": "media",
        "score": 9.7,
        "n_focos": 3,
        "n_ultimas_6h": 0,
        "n_ultimas_24h": 2,
        "frp_total_mw": 2.9,
        "frp_max_mw": 1.1,
        "edad_min_h": 18.4,
        "ultima_deteccion_utc": "2026-10-04 03:21:00",
        "sensores": "VIIRS_NOAA20_NRT",
        "satellites": "N20",
        "instruments": "VIIRS",
        "popup_label": "<strong>ALERT-20261004-026<\/strong><br>Nivel: media<br>Focos: 3<br>Últimas 6 h: 0<br>FRP total: 2.9 MW<br>Última detección UTC: 2026-10-04 03:21:00"
      }
    },
    {
      "type": "Feature",
      "geometry": {
        "type": "Point",
        "coordinates": [4.4474, 35.8778]
      },
      "properties": {
        "cluster_id": "ALERT-20261004-027",
        "alerta_operativa": "media",
        "score": 8.1,
        "n_focos": 2,
        "n_ultimas_6h": 0,
        "n_ultimas_24h": 2,
        "frp_total_mw": 1.9,
        "frp_max_mw": 1.1,
        "edad_min_h": 20.1,
        "ultima_deteccion_utc": "2026-10-04 01:41:00",
        "sensores": "VIIRS_NOAA20_NRT, VIIRS_SNPP_NRT",
        "satellites": "N, N20",
        "instruments": "VIIRS",
        "popup_label": "<strong>ALERT-20261004-027<\/strong><br>Nivel: media<br>Focos: 2<br>Últimas 6 h: 0<br>FRP total: 1.9 MW<br>Última detección UTC: 2026-10-04 01:41:00"
      }
    },
    {
      "type": "Feature",
      "geometry": {
        "type": "Point",
        "coordinates": [-8.436, 43.3471]
      },
      "properties": {
        "cluster_id": "ALERT-20261004-028",
        "alerta_operativa": "media",
        "score": 7.8,
        "n_focos": 2,
        "n_ultimas_6h": 0,
        "n_ultimas_24h": 2,
        "frp_total_mw": 1.5,
        "frp_max_mw": 0.8,
        "edad_min_h": 18.4,
        "ultima_deteccion_utc": "2026-10-04 03:21:00",
        "sensores": "VIIRS_NOAA20_NRT, VIIRS_SNPP_NRT",
        "satellites": "N, N20",
        "instruments": "VIIRS",
        "popup_label": "<strong>ALERT-20261004-028<\/strong><br>Nivel: media<br>Focos: 2<br>Últimas 6 h: 0<br>FRP total: 1.5 MW<br>Última detección UTC: 2026-10-04 03:21:00"
      }
    },
    {
      "type": "Feature",
      "geometry": {
        "type": "Point",
        "coordinates": [-3.745, 39.9369]
      },
      "properties": {
        "cluster_id": "ALERT-20261004-029",
        "alerta_operativa": "media",
        "score": 7.8,
        "n_focos": 2,
        "n_ultimas_6h": 0,
        "n_ultimas_24h": 2,
        "frp_total_mw": 1.5,
        "frp_max_mw": 0.8,
        "edad_min_h": 20,
        "ultima_deteccion_utc": "2026-10-04 01:43:00",
        "sensores": "VIIRS_NOAA20_NRT, VIIRS_SNPP_NRT",
        "satellites": "N, N20",
        "instruments": "VIIRS",
        "popup_label": "<strong>ALERT-20261004-029<\/strong><br>Nivel: media<br>Focos: 2<br>Últimas 6 h: 0<br>FRP total: 1.5 MW<br>Última detección UTC: 2026-10-04 01:43:00"
      }
    },
    {
      "type": "Feature",
      "geometry": {
        "type": "Point",
        "coordinates": [-8.4121, 32.4669]
      },
      "properties": {
        "cluster_id": "ALERT-20261004-030",
        "alerta_operativa": "seguimiento",
        "score": 7.6,
        "n_focos": 1,
        "n_ultimas_6h": 0,
        "n_ultimas_24h": 1,
        "frp_total_mw": 8.8,
        "frp_max_mw": 8.8,
        "edad_min_h": 7.4,
        "ultima_deteccion_utc": "2026-10-04 14:22:00",
        "sensores": "VIIRS_SNPP_NRT",
        "satellites": "N",
        "instruments": "VIIRS",
        "popup_label": "<strong>ALERT-20261004-030<\/strong><br>Nivel: seguimiento<br>Focos: 1<br>Últimas 6 h: 0<br>FRP total: 8.8 MW<br>Última detección UTC: 2026-10-04 14:22:00"
      }
    },
    {
      "type": "Feature",
      "geometry": {
        "type": "Point",
        "coordinates": [4.7255, 36.7218]
      },
      "properties": {
        "cluster_id": "ALERT-20261004-031",
        "alerta_operativa": "seguimiento",
        "score": 6.4,
        "n_focos": 1,
        "n_ultimas_6h": 0,
        "n_ultimas_24h": 1,
        "frp_total_mw": 4.6,
        "frp_max_mw": 4.6,
        "edad_min_h": 8.7,
        "ultima_deteccion_utc": "2026-10-04 13:01:00",
        "sensores": "VIIRS_NOAA20_NRT",
        "satellites": "N20",
        "instruments": "VIIRS",
        "popup_label": "<strong>ALERT-20261004-031<\/strong><br>Nivel: seguimiento<br>Focos: 1<br>Últimas 6 h: 0<br>FRP total: 4.6 MW<br>Última detección UTC: 2026-10-04 13:01:00"
      }
    },
    {
      "type": "Feature",
      "geometry": {
        "type": "Point",
        "coordinates": [3.0448, 36.2716]
      },
      "properties": {
        "cluster_id": "ALERT-20261004-032",
        "alerta_operativa": "seguimiento",
        "score": 6.1,
        "n_focos": 1,
        "n_ultimas_6h": 0,
        "n_ultimas_24h": 1,
        "frp_total_mw": 3.8,
        "frp_max_mw": 3.8,
        "edad_min_h": 9,
        "ultima_deteccion_utc": "2026-10-04 12:44:00",
        "sensores": "VIIRS_SNPP_NRT",
        "satellites": "N",
        "instruments": "VIIRS",
        "popup_label": "<strong>ALERT-20261004-032<\/strong><br>Nivel: seguimiento<br>Focos: 1<br>Últimas 6 h: 0<br>FRP total: 3.8 MW<br>Última detección UTC: 2026-10-04 12:44:00"
      }
    },
    {
      "type": "Feature",
      "geometry": {
        "type": "Point",
        "coordinates": [4.4114, 36.8385]
      },
      "properties": {
        "cluster_id": "ALERT-20261004-033",
        "alerta_operativa": "seguimiento",
        "score": 6,
        "n_focos": 1,
        "n_ultimas_6h": 0,
        "n_ultimas_24h": 1,
        "frp_total_mw": 3.5,
        "frp_max_mw": 3.5,
        "edad_min_h": 9,
        "ultima_deteccion_utc": "2026-10-04 12:44:00",
        "sensores": "VIIRS_SNPP_NRT",
        "satellites": "N",
        "instruments": "VIIRS",
        "popup_label": "<strong>ALERT-20261004-033<\/strong><br>Nivel: seguimiento<br>Focos: 1<br>Últimas 6 h: 0<br>FRP total: 3.5 MW<br>Última detección UTC: 2026-10-04 12:44:00"
      }
    },
    {
      "type": "Feature",
      "geometry": {
        "type": "Point",
        "coordinates": [-0.2766, 35.5316]
      },
      "properties": {
        "cluster_id": "ALERT-20261004-034",
        "alerta_operativa": "seguimiento",
        "score": 5.6,
        "n_focos": 2,
        "n_ultimas_6h": 0,
        "n_ultimas_24h": 1,
        "frp_total_mw": 1.2,
        "frp_max_mw": 0.7,
        "edad_min_h": 20.1,
        "ultima_deteccion_utc": "2026-10-04 01:41:00",
        "sensores": "VIIRS_NOAA20_NRT",
        "satellites": "N20",
        "instruments": "VIIRS",
        "popup_label": "<strong>ALERT-20261004-034<\/strong><br>Nivel: seguimiento<br>Focos: 2<br>Últimas 6 h: 0<br>FRP total: 1.2 MW<br>Última detección UTC: 2026-10-04 01:41:00"
      }
    },
    {
      "type": "Feature",
      "geometry": {
        "type": "Point",
        "coordinates": [-5.2939, 34.9888]
      },
      "properties": {
        "cluster_id": "ALERT-20261004-035",
        "alerta_operativa": "seguimiento",
        "score": 5.4,
        "n_focos": 1,
        "n_ultimas_6h": 0,
        "n_ultimas_24h": 1,
        "frp_total_mw": 2.4,
        "frp_max_mw": 2.4,
        "edad_min_h": 7.3,
        "ultima_deteccion_utc": "2026-10-04 14:25:00",
        "sensores": "VIIRS_SNPP_NRT",
        "satellites": "N",
        "instruments": "VIIRS",
        "popup_label": "<strong>ALERT-20261004-035<\/strong><br>Nivel: seguimiento<br>Focos: 1<br>Últimas 6 h: 0<br>FRP total: 2.4 MW<br>Última detección UTC: 2026-10-04 14:25:00"
      }
    },
    {
      "type": "Feature",
      "geometry": {
        "type": "Point",
        "coordinates": [3.1449, 39.7539]
      },
      "properties": {
        "cluster_id": "ALERT-20261004-036",
        "alerta_operativa": "seguimiento",
        "score": 5.4,
        "n_focos": 1,
        "n_ultimas_6h": 0,
        "n_ultimas_24h": 1,
        "frp_total_mw": 2.4,
        "frp_max_mw": 2.4,
        "edad_min_h": 9,
        "ultima_deteccion_utc": "2026-10-04 12:44:00",
        "sensores": "VIIRS_SNPP_NRT",
        "satellites": "N",
        "instruments": "VIIRS",
        "popup_label": "<strong>ALERT-20261004-036<\/strong><br>Nivel: seguimiento<br>Focos: 1<br>Últimas 6 h: 0<br>FRP total: 2.4 MW<br>Última detección UTC: 2026-10-04 12:44:00"
      }
    },
    {
      "type": "Feature",
      "geometry": {
        "type": "Point",
        "coordinates": [-3.6562, 39.5398]
      },
      "properties": {
        "cluster_id": "ALERT-20261004-037",
        "alerta_operativa": "seguimiento",
        "score": 5.4,
        "n_focos": 1,
        "n_ultimas_6h": 0,
        "n_ultimas_24h": 1,
        "frp_total_mw": 2.3,
        "frp_max_mw": 2.3,
        "edad_min_h": 8.7,
        "ultima_deteccion_utc": "2026-10-04 13:04:00",
        "sensores": "VIIRS_NOAA20_NRT",
        "satellites": "N20",
        "instruments": "VIIRS",
        "popup_label": "<strong>ALERT-20261004-037<\/strong><br>Nivel: seguimiento<br>Focos: 1<br>Últimas 6 h: 0<br>FRP total: 2.3 MW<br>Última detección UTC: 2026-10-04 13:04:00"
      }
    },
    {
      "type": "Feature",
      "geometry": {
        "type": "Point",
        "coordinates": [-1.6868, 38.2601]
      },
      "properties": {
        "cluster_id": "ALERT-20261004-038",
        "alerta_operativa": "seguimiento",
        "score": 5.1,
        "n_focos": 1,
        "n_ultimas_6h": 0,
        "n_ultimas_24h": 1,
        "frp_total_mw": 1.9,
        "frp_max_mw": 1.9,
        "edad_min_h": 8.7,
        "ultima_deteccion_utc": "2026-10-04 13:04:00",
        "sensores": "VIIRS_NOAA20_NRT",
        "satellites": "N20",
        "instruments": "VIIRS",
        "popup_label": "<strong>ALERT-20261004-038<\/strong><br>Nivel: seguimiento<br>Focos: 1<br>Últimas 6 h: 0<br>FRP total: 1.9 MW<br>Última detección UTC: 2026-10-04 13:04:00"
      }
    },
    {
      "type": "Feature",
      "geometry": {
        "type": "Point",
        "coordinates": [0.1795, 41.9214]
      },
      "properties": {
        "cluster_id": "ALERT-20261004-039",
        "alerta_operativa": "seguimiento",
        "score": 4.9,
        "n_focos": 1,
        "n_ultimas_6h": 0,
        "n_ultimas_24h": 1,
        "frp_total_mw": 1.6,
        "frp_max_mw": 1.6,
        "edad_min_h": 8.7,
        "ultima_deteccion_utc": "2026-10-04 13:04:00",
        "sensores": "VIIRS_NOAA20_NRT",
        "satellites": "N20",
        "instruments": "VIIRS",
        "popup_label": "<strong>ALERT-20261004-039<\/strong><br>Nivel: seguimiento<br>Focos: 1<br>Últimas 6 h: 0<br>FRP total: 1.6 MW<br>Última detección UTC: 2026-10-04 13:04:00"
      }
    },
    {
      "type": "Feature",
      "geometry": {
        "type": "Point",
        "coordinates": [2.0572, 34.438]
      },
      "properties": {
        "cluster_id": "ALERT-20261004-040",
        "alerta_operativa": "seguimiento",
        "score": 4.4,
        "n_focos": 1,
        "n_ultimas_6h": 0,
        "n_ultimas_24h": 1,
        "frp_total_mw": 1,
        "frp_max_mw": 1,
        "edad_min_h": 20.1,
        "ultima_deteccion_utc": "2026-10-04 01:41:00",
        "sensores": "VIIRS_NOAA20_NRT",
        "satellites": "N20",
        "instruments": "VIIRS",
        "popup_label": "<strong>ALERT-20261004-040<\/strong><br>Nivel: seguimiento<br>Focos: 1<br>Últimas 6 h: 0<br>FRP total: 1 MW<br>Última detección UTC: 2026-10-04 01:41:00"
      }
    },
    {
      "type": "Feature",
      "geometry": {
        "type": "Point",
        "coordinates": [-0.003, 39.9521]
      },
      "properties": {
        "cluster_id": "ALERT-20261004-041",
        "alerta_operativa": "seguimiento",
        "score": 4.2,
        "n_focos": 1,
        "n_ultimas_6h": 0,
        "n_ultimas_24h": 1,
        "frp_total_mw": 0.8,
        "frp_max_mw": 0.8,
        "edad_min_h": 20.4,
        "ultima_deteccion_utc": "2026-10-04 01:22:00",
        "sensores": "VIIRS_SNPP_NRT",
        "satellites": "N",
        "instruments": "VIIRS",
        "popup_label": "<strong>ALERT-20261004-041<\/strong><br>Nivel: seguimiento<br>Focos: 1<br>Últimas 6 h: 0<br>FRP total: 0.8 MW<br>Última detección UTC: 2026-10-04 01:22:00"
      }
    },
    {
      "type": "Feature",
      "geometry": {
        "type": "Point",
        "coordinates": [-1.9084, 36.9672]
      },
      "properties": {
        "cluster_id": "ALERT-20261004-042",
        "alerta_operativa": "seguimiento",
        "score": 4.2,
        "n_focos": 1,
        "n_ultimas_6h": 0,
        "n_ultimas_24h": 1,
        "frp_total_mw": 0.8,
        "frp_max_mw": 0.8,
        "edad_min_h": 20.1,
        "ultima_deteccion_utc": "2026-10-04 01:41:00",
        "sensores": "VIIRS_NOAA20_NRT",
        "satellites": "N20",
        "instruments": "VIIRS",
        "popup_label": "<strong>ALERT-20261004-042<\/strong><br>Nivel: seguimiento<br>Focos: 1<br>Últimas 6 h: 0<br>FRP total: 0.8 MW<br>Última detección UTC: 2026-10-04 01:41:00"
      }
    },
    {
      "type": "Feature",
      "geometry": {
        "type": "Point",
        "coordinates": [-8.9091, 39.6856]
      },
      "properties": {
        "cluster_id": "ALERT-20261004-043",
        "alerta_operativa": "seguimiento",
        "score": 3.9,
        "n_focos": 1,
        "n_ultimas_6h": 0,
        "n_ultimas_24h": 1,
        "frp_total_mw": 0.6,
        "frp_max_mw": 0.6,
        "edad_min_h": 18.4,
        "ultima_deteccion_utc": "2026-10-04 03:21:00",
        "sensores": "VIIRS_NOAA20_NRT",
        "satellites": "N20",
        "instruments": "VIIRS",
        "popup_label": "<strong>ALERT-20261004-043<\/strong><br>Nivel: seguimiento<br>Focos: 1<br>Últimas 6 h: 0<br>FRP total: 0.6 MW<br>Última detección UTC: 2026-10-04 03:21:00"
      }
    },
    {
      "type": "Feature",
      "geometry": {
        "type": "Point",
        "coordinates": [1.898, 30.9112]
      },
      "properties": {
        "cluster_id": "ALERT-20261004-044",
        "alerta_operativa": "seguimiento",
        "score": 3.9,
        "n_focos": 1,
        "n_ultimas_6h": 0,
        "n_ultimas_24h": 1,
        "frp_total_mw": 0.6,
        "frp_max_mw": 0.6,
        "edad_min_h": 20,
        "ultima_deteccion_utc": "2026-10-04 01:43:00",
        "sensores": "VIIRS_NOAA20_NRT",
        "satellites": "N20",
        "instruments": "VIIRS",
        "popup_label": "<strong>ALERT-20261004-044<\/strong><br>Nivel: seguimiento<br>Focos: 1<br>Últimas 6 h: 0<br>FRP total: 0.6 MW<br>Última detección UTC: 2026-10-04 01:43:00"
      }
    },
    {
      "type": "Feature",
      "geometry": {
        "type": "Point",
        "coordinates": [1.237, 33.3601]
      },
      "properties": {
        "cluster_id": "ALERT-20261004-045",
        "alerta_operativa": "seguimiento",
        "score": 3.8,
        "n_focos": 1,
        "n_ultimas_6h": 0,
        "n_ultimas_24h": 1,
        "frp_total_mw": 0.5,
        "frp_max_mw": 0.5,
        "edad_min_h": 20,
        "ultima_deteccion_utc": "2026-10-04 01:43:00",
        "sensores": "VIIRS_NOAA20_NRT",
        "satellites": "N20",
        "instruments": "VIIRS",
        "popup_label": "<strong>ALERT-20261004-045<\/strong><br>Nivel: seguimiento<br>Focos: 1<br>Últimas 6 h: 0<br>FRP total: 0.5 MW<br>Última detección UTC: 2026-10-04 01:43:00"
      }
    },
    {
      "type": "Feature",
      "geometry": {
        "type": "Point",
        "coordinates": [-7.4639, 40.1875]
      },
      "properties": {
        "cluster_id": "ALERT-20261004-046",
        "alerta_operativa": "informativa",
        "score": 13.7,
        "n_focos": 7,
        "n_ultimas_6h": 0,
        "n_ultimas_24h": 0,
        "frp_total_mw": 27.1,
        "frp_max_mw": 6.8,
        "edad_min_h": 32.4,
        "ultima_deteccion_utc": "2026-10-03 13:23:00",
        "sensores": "VIIRS_NOAA20_NRT",
        "satellites": "N20",
        "instruments": "VIIRS",
        "popup_label": "<strong>ALERT-20261004-046<\/strong><br>Nivel: informativa<br>Focos: 7<br>Últimas 6 h: 0<br>FRP total: 27.1 MW<br>Última detección UTC: 2026-10-03 13:23:00"
      }
    },
    {
      "type": "Feature",
      "geometry": {
        "type": "Point",
        "coordinates": [0.0531, 28.2745]
      },
      "properties": {
        "cluster_id": "ALERT-20261004-047",
        "alerta_operativa": "informativa",
        "score": 11,
        "n_focos": 4,
        "n_ultimas_6h": 0,
        "n_ultimas_24h": 0,
        "frp_total_mw": 32.2,
        "frp_max_mw": 13.2,
        "edad_min_h": 32.4,
        "ultima_deteccion_utc": "2026-10-03 13:21:00",
        "sensores": "VIIRS_NOAA20_NRT, VIIRS_SNPP_NRT",
        "satellites": "N, N20",
        "instruments": "VIIRS",
        "popup_label": "<strong>ALERT-20261004-047<\/strong><br>Nivel: informativa<br>Focos: 4<br>Últimas 6 h: 0<br>FRP total: 32.2 MW<br>Última detección UTC: 2026-10-03 13:21:00"
      }
    },
    {
      "type": "Feature",
      "geometry": {
        "type": "Point",
        "coordinates": [-8.554, 40.8117]
      },
      "properties": {
        "cluster_id": "ALERT-20261004-048",
        "alerta_operativa": "informativa",
        "score": 9.6,
        "n_focos": 4,
        "n_ultimas_6h": 0,
        "n_ultimas_24h": 0,
        "frp_total_mw": 15.4,
        "frp_max_mw": 4.4,
        "edad_min_h": 32.4,
        "ultima_deteccion_utc": "2026-10-03 13:23:00",
        "sensores": "VIIRS_NOAA20_NRT",
        "satellites": "N20",
        "instruments": "VIIRS",
        "popup_label": "<strong>ALERT-20261004-048<\/strong><br>Nivel: informativa<br>Focos: 4<br>Últimas 6 h: 0<br>FRP total: 15.4 MW<br>Última detección UTC: 2026-10-03 13:23:00"
      }
    },
    {
      "type": "Feature",
      "geometry": {
        "type": "Point",
        "coordinates": [-7.0029, 39.6539]
      },
      "properties": {
        "cluster_id": "ALERT-20261004-049",
        "alerta_operativa": "informativa",
        "score": 7.3,
        "n_focos": 2,
        "n_ultimas_6h": 0,
        "n_ultimas_24h": 0,
        "frp_total_mw": 13.2,
        "frp_max_mw": 8.7,
        "edad_min_h": 32.4,
        "ultima_deteccion_utc": "2026-10-03 13:23:00",
        "sensores": "VIIRS_NOAA20_NRT",
        "satellites": "N20",
        "instruments": "VIIRS",
        "popup_label": "<strong>ALERT-20261004-049<\/strong><br>Nivel: informativa<br>Focos: 2<br>Últimas 6 h: 0<br>FRP total: 13.2 MW<br>Última detección UTC: 2026-10-03 13:23:00"
      }
    },
    {
      "type": "Feature",
      "geometry": {
        "type": "Point",
        "coordinates": [-8.7388, 42.2075]
      },
      "properties": {
        "cluster_id": "ALERT-20261004-050",
        "alerta_operativa": "informativa",
        "score": 6.5,
        "n_focos": 2,
        "n_ultimas_6h": 0,
        "n_ultimas_24h": 0,
        "frp_total_mw": 8.6,
        "frp_max_mw": 6.2,
        "edad_min_h": 32.3,
        "ultima_deteccion_utc": "2026-10-03 13:25:00",
        "sensores": "VIIRS_NOAA20_NRT",
        "satellites": "N20",
        "instruments": "VIIRS",
        "popup_label": "<strong>ALERT-20261004-050<\/strong><br>Nivel: informativa<br>Focos: 2<br>Últimas 6 h: 0<br>FRP total: 8.6 MW<br>Última detección UTC: 2026-10-03 13:25:00"
      }
    },
    {
      "type": "Feature",
      "geometry": {
        "type": "Point",
        "coordinates": [1.0167, 35.5401]
      },
      "properties": {
        "cluster_id": "ALERT-20261004-051",
        "alerta_operativa": "informativa",
        "score": 6,
        "n_focos": 1,
        "n_ultimas_6h": 0,
        "n_ultimas_24h": 0,
        "frp_total_mw": 10.9,
        "frp_max_mw": 10.9,
        "edad_min_h": 32.7,
        "ultima_deteccion_utc": "2026-10-03 13:01:00",
        "sensores": "VIIRS_SNPP_NRT",
        "satellites": "N",
        "instruments": "VIIRS",
        "popup_label": "<strong>ALERT-20261004-051<\/strong><br>Nivel: informativa<br>Focos: 1<br>Últimas 6 h: 0<br>FRP total: 10.9 MW<br>Última detección UTC: 2026-10-03 13:01:00"
      }
    },
    {
      "type": "Feature",
      "geometry": {
        "type": "Point",
        "coordinates": [4.4186, 36.4826]
      },
      "properties": {
        "cluster_id": "ALERT-20261004-052",
        "alerta_operativa": "informativa",
        "score": 5.8,
        "n_focos": 1,
        "n_ultimas_6h": 0,
        "n_ultimas_24h": 0,
        "frp_total_mw": 10.1,
        "frp_max_mw": 10.1,
        "edad_min_h": 32.7,
        "ultima_deteccion_utc": "2026-10-03 13:01:00",
        "sensores": "VIIRS_SNPP_NRT",
        "satellites": "N",
        "instruments": "VIIRS",
        "popup_label": "<strong>ALERT-20261004-052<\/strong><br>Nivel: informativa<br>Focos: 1<br>Últimas 6 h: 0<br>FRP total: 10.1 MW<br>Última detección UTC: 2026-10-03 13:01:00"
      }
    },
    {
      "type": "Feature",
      "geometry": {
        "type": "Point",
        "coordinates": [-2.3473, 34.5965]
      },
      "properties": {
        "cluster_id": "ALERT-20261004-053",
        "alerta_operativa": "informativa",
        "score": 5.6,
        "n_focos": 3,
        "n_ultimas_6h": 0,
        "n_ultimas_24h": 0,
        "frp_total_mw": 2.6,
        "frp_max_mw": 1,
        "edad_min_h": 43.7,
        "ultima_deteccion_utc": "2026-10-03 02:02:00",
        "sensores": "VIIRS_NOAA20_NRT, VIIRS_SNPP_NRT",
        "satellites": "N, N20",
        "instruments": "VIIRS",
        "popup_label": "<strong>ALERT-20261004-053<\/strong><br>Nivel: informativa<br>Focos: 3<br>Últimas 6 h: 0<br>FRP total: 2.6 MW<br>Última detección UTC: 2026-10-03 02:02:00"
      }
    },
    {
      "type": "Feature",
      "geometry": {
        "type": "Point",
        "coordinates": [0.0199, 27.5312]
      },
      "properties": {
        "cluster_id": "ALERT-20261004-054",
        "alerta_operativa": "informativa",
        "score": 5.2,
        "n_focos": 1,
        "n_ultimas_6h": 0,
        "n_ultimas_24h": 0,
        "frp_total_mw": 7,
        "frp_max_mw": 7,
        "edad_min_h": 32.4,
        "ultima_deteccion_utc": "2026-10-03 13:21:00",
        "sensores": "VIIRS_NOAA20_NRT",
        "satellites": "N20",
        "instruments": "VIIRS",
        "popup_label": "<strong>ALERT-20261004-054<\/strong><br>Nivel: informativa<br>Focos: 1<br>Últimas 6 h: 0<br>FRP total: 7 MW<br>Última detección UTC: 2026-10-03 13:21:00"
      }
    },
    {
      "type": "Feature",
      "geometry": {
        "type": "Point",
        "coordinates": [-7.4729, 41.0194]
      },
      "properties": {
        "cluster_id": "ALERT-20261004-055",
        "alerta_operativa": "informativa",
        "score": 4.8,
        "n_focos": 1,
        "n_ultimas_6h": 0,
        "n_ultimas_24h": 0,
        "frp_total_mw": 5.8,
        "frp_max_mw": 5.8,
        "edad_min_h": 32.4,
        "ultima_deteccion_utc": "2026-10-03 13:23:00",
        "sensores": "VIIRS_NOAA20_NRT",
        "satellites": "N20",
        "instruments": "VIIRS",
        "popup_label": "<strong>ALERT-20261004-055<\/strong><br>Nivel: informativa<br>Focos: 1<br>Últimas 6 h: 0<br>FRP total: 5.8 MW<br>Última detección UTC: 2026-10-03 13:23:00"
      }
    },
    {
      "type": "Feature",
      "geometry": {
        "type": "Point",
        "coordinates": [-6.2708, 37.3533]
      },
      "properties": {
        "cluster_id": "ALERT-20261004-056",
        "alerta_operativa": "informativa",
        "score": 4.7,
        "n_focos": 1,
        "n_ultimas_6h": 0,
        "n_ultimas_24h": 0,
        "frp_total_mw": 5.4,
        "frp_max_mw": 5.4,
        "edad_min_h": 32.4,
        "ultima_deteccion_utc": "2026-10-03 13:23:00",
        "sensores": "VIIRS_NOAA20_NRT",
        "satellites": "N20",
        "instruments": "VIIRS",
        "popup_label": "<strong>ALERT-20261004-056<\/strong><br>Nivel: informativa<br>Focos: 1<br>Últimas 6 h: 0<br>FRP total: 5.4 MW<br>Última detección UTC: 2026-10-03 13:23:00"
      }
    },
    {
      "type": "Feature",
      "geometry": {
        "type": "Point",
        "coordinates": [-8.3961, 40.548]
      },
      "properties": {
        "cluster_id": "ALERT-20261004-057",
        "alerta_operativa": "informativa",
        "score": 4.5,
        "n_focos": 1,
        "n_ultimas_6h": 0,
        "n_ultimas_24h": 0,
        "frp_total_mw": 4.9,
        "frp_max_mw": 4.9,
        "edad_min_h": 32.4,
        "ultima_deteccion_utc": "2026-10-03 13:23:00",
        "sensores": "VIIRS_NOAA20_NRT",
        "satellites": "N20",
        "instruments": "VIIRS",
        "popup_label": "<strong>ALERT-20261004-057<\/strong><br>Nivel: informativa<br>Focos: 1<br>Últimas 6 h: 0<br>FRP total: 4.9 MW<br>Última detección UTC: 2026-10-03 13:23:00"
      }
    },
    {
      "type": "Feature",
      "geometry": {
        "type": "Point",
        "coordinates": [-1.2207, 35.421]
      },
      "properties": {
        "cluster_id": "ALERT-20261004-058",
        "alerta_operativa": "informativa",
        "score": 4.4,
        "n_focos": 1,
        "n_ultimas_6h": 0,
        "n_ultimas_24h": 0,
        "frp_total_mw": 4.6,
        "frp_max_mw": 4.6,
        "edad_min_h": 32.4,
        "ultima_deteccion_utc": "2026-10-03 13:23:00",
        "sensores": "VIIRS_NOAA20_NRT",
        "satellites": "N20",
        "instruments": "VIIRS",
        "popup_label": "<strong>ALERT-20261004-058<\/strong><br>Nivel: informativa<br>Focos: 1<br>Últimas 6 h: 0<br>FRP total: 4.6 MW<br>Última detección UTC: 2026-10-03 13:23:00"
      }
    },
    {
      "type": "Feature",
      "geometry": {
        "type": "Point",
        "coordinates": [-7.7006, 40.0193]
      },
      "properties": {
        "cluster_id": "ALERT-20261004-059",
        "alerta_operativa": "informativa",
        "score": 4.3,
        "n_focos": 1,
        "n_ultimas_6h": 0,
        "n_ultimas_24h": 0,
        "frp_total_mw": 4.3,
        "frp_max_mw": 4.3,
        "edad_min_h": 32.4,
        "ultima_deteccion_utc": "2026-10-03 13:23:00",
        "sensores": "VIIRS_NOAA20_NRT",
        "satellites": "N20",
        "instruments": "VIIRS",
        "popup_label": "<strong>ALERT-20261004-059<\/strong><br>Nivel: informativa<br>Focos: 1<br>Últimas 6 h: 0<br>FRP total: 4.3 MW<br>Última detección UTC: 2026-10-03 13:23:00"
      }
    },
    {
      "type": "Feature",
      "geometry": {
        "type": "Point",
        "coordinates": [-7.6646, 39.6604]
      },
      "properties": {
        "cluster_id": "ALERT-20261004-060",
        "alerta_operativa": "informativa",
        "score": 3.9,
        "n_focos": 1,
        "n_ultimas_6h": 0,
        "n_ultimas_24h": 0,
        "frp_total_mw": 3.3,
        "frp_max_mw": 3.3,
        "edad_min_h": 32.4,
        "ultima_deteccion_utc": "2026-10-03 13:23:00",
        "sensores": "VIIRS_NOAA20_NRT",
        "satellites": "N20",
        "instruments": "VIIRS",
        "popup_label": "<strong>ALERT-20261004-060<\/strong><br>Nivel: informativa<br>Focos: 1<br>Últimas 6 h: 0<br>FRP total: 3.3 MW<br>Última detección UTC: 2026-10-03 13:23:00"
      }
    },
    {
      "type": "Feature",
      "geometry": {
        "type": "Point",
        "coordinates": [-5.8909, 34.3382]
      },
      "properties": {
        "cluster_id": "ALERT-20261004-061",
        "alerta_operativa": "informativa",
        "score": 3.4,
        "n_focos": 1,
        "n_ultimas_6h": 0,
        "n_ultimas_24h": 0,
        "frp_total_mw": 2.4,
        "frp_max_mw": 2.4,
        "edad_min_h": 32.4,
        "ultima_deteccion_utc": "2026-10-03 13:23:00",
        "sensores": "VIIRS_NOAA20_NRT",
        "satellites": "N20",
        "instruments": "VIIRS",
        "popup_label": "<strong>ALERT-20261004-061<\/strong><br>Nivel: informativa<br>Focos: 1<br>Últimas 6 h: 0<br>FRP total: 2.4 MW<br>Última detección UTC: 2026-10-03 13:23:00"
      }
    },
    {
      "type": "Feature",
      "geometry": {
        "type": "Point",
        "coordinates": [-8.6559, 39.9498]
      },
      "properties": {
        "cluster_id": "ALERT-20261004-062",
        "alerta_operativa": "informativa",
        "score": 3.3,
        "n_focos": 1,
        "n_ultimas_6h": 0,
        "n_ultimas_24h": 0,
        "frp_total_mw": 2.1,
        "frp_max_mw": 2.1,
        "edad_min_h": 32.4,
        "ultima_deteccion_utc": "2026-10-03 13:23:00",
        "sensores": "VIIRS_NOAA20_NRT",
        "satellites": "N20",
        "instruments": "VIIRS",
        "popup_label": "<strong>ALERT-20261004-062<\/strong><br>Nivel: informativa<br>Focos: 1<br>Últimas 6 h: 0<br>FRP total: 2.1 MW<br>Última detección UTC: 2026-10-03 13:23:00"
      }
    },
    {
      "type": "Feature",
      "geometry": {
        "type": "Point",
        "coordinates": [-7.0852, 33.3842]
      },
      "properties": {
        "cluster_id": "ALERT-20261004-063",
        "alerta_operativa": "informativa",
        "score": 2.5,
        "n_focos": 1,
        "n_ultimas_6h": 0,
        "n_ultimas_24h": 0,
        "frp_total_mw": 1.1,
        "frp_max_mw": 1.1,
        "edad_min_h": 44.1,
        "ultima_deteccion_utc": "2026-10-03 01:41:00",
        "sensores": "VIIRS_SNPP_NRT",
        "satellites": "N",
        "instruments": "VIIRS",
        "popup_label": "<strong>ALERT-20261004-063<\/strong><br>Nivel: informativa<br>Focos: 1<br>Últimas 6 h: 0<br>FRP total: 1.1 MW<br>Última detección UTC: 2026-10-03 01:41:00"
      }
    },
    {
      "type": "Feature",
      "geometry": {
        "type": "Point",
        "coordinates": [-2.2186, 43.0415]
      },
      "properties": {
        "cluster_id": "ALERT-20261004-064",
        "alerta_operativa": "informativa",
        "score": 1.9,
        "n_focos": 1,
        "n_ultimas_6h": 0,
        "n_ultimas_24h": 0,
        "frp_total_mw": 0.6,
        "frp_max_mw": 0.6,
        "edad_min_h": 43.7,
        "ultima_deteccion_utc": "2026-10-03 02:00:00",
        "sensores": "VIIRS_NOAA20_NRT",
        "satellites": "N20",
        "instruments": "VIIRS",
        "popup_label": "<strong>ALERT-20261004-064<\/strong><br>Nivel: informativa<br>Focos: 1<br>Últimas 6 h: 0<br>FRP total: 0.6 MW<br>Última detección UTC: 2026-10-03 02:00:00"
      }
    },
    {
      "type": "Feature",
      "geometry": {
        "type": "Point",
        "coordinates": [1.6602, 41.3122]
      },
      "properties": {
        "cluster_id": "ALERT-20261004-065",
        "alerta_operativa": "informativa",
        "score": 1.8,
        "n_focos": 1,
        "n_ultimas_6h": 0,
        "n_ultimas_24h": 0,
        "frp_total_mw": 0.5,
        "frp_max_mw": 0.5,
        "edad_min_h": 43.7,
        "ultima_deteccion_utc": "2026-10-03 02:00:00",
        "sensores": "VIIRS_NOAA20_NRT",
        "satellites": "N20",
        "instruments": "VIIRS",
        "popup_label": "<strong>ALERT-20261004-065<\/strong><br>Nivel: informativa<br>Focos: 1<br>Últimas 6 h: 0<br>FRP total: 0.5 MW<br>Última detección UTC: 2026-10-03 02:00:00"
      }
    },
    {
      "type": "Feature",
      "geometry": {
        "type": "Point",
        "coordinates": [-2.0846, 34.9784]
      },
      "properties": {
        "cluster_id": "ALERT-20261004-066",
        "alerta_operativa": "informativa",
        "score": 1.7,
        "n_focos": 1,
        "n_ultimas_6h": 0,
        "n_ultimas_24h": 0,
        "frp_total_mw": 0.4,
        "frp_max_mw": 0.4,
        "edad_min_h": 43.7,
        "ultima_deteccion_utc": "2026-10-03 02:02:00",
        "sensores": "VIIRS_NOAA20_NRT",
        "satellites": "N20",
        "instruments": "VIIRS",
        "popup_label": "<strong>ALERT-20261004-066<\/strong><br>Nivel: informativa<br>Focos: 1<br>Últimas 6 h: 0<br>FRP total: 0.4 MW<br>Última detección UTC: 2026-10-03 02:02:00"
      }
    }
  ]
}
