{
  "type": "FeatureCollection",
  "features": [
    {
      "type": "Feature",
      "geometry": {
        "type": "Point",
        "coordinates": [4.892, 43.4408]
      },
      "properties": {
        "cluster_id": "ALERT-20260903-001",
        "alerta_operativa": "alta",
        "score": 151.7,
        "n_focos": 69,
        "n_ultimas_6h": 0,
        "n_ultimas_24h": 36,
        "frp_total_mw": 212.5,
        "frp_max_mw": 11.8,
        "edad_min_h": 11.7,
        "ultima_deteccion_utc": "2026-09-03 03:00:00",
        "sensores": "VIIRS_NOAA20_NRT, VIIRS_SNPP_NRT",
        "satellites": "N, N20",
        "instruments": "VIIRS",
        "popup_label": "<strong>ALERT-20260903-001<\/strong><br>Nivel: alta<br>Focos: 69<br>Últimas 6 h: 0<br>FRP total: 212.5 MW<br>Última detección UTC: 2026-09-03 03:00:00"
      }
    },
    {
      "type": "Feature",
      "geometry": {
        "type": "Point",
        "coordinates": [3.3344, 33.1292]
      },
      "properties": {
        "cluster_id": "ALERT-20260903-002",
        "alerta_operativa": "alta",
        "score": 119.1,
        "n_focos": 31,
        "n_ultimas_6h": 5,
        "n_ultimas_24h": 27,
        "frp_total_mw": 91.3,
        "frp_max_mw": 15.2,
        "edad_min_h": 2.4,
        "ultima_deteccion_utc": "2026-09-03 12:21:00",
        "sensores": "VIIRS_NOAA20_NRT, VIIRS_SNPP_NRT",
        "satellites": "N, N20",
        "instruments": "VIIRS",
        "popup_label": "<strong>ALERT-20260903-002<\/strong><br>Nivel: alta<br>Focos: 31<br>Últimas 6 h: 5<br>FRP total: 91.3 MW<br>Última detección UTC: 2026-09-03 12:21:00"
      }
    },
    {
      "type": "Feature",
      "geometry": {
        "type": "Point",
        "coordinates": [3.9878, 32.2766]
      },
      "properties": {
        "cluster_id": "ALERT-20260903-003",
        "alerta_operativa": "alta",
        "score": 58.7,
        "n_focos": 17,
        "n_ultimas_6h": 2,
        "n_ultimas_24h": 11,
        "frp_total_mw": 129.2,
        "frp_max_mw": 25.2,
        "edad_min_h": 2.4,
        "ultima_deteccion_utc": "2026-09-03 12:21:00",
        "sensores": "VIIRS_NOAA20_NRT, VIIRS_SNPP_NRT",
        "satellites": "N, N20",
        "instruments": "VIIRS",
        "popup_label": "<strong>ALERT-20260903-003<\/strong><br>Nivel: alta<br>Focos: 17<br>Últimas 6 h: 2<br>FRP total: 129.2 MW<br>Última detección UTC: 2026-09-03 12:21:00"
      }
    },
    {
      "type": "Feature",
      "geometry": {
        "type": "Point",
        "coordinates": [-7.3214, 41.8914]
      },
      "properties": {
        "cluster_id": "ALERT-20260903-004",
        "alerta_operativa": "alta",
        "score": 12.6,
        "n_focos": 2,
        "n_ultimas_6h": 0,
        "n_ultimas_24h": 0,
        "frp_total_mw": 200.2,
        "frp_max_mw": 109.4,
        "edad_min_h": 24.3,
        "ultima_deteccion_utc": "2026-09-02 14:27:00",
        "sensores": "VIIRS_SNPP_NRT",
        "satellites": "N",
        "instruments": "VIIRS",
        "popup_label": "<strong>ALERT-20260903-004<\/strong><br>Nivel: alta<br>Focos: 2<br>Últimas 6 h: 0<br>FRP total: 200.2 MW<br>Última detección UTC: 2026-09-02 14:27:00"
      }
    },
    {
      "type": "Feature",
      "geometry": {
        "type": "Point",
        "coordinates": [3.2302, 32.9383]
      },
      "properties": {
        "cluster_id": "ALERT-20260903-005",
        "alerta_operativa": "media",
        "score": 103.4,
        "n_focos": 32,
        "n_ultimas_6h": 0,
        "n_ultimas_24h": 32,
        "frp_total_mw": 38.6,
        "frp_max_mw": 3.1,
        "edad_min_h": 12,
        "ultima_deteccion_utc": "2026-09-03 02:43:00",
        "sensores": "VIIRS_NOAA20_NRT, VIIRS_SNPP_NRT",
        "satellites": "N, N20",
        "instruments": "VIIRS",
        "popup_label": "<strong>ALERT-20260903-005<\/strong><br>Nivel: media<br>Focos: 32<br>Últimas 6 h: 0<br>FRP total: 38.6 MW<br>Última detección UTC: 2026-09-03 02:43:00"
      }
    },
    {
      "type": "Feature",
      "geometry": {
        "type": "Point",
        "coordinates": [-5.7505, 43.5317]
      },
      "properties": {
        "cluster_id": "ALERT-20260903-006",
        "alerta_operativa": "media",
        "score": 68.1,
        "n_focos": 28,
        "n_ultimas_6h": 0,
        "n_ultimas_24h": 16,
        "frp_total_mw": 56.2,
        "frp_max_mw": 6.6,
        "edad_min_h": 11.7,
        "ultima_deteccion_utc": "2026-09-03 03:02:00",
        "sensores": "VIIRS_NOAA20_NRT, VIIRS_SNPP_NRT",
        "satellites": "N, N20",
        "instruments": "VIIRS",
        "popup_label": "<strong>ALERT-20260903-006<\/strong><br>Nivel: media<br>Focos: 28<br>Últimas 6 h: 0<br>FRP total: 56.2 MW<br>Última detección UTC: 2026-09-03 03:02:00"
      }
    },
    {
      "type": "Feature",
      "geometry": {
        "type": "Point",
        "coordinates": [3.1371, 36.6639]
      },
      "properties": {
        "cluster_id": "ALERT-20260903-007",
        "alerta_operativa": "media",
        "score": 36.4,
        "n_focos": 17,
        "n_ultimas_6h": 0,
        "n_ultimas_24h": 6,
        "frp_total_mw": 38.5,
        "frp_max_mw": 5.6,
        "edad_min_h": 12,
        "ultima_deteccion_utc": "2026-09-03 02:43:00",
        "sensores": "VIIRS_NOAA20_NRT, VIIRS_SNPP_NRT",
        "satellites": "N, N20",
        "instruments": "VIIRS",
        "popup_label": "<strong>ALERT-20260903-007<\/strong><br>Nivel: media<br>Focos: 17<br>Últimas 6 h: 0<br>FRP total: 38.5 MW<br>Última detección UTC: 2026-09-03 02:43:00"
      }
    },
    {
      "type": "Feature",
      "geometry": {
        "type": "Point",
        "coordinates": [1.2686, 41.8137]
      },
      "properties": {
        "cluster_id": "ALERT-20260903-008",
        "alerta_operativa": "media",
        "score": 32.1,
        "n_focos": 15,
        "n_ultimas_6h": 0,
        "n_ultimas_24h": 5,
        "frp_total_mw": 34,
        "frp_max_mw": 4.8,
        "edad_min_h": 11.7,
        "ultima_deteccion_utc": "2026-09-03 03:02:00",
        "sensores": "VIIRS_NOAA20_NRT, VIIRS_SNPP_NRT",
        "satellites": "N, N20",
        "instruments": "VIIRS",
        "popup_label": "<strong>ALERT-20260903-008<\/strong><br>Nivel: media<br>Focos: 15<br>Últimas 6 h: 0<br>FRP total: 34 MW<br>Última detección UTC: 2026-09-03 03:02:00"
      }
    },
    {
      "type": "Feature",
      "geometry": {
        "type": "Point",
        "coordinates": [3.1676, 32.5549]
      },
      "properties": {
        "cluster_id": "ALERT-20260903-009",
        "alerta_operativa": "media",
        "score": 30.4,
        "n_focos": 9,
        "n_ultimas_6h": 1,
        "n_ultimas_24h": 5,
        "frp_total_mw": 24.1,
        "frp_max_mw": 6.1,
        "edad_min_h": 2.4,
        "ultima_deteccion_utc": "2026-09-03 12:21:00",
        "sensores": "VIIRS_NOAA20_NRT, VIIRS_SNPP_NRT",
        "satellites": "N, N20",
        "instruments": "VIIRS",
        "popup_label": "<strong>ALERT-20260903-009<\/strong><br>Nivel: media<br>Focos: 9<br>Últimas 6 h: 1<br>FRP total: 24.1 MW<br>Última detección UTC: 2026-09-03 12:21:00"
      }
    },
    {
      "type": "Feature",
      "geometry": {
        "type": "Point",
        "coordinates": [3.1811, 32.7457]
      },
      "properties": {
        "cluster_id": "ALERT-20260903-010",
        "alerta_operativa": "media",
        "score": 29.1,
        "n_focos": 8,
        "n_ultimas_6h": 0,
        "n_ultimas_24h": 8,
        "frp_total_mw": 11.7,
        "frp_max_mw": 2.5,
        "edad_min_h": 12,
        "ultima_deteccion_utc": "2026-09-03 02:43:00",
        "sensores": "VIIRS_NOAA20_NRT, VIIRS_SNPP_NRT",
        "satellites": "N, N20",
        "instruments": "VIIRS",
        "popup_label": "<strong>ALERT-20260903-010<\/strong><br>Nivel: media<br>Focos: 8<br>Últimas 6 h: 0<br>FRP total: 11.7 MW<br>Última detección UTC: 2026-09-03 02:43:00"
      }
    },
    {
      "type": "Feature",
      "geometry": {
        "type": "Point",
        "coordinates": [-5.509, 37.3385]
      },
      "properties": {
        "cluster_id": "ALERT-20260903-011",
        "alerta_operativa": "media",
        "score": 24.8,
        "n_focos": 12,
        "n_ultimas_6h": 0,
        "n_ultimas_24h": 2,
        "frp_total_mw": 81.3,
        "frp_max_mw": 19,
        "edad_min_h": 11.7,
        "ultima_deteccion_utc": "2026-09-03 03:04:00",
        "sensores": "VIIRS_NOAA20_NRT, VIIRS_SNPP_NRT",
        "satellites": "N, N20",
        "instruments": "VIIRS",
        "popup_label": "<strong>ALERT-20260903-011<\/strong><br>Nivel: media<br>Focos: 12<br>Últimas 6 h: 0<br>FRP total: 81.3 MW<br>Última detección UTC: 2026-09-03 03:04:00"
      }
    },
    {
      "type": "Feature",
      "geometry": {
        "type": "Point",
        "coordinates": [-0.266, 35.7974]
      },
      "properties": {
        "cluster_id": "ALERT-20260903-012",
        "alerta_operativa": "media",
        "score": 20.2,
        "n_focos": 7,
        "n_ultimas_6h": 0,
        "n_ultimas_24h": 4,
        "frp_total_mw": 12.8,
        "frp_max_mw": 4.6,
        "edad_min_h": 13.4,
        "ultima_deteccion_utc": "2026-09-03 01:22:00",
        "sensores": "VIIRS_NOAA20_NRT, VIIRS_SNPP_NRT",
        "satellites": "N, N20",
        "instruments": "VIIRS",
        "popup_label": "<strong>ALERT-20260903-012<\/strong><br>Nivel: media<br>Focos: 7<br>Últimas 6 h: 0<br>FRP total: 12.8 MW<br>Última detección UTC: 2026-09-03 01:22:00"
      }
    },
    {
      "type": "Feature",
      "geometry": {
        "type": "Point",
        "coordinates": [-0.1589, 28.2137]
      },
      "properties": {
        "cluster_id": "ALERT-20260903-013",
        "alerta_operativa": "media",
        "score": 19.5,
        "n_focos": 5,
        "n_ultimas_6h": 0,
        "n_ultimas_24h": 5,
        "frp_total_mw": 8.3,
        "frp_max_mw": 2.4,
        "edad_min_h": 12,
        "ultima_deteccion_utc": "2026-09-03 02:45:00",
        "sensores": "VIIRS_NOAA20_NRT, VIIRS_SNPP_NRT",
        "satellites": "N, N20",
        "instruments": "VIIRS",
        "popup_label": "<strong>ALERT-20260903-013<\/strong><br>Nivel: media<br>Focos: 5<br>Últimas 6 h: 0<br>FRP total: 8.3 MW<br>Última detección UTC: 2026-09-03 02:45:00"
      }
    },
    {
      "type": "Feature",
      "geometry": {
        "type": "Point",
        "coordinates": [-5.902, 39.0325]
      },
      "properties": {
        "cluster_id": "ALERT-20260903-014",
        "alerta_operativa": "media",
        "score": 19.3,
        "n_focos": 5,
        "n_ultimas_6h": 0,
        "n_ultimas_24h": 5,
        "frp_total_mw": 7.6,
        "frp_max_mw": 2,
        "edad_min_h": 11.7,
        "ultima_deteccion_utc": "2026-09-03 03:02:00",
        "sensores": "VIIRS_NOAA20_NRT",
        "satellites": "N20",
        "instruments": "VIIRS",
        "popup_label": "<strong>ALERT-20260903-014<\/strong><br>Nivel: media<br>Focos: 5<br>Últimas 6 h: 0<br>FRP total: 7.6 MW<br>Última detección UTC: 2026-09-03 03:02:00"
      }
    },
    {
      "type": "Feature",
      "geometry": {
        "type": "Point",
        "coordinates": [3.7482, 36.179]
      },
      "properties": {
        "cluster_id": "ALERT-20260903-015",
        "alerta_operativa": "media",
        "score": 19.2,
        "n_focos": 5,
        "n_ultimas_6h": 0,
        "n_ultimas_24h": 5,
        "frp_total_mw": 7.1,
        "frp_max_mw": 2.1,
        "edad_min_h": 12,
        "ultima_deteccion_utc": "2026-09-03 02:43:00",
        "sensores": "VIIRS_NOAA20_NRT, VIIRS_SNPP_NRT",
        "satellites": "N, N20",
        "instruments": "VIIRS",
        "popup_label": "<strong>ALERT-20260903-015<\/strong><br>Nivel: media<br>Focos: 5<br>Últimas 6 h: 0<br>FRP total: 7.1 MW<br>Última detección UTC: 2026-09-03 02:43:00"
      }
    },
    {
      "type": "Feature",
      "geometry": {
        "type": "Point",
        "coordinates": [2.8775, 36.5969]
      },
      "properties": {
        "cluster_id": "ALERT-20260903-016",
        "alerta_operativa": "media",
        "score": 18.6,
        "n_focos": 7,
        "n_ultimas_6h": 0,
        "n_ultimas_24h": 3,
        "frp_total_mw": 15.4,
        "frp_max_mw": 4.7,
        "edad_min_h": 12,
        "ultima_deteccion_utc": "2026-09-03 02:43:00",
        "sensores": "VIIRS_NOAA20_NRT, VIIRS_SNPP_NRT",
        "satellites": "N, N20",
        "instruments": "VIIRS",
        "popup_label": "<strong>ALERT-20260903-016<\/strong><br>Nivel: media<br>Focos: 7<br>Últimas 6 h: 0<br>FRP total: 15.4 MW<br>Última detección UTC: 2026-09-03 02:43:00"
      }
    },
    {
      "type": "Feature",
      "geometry": {
        "type": "Point",
        "coordinates": [-0.5182, 28.1991]
      },
      "properties": {
        "cluster_id": "ALERT-20260903-017",
        "alerta_operativa": "media",
        "score": 17.9,
        "n_focos": 5,
        "n_ultimas_6h": 0,
        "n_ultimas_24h": 4,
        "frp_total_mw": 10.4,
        "frp_max_mw": 3,
        "edad_min_h": 12,
        "ultima_deteccion_utc": "2026-09-03 02:45:00",
        "sensores": "VIIRS_NOAA20_NRT, VIIRS_SNPP_NRT",
        "satellites": "N, N20",
        "instruments": "VIIRS",
        "popup_label": "<strong>ALERT-20260903-017<\/strong><br>Nivel: media<br>Focos: 5<br>Últimas 6 h: 0<br>FRP total: 10.4 MW<br>Última detección UTC: 2026-09-03 02:45:00"
      }
    },
    {
      "type": "Feature",
      "geometry": {
        "type": "Point",
        "coordinates": [-1.945, 42.0021]
      },
      "properties": {
        "cluster_id": "ALERT-20260903-018",
        "alerta_operativa": "media",
        "score": 17.7,
        "n_focos": 9,
        "n_ultimas_6h": 0,
        "n_ultimas_24h": 0,
        "frp_total_mw": 76.3,
        "frp_max_mw": 13.5,
        "edad_min_h": 24.3,
        "ultima_deteccion_utc": "2026-09-02 14:27:00",
        "sensores": "VIIRS_NOAA20_NRT, VIIRS_SNPP_NRT",
        "satellites": "N, N20",
        "instruments": "VIIRS",
        "popup_label": "<strong>ALERT-20260903-018<\/strong><br>Nivel: media<br>Focos: 9<br>Últimas 6 h: 0<br>FRP total: 76.3 MW<br>Última detección UTC: 2026-09-02 14:27:00"
      }
    },
    {
      "type": "Feature",
      "geometry": {
        "type": "Point",
        "coordinates": [4.2436, 36.3055]
      },
      "properties": {
        "cluster_id": "ALERT-20260903-019",
        "alerta_operativa": "media",
        "score": 17.3,
        "n_focos": 4,
        "n_ultimas_6h": 0,
        "n_ultimas_24h": 4,
        "frp_total_mw": 13.4,
        "frp_max_mw": 5.7,
        "edad_min_h": 12,
        "ultima_deteccion_utc": "2026-09-03 02:43:00",
        "sensores": "VIIRS_SNPP_NRT",
        "satellites": "N",
        "instruments": "VIIRS",
        "popup_label": "<strong>ALERT-20260903-019<\/strong><br>Nivel: media<br>Focos: 4<br>Últimas 6 h: 0<br>FRP total: 13.4 MW<br>Última detección UTC: 2026-09-03 02:43:00"
      }
    },
    {
      "type": "Feature",
      "geometry": {
        "type": "Point",
        "coordinates": [4.0063, 32.4022]
      },
      "properties": {
        "cluster_id": "ALERT-20260903-020",
        "alerta_operativa": "media",
        "score": 16.9,
        "n_focos": 7,
        "n_ultimas_6h": 0,
        "n_ultimas_24h": 2,
        "frp_total_mw": 18.5,
        "frp_max_mw": 4.8,
        "edad_min_h": 13.3,
        "ultima_deteccion_utc": "2026-09-03 01:24:00",
        "sensores": "VIIRS_NOAA20_NRT, VIIRS_SNPP_NRT",
        "satellites": "N, N20",
        "instruments": "VIIRS",
        "popup_label": "<strong>ALERT-20260903-020<\/strong><br>Nivel: media<br>Focos: 7<br>Últimas 6 h: 0<br>FRP total: 18.5 MW<br>Última detección UTC: 2026-09-03 01:24:00"
      }
    },
    {
      "type": "Feature",
      "geometry": {
        "type": "Point",
        "coordinates": [-3.2257, 38.919]
      },
      "properties": {
        "cluster_id": "ALERT-20260903-021",
        "alerta_operativa": "media",
        "score": 15.9,
        "n_focos": 4,
        "n_ultimas_6h": 0,
        "n_ultimas_24h": 4,
        "frp_total_mw": 6.2,
        "frp_max_mw": 2.7,
        "edad_min_h": 11.7,
        "ultima_deteccion_utc": "2026-09-03 03:02:00",
        "sensores": "VIIRS_NOAA20_NRT, VIIRS_SNPP_NRT",
        "satellites": "N, N20",
        "instruments": "VIIRS",
        "popup_label": "<strong>ALERT-20260903-021<\/strong><br>Nivel: media<br>Focos: 4<br>Últimas 6 h: 0<br>FRP total: 6.2 MW<br>Última detección UTC: 2026-09-03 03:02:00"
      }
    },
    {
      "type": "Feature",
      "geometry": {
        "type": "Point",
        "coordinates": [-9.0117, 38.921]
      },
      "properties": {
        "cluster_id": "ALERT-20260903-022",
        "alerta_operativa": "media",
        "score": 14.8,
        "n_focos": 5,
        "n_ultimas_6h": 0,
        "n_ultimas_24h": 3,
        "frp_total_mw": 5.8,
        "frp_max_mw": 1.3,
        "edad_min_h": 11.7,
        "ultima_deteccion_utc": "2026-09-03 03:02:00",
        "sensores": "VIIRS_NOAA20_NRT, VIIRS_SNPP_NRT",
        "satellites": "N, N20",
        "instruments": "VIIRS",
        "popup_label": "<strong>ALERT-20260903-022<\/strong><br>Nivel: media<br>Focos: 5<br>Últimas 6 h: 0<br>FRP total: 5.8 MW<br>Última detección UTC: 2026-09-03 03:02:00"
      }
    },
    {
      "type": "Feature",
      "geometry": {
        "type": "Point",
        "coordinates": [-8.492, 32.3751]
      },
      "properties": {
        "cluster_id": "ALERT-20260903-023",
        "alerta_operativa": "media",
        "score": 13.4,
        "n_focos": 3,
        "n_ultimas_6h": 0,
        "n_ultimas_24h": 3,
        "frp_total_mw": 8.2,
        "frp_max_mw": 3.3,
        "edad_min_h": 12,
        "ultima_deteccion_utc": "2026-09-03 02:45:00",
        "sensores": "VIIRS_NOAA20_NRT, VIIRS_SNPP_NRT",
        "satellites": "N, N20",
        "instruments": "VIIRS",
        "popup_label": "<strong>ALERT-20260903-023<\/strong><br>Nivel: media<br>Focos: 3<br>Últimas 6 h: 0<br>FRP total: 8.2 MW<br>Última detección UTC: 2026-09-03 02:45:00"
      }
    },
    {
      "type": "Feature",
      "geometry": {
        "type": "Point",
        "coordinates": [-5.8585, 39.3294]
      },
      "properties": {
        "cluster_id": "ALERT-20260903-024",
        "alerta_operativa": "media",
        "score": 13.4,
        "n_focos": 3,
        "n_ultimas_6h": 0,
        "n_ultimas_24h": 3,
        "frp_total_mw": 7.9,
        "frp_max_mw": 4.6,
        "edad_min_h": 11.7,
        "ultima_deteccion_utc": "2026-09-03 03:02:00",
        "sensores": "VIIRS_NOAA20_NRT, VIIRS_SNPP_NRT",
        "satellites": "N, N20",
        "instruments": "VIIRS",
        "popup_label": "<strong>ALERT-20260903-024<\/strong><br>Nivel: media<br>Focos: 3<br>Últimas 6 h: 0<br>FRP total: 7.9 MW<br>Última detección UTC: 2026-09-03 03:02:00"
      }
    },
    {
      "type": "Feature",
      "geometry": {
        "type": "Point",
        "coordinates": [-6.7111, 32.6129]
      },
      "properties": {
        "cluster_id": "ALERT-20260903-025",
        "alerta_operativa": "media",
        "score": 13.3,
        "n_focos": 3,
        "n_ultimas_6h": 0,
        "n_ultimas_24h": 3,
        "frp_total_mw": 7.4,
        "frp_max_mw": 3.9,
        "edad_min_h": 11.7,
        "ultima_deteccion_utc": "2026-09-03 03:04:00",
        "sensores": "VIIRS_NOAA20_NRT, VIIRS_SNPP_NRT",
        "satellites": "N, N20",
        "instruments": "VIIRS",
        "popup_label": "<strong>ALERT-20260903-025<\/strong><br>Nivel: media<br>Focos: 3<br>Últimas 6 h: 0<br>FRP total: 7.4 MW<br>Última detección UTC: 2026-09-03 03:04:00"
      }
    },
    {
      "type": "Feature",
      "geometry": {
        "type": "Point",
        "coordinates": [1.6626, 41.3128]
      },
      "properties": {
        "cluster_id": "ALERT-20260903-026",
        "alerta_operativa": "media",
        "score": 12.6,
        "n_focos": 5,
        "n_ultimas_6h": 0,
        "n_ultimas_24h": 2,
        "frp_total_mw": 5.1,
        "frp_max_mw": 1.6,
        "edad_min_h": 11.7,
        "ultima_deteccion_utc": "2026-09-03 03:02:00",
        "sensores": "VIIRS_NOAA20_NRT, VIIRS_SNPP_NRT",
        "satellites": "N, N20",
        "instruments": "VIIRS",
        "popup_label": "<strong>ALERT-20260903-026<\/strong><br>Nivel: media<br>Focos: 5<br>Últimas 6 h: 0<br>FRP total: 5.1 MW<br>Última detección UTC: 2026-09-03 03:02:00"
      }
    },
    {
      "type": "Feature",
      "geometry": {
        "type": "Point",
        "coordinates": [4.4766, 35.7077]
      },
      "properties": {
        "cluster_id": "ALERT-20260903-027",
        "alerta_operativa": "media",
        "score": 12.3,
        "n_focos": 3,
        "n_ultimas_6h": 0,
        "n_ultimas_24h": 3,
        "frp_total_mw": 4.2,
        "frp_max_mw": 2.8,
        "edad_min_h": 13.4,
        "ultima_deteccion_utc": "2026-09-03 01:22:00",
        "sensores": "VIIRS_NOAA20_NRT, VIIRS_SNPP_NRT",
        "satellites": "N, N20",
        "instruments": "VIIRS",
        "popup_label": "<strong>ALERT-20260903-027<\/strong><br>Nivel: media<br>Focos: 3<br>Últimas 6 h: 0<br>FRP total: 4.2 MW<br>Última detección UTC: 2026-09-03 01:22:00"
      }
    },
    {
      "type": "Feature",
      "geometry": {
        "type": "Point",
        "coordinates": [4.448, 35.8791]
      },
      "properties": {
        "cluster_id": "ALERT-20260903-028",
        "alerta_operativa": "media",
        "score": 12.2,
        "n_focos": 3,
        "n_ultimas_6h": 0,
        "n_ultimas_24h": 3,
        "frp_total_mw": 3.9,
        "frp_max_mw": 2,
        "edad_min_h": 12,
        "ultima_deteccion_utc": "2026-09-03 02:43:00",
        "sensores": "VIIRS_NOAA20_NRT, VIIRS_SNPP_NRT",
        "satellites": "N, N20",
        "instruments": "VIIRS",
        "popup_label": "<strong>ALERT-20260903-028<\/strong><br>Nivel: media<br>Focos: 3<br>Últimas 6 h: 0<br>FRP total: 3.9 MW<br>Última detección UTC: 2026-09-03 02:43:00"
      }
    },
    {
      "type": "Feature",
      "geometry": {
        "type": "Point",
        "coordinates": [2.9278, 36.1398]
      },
      "properties": {
        "cluster_id": "ALERT-20260903-029",
        "alerta_operativa": "media",
        "score": 11.9,
        "n_focos": 4,
        "n_ultimas_6h": 0,
        "n_ultimas_24h": 2,
        "frp_total_mw": 6,
        "frp_max_mw": 1.7,
        "edad_min_h": 13.4,
        "ultima_deteccion_utc": "2026-09-03 01:22:00",
        "sensores": "VIIRS_NOAA20_NRT, VIIRS_SNPP_NRT",
        "satellites": "N, N20",
        "instruments": "VIIRS",
        "popup_label": "<strong>ALERT-20260903-029<\/strong><br>Nivel: media<br>Focos: 4<br>Últimas 6 h: 0<br>FRP total: 6 MW<br>Última detección UTC: 2026-09-03 01:22:00"
      }
    },
    {
      "type": "Feature",
      "geometry": {
        "type": "Point",
        "coordinates": [-8.4194, 40.2895]
      },
      "properties": {
        "cluster_id": "ALERT-20260903-030",
        "alerta_operativa": "media",
        "score": 11.3,
        "n_focos": 4,
        "n_ultimas_6h": 0,
        "n_ultimas_24h": 2,
        "frp_total_mw": 4.3,
        "frp_max_mw": 1.3,
        "edad_min_h": 11.7,
        "ultima_deteccion_utc": "2026-09-03 03:02:00",
        "sensores": "VIIRS_NOAA20_NRT, VIIRS_SNPP_NRT",
        "satellites": "N, N20",
        "instruments": "VIIRS",
        "popup_label": "<strong>ALERT-20260903-030<\/strong><br>Nivel: media<br>Focos: 4<br>Últimas 6 h: 0<br>FRP total: 4.3 MW<br>Última detección UTC: 2026-09-03 03:02:00"
      }
    },
    {
      "type": "Feature",
      "geometry": {
        "type": "Point",
        "coordinates": [-4.7076, 41.6782]
      },
      "properties": {
        "cluster_id": "ALERT-20260903-031",
        "alerta_operativa": "media",
        "score": 10.8,
        "n_focos": 2,
        "n_ultimas_6h": 0,
        "n_ultimas_24h": 0,
        "frp_total_mw": 81.7,
        "frp_max_mw": 59.2,
        "edad_min_h": 25.7,
        "ultima_deteccion_utc": "2026-09-02 13:04:00",
        "sensores": "VIIRS_NOAA20_NRT",
        "satellites": "N20",
        "instruments": "VIIRS",
        "popup_label": "<strong>ALERT-20260903-031<\/strong><br>Nivel: media<br>Focos: 2<br>Últimas 6 h: 0<br>FRP total: 81.7 MW<br>Última detección UTC: 2026-09-02 13:04:00"
      }
    },
    {
      "type": "Feature",
      "geometry": {
        "type": "Point",
        "coordinates": [-6.8966, 37.1818]
      },
      "properties": {
        "cluster_id": "ALERT-20260903-032",
        "alerta_operativa": "media",
        "score": 10.1,
        "n_focos": 2,
        "n_ultimas_6h": 0,
        "n_ultimas_24h": 2,
        "frp_total_mw": 6.9,
        "frp_max_mw": 3.5,
        "edad_min_h": 12,
        "ultima_deteccion_utc": "2026-09-03 02:43:00",
        "sensores": "VIIRS_SNPP_NRT",
        "satellites": "N",
        "instruments": "VIIRS",
        "popup_label": "<strong>ALERT-20260903-032<\/strong><br>Nivel: media<br>Focos: 2<br>Últimas 6 h: 0<br>FRP total: 6.9 MW<br>Última detección UTC: 2026-09-03 02:43:00"
      }
    },
    {
      "type": "Feature",
      "geometry": {
        "type": "Point",
        "coordinates": [-6.9465, 32.8475]
      },
      "properties": {
        "cluster_id": "ALERT-20260903-033",
        "alerta_operativa": "media",
        "score": 9,
        "n_focos": 2,
        "n_ultimas_6h": 0,
        "n_ultimas_24h": 2,
        "frp_total_mw": 3.4,
        "frp_max_mw": 2,
        "edad_min_h": 12,
        "ultima_deteccion_utc": "2026-09-03 02:45:00",
        "sensores": "VIIRS_SNPP_NRT",
        "satellites": "N",
        "instruments": "VIIRS",
        "popup_label": "<strong>ALERT-20260903-033<\/strong><br>Nivel: media<br>Focos: 2<br>Últimas 6 h: 0<br>FRP total: 3.4 MW<br>Última detección UTC: 2026-09-03 02:45:00"
      }
    },
    {
      "type": "Feature",
      "geometry": {
        "type": "Point",
        "coordinates": [-3.031, 35.1844]
      },
      "properties": {
        "cluster_id": "ALERT-20260903-034",
        "alerta_operativa": "media",
        "score": 8.9,
        "n_focos": 2,
        "n_ultimas_6h": 0,
        "n_ultimas_24h": 2,
        "frp_total_mw": 3.3,
        "frp_max_mw": 1.8,
        "edad_min_h": 12,
        "ultima_deteccion_utc": "2026-09-03 02:43:00",
        "sensores": "VIIRS_NOAA20_NRT, VIIRS_SNPP_NRT",
        "satellites": "N, N20",
        "instruments": "VIIRS",
        "popup_label": "<strong>ALERT-20260903-034<\/strong><br>Nivel: media<br>Focos: 2<br>Últimas 6 h: 0<br>FRP total: 3.3 MW<br>Última detección UTC: 2026-09-03 02:43:00"
      }
    },
    {
      "type": "Feature",
      "geometry": {
        "type": "Point",
        "coordinates": [-6.5786, 34.2756]
      },
      "properties": {
        "cluster_id": "ALERT-20260903-035",
        "alerta_operativa": "media",
        "score": 8.3,
        "n_focos": 2,
        "n_ultimas_6h": 0,
        "n_ultimas_24h": 2,
        "frp_total_mw": 2.1,
        "frp_max_mw": 1.7,
        "edad_min_h": 11.7,
        "ultima_deteccion_utc": "2026-09-03 03:04:00",
        "sensores": "VIIRS_NOAA20_NRT, VIIRS_SNPP_NRT",
        "satellites": "N, N20",
        "instruments": "VIIRS",
        "popup_label": "<strong>ALERT-20260903-035<\/strong><br>Nivel: media<br>Focos: 2<br>Últimas 6 h: 0<br>FRP total: 2.1 MW<br>Última detección UTC: 2026-09-03 03:04:00"
      }
    },
    {
      "type": "Feature",
      "geometry": {
        "type": "Point",
        "coordinates": [0.5393, 35.7827]
      },
      "properties": {
        "cluster_id": "ALERT-20260903-036",
        "alerta_operativa": "media",
        "score": 8.1,
        "n_focos": 2,
        "n_ultimas_6h": 0,
        "n_ultimas_24h": 2,
        "frp_total_mw": 1.9,
        "frp_max_mw": 1.5,
        "edad_min_h": 12,
        "ultima_deteccion_utc": "2026-09-03 02:43:00",
        "sensores": "VIIRS_NOAA20_NRT, VIIRS_SNPP_NRT",
        "satellites": "N, N20",
        "instruments": "VIIRS",
        "popup_label": "<strong>ALERT-20260903-036<\/strong><br>Nivel: media<br>Focos: 2<br>Últimas 6 h: 0<br>FRP total: 1.9 MW<br>Última detección UTC: 2026-09-03 02:43:00"
      }
    },
    {
      "type": "Feature",
      "geometry": {
        "type": "Point",
        "coordinates": [-8.9079, 39.6867]
      },
      "properties": {
        "cluster_id": "ALERT-20260903-037",
        "alerta_operativa": "media",
        "score": 8.1,
        "n_focos": 2,
        "n_ultimas_6h": 0,
        "n_ultimas_24h": 2,
        "frp_total_mw": 1.8,
        "frp_max_mw": 1.1,
        "edad_min_h": 11.7,
        "ultima_deteccion_utc": "2026-09-03 03:02:00",
        "sensores": "VIIRS_NOAA20_NRT, VIIRS_SNPP_NRT",
        "satellites": "N, N20",
        "instruments": "VIIRS",
        "popup_label": "<strong>ALERT-20260903-037<\/strong><br>Nivel: media<br>Focos: 2<br>Últimas 6 h: 0<br>FRP total: 1.8 MW<br>Última detección UTC: 2026-09-03 03:02:00"
      }
    },
    {
      "type": "Feature",
      "geometry": {
        "type": "Point",
        "coordinates": [-1.4885, 41.4746]
      },
      "properties": {
        "cluster_id": "ALERT-20260903-038",
        "alerta_operativa": "media",
        "score": 8.1,
        "n_focos": 2,
        "n_ultimas_6h": 0,
        "n_ultimas_24h": 2,
        "frp_total_mw": 1.8,
        "frp_max_mw": 1,
        "edad_min_h": 13.4,
        "ultima_deteccion_utc": "2026-09-03 01:22:00",
        "sensores": "VIIRS_NOAA20_NRT",
        "satellites": "N20",
        "instruments": "VIIRS",
        "popup_label": "<strong>ALERT-20260903-038<\/strong><br>Nivel: media<br>Focos: 2<br>Últimas 6 h: 0<br>FRP total: 1.8 MW<br>Última detección UTC: 2026-09-03 01:22:00"
      }
    },
    {
      "type": "Feature",
      "geometry": {
        "type": "Point",
        "coordinates": [1.3542, 35.3394]
      },
      "properties": {
        "cluster_id": "ALERT-20260903-039",
        "alerta_operativa": "seguimiento",
        "score": 7.7,
        "n_focos": 2,
        "n_ultimas_6h": 0,
        "n_ultimas_24h": 1,
        "frp_total_mw": 5.4,
        "frp_max_mw": 4.4,
        "edad_min_h": 13.7,
        "ultima_deteccion_utc": "2026-09-03 01:05:00",
        "sensores": "VIIRS_SNPP_NRT",
        "satellites": "N",
        "instruments": "VIIRS",
        "popup_label": "<strong>ALERT-20260903-039<\/strong><br>Nivel: seguimiento<br>Focos: 2<br>Últimas 6 h: 0<br>FRP total: 5.4 MW<br>Última detección UTC: 2026-09-03 01:05:00"
      }
    },
    {
      "type": "Feature",
      "geometry": {
        "type": "Point",
        "coordinates": [-6.7684, 42.5534]
      },
      "properties": {
        "cluster_id": "ALERT-20260903-040",
        "alerta_operativa": "seguimiento",
        "score": 5.9,
        "n_focos": 2,
        "n_ultimas_6h": 0,
        "n_ultimas_24h": 1,
        "frp_total_mw": 1.6,
        "frp_max_mw": 0.9,
        "edad_min_h": 12.1,
        "ultima_deteccion_utc": "2026-09-03 02:41:00",
        "sensores": "VIIRS_NOAA20_NRT, VIIRS_SNPP_NRT",
        "satellites": "N, N20",
        "instruments": "VIIRS",
        "popup_label": "<strong>ALERT-20260903-040<\/strong><br>Nivel: seguimiento<br>Focos: 2<br>Últimas 6 h: 0<br>FRP total: 1.6 MW<br>Última detección UTC: 2026-09-03 02:41:00"
      }
    },
    {
      "type": "Feature",
      "geometry": {
        "type": "Point",
        "coordinates": [2.0009, 41.4071]
      },
      "properties": {
        "cluster_id": "ALERT-20260903-041",
        "alerta_operativa": "seguimiento",
        "score": 5.4,
        "n_focos": 2,
        "n_ultimas_6h": 0,
        "n_ultimas_24h": 1,
        "frp_total_mw": 1,
        "frp_max_mw": 0.5,
        "edad_min_h": 12.1,
        "ultima_deteccion_utc": "2026-09-03 02:41:00",
        "sensores": "VIIRS_SNPP_NRT",
        "satellites": "N",
        "instruments": "VIIRS",
        "popup_label": "<strong>ALERT-20260903-041<\/strong><br>Nivel: seguimiento<br>Focos: 2<br>Últimas 6 h: 0<br>FRP total: 1 MW<br>Última detección UTC: 2026-09-03 02:41:00"
      }
    },
    {
      "type": "Feature",
      "geometry": {
        "type": "Point",
        "coordinates": [-7.7491, 33.3663]
      },
      "properties": {
        "cluster_id": "ALERT-20260903-042",
        "alerta_operativa": "seguimiento",
        "score": 5.1,
        "n_focos": 1,
        "n_ultimas_6h": 0,
        "n_ultimas_24h": 1,
        "frp_total_mw": 1.8,
        "frp_max_mw": 1.8,
        "edad_min_h": 12,
        "ultima_deteccion_utc": "2026-09-03 02:45:00",
        "sensores": "VIIRS_SNPP_NRT",
        "satellites": "N",
        "instruments": "VIIRS",
        "popup_label": "<strong>ALERT-20260903-042<\/strong><br>Nivel: seguimiento<br>Focos: 1<br>Últimas 6 h: 0<br>FRP total: 1.8 MW<br>Última detección UTC: 2026-09-03 02:45:00"
      }
    },
    {
      "type": "Feature",
      "geometry": {
        "type": "Point",
        "coordinates": [-0.0483, 27.5716]
      },
      "properties": {
        "cluster_id": "ALERT-20260903-043",
        "alerta_operativa": "seguimiento",
        "score": 4.8,
        "n_focos": 1,
        "n_ultimas_6h": 0,
        "n_ultimas_24h": 1,
        "frp_total_mw": 1.4,
        "frp_max_mw": 1.4,
        "edad_min_h": 13.3,
        "ultima_deteccion_utc": "2026-09-03 01:26:00",
        "sensores": "VIIRS_NOAA20_NRT",
        "satellites": "N20",
        "instruments": "VIIRS",
        "popup_label": "<strong>ALERT-20260903-043<\/strong><br>Nivel: seguimiento<br>Focos: 1<br>Últimas 6 h: 0<br>FRP total: 1.4 MW<br>Última detección UTC: 2026-09-03 01:26:00"
      }
    },
    {
      "type": "Feature",
      "geometry": {
        "type": "Point",
        "coordinates": [-0.9421, 35.5663]
      },
      "properties": {
        "cluster_id": "ALERT-20260903-044",
        "alerta_operativa": "seguimiento",
        "score": 4.7,
        "n_focos": 1,
        "n_ultimas_6h": 0,
        "n_ultimas_24h": 1,
        "frp_total_mw": 1.3,
        "frp_max_mw": 1.3,
        "edad_min_h": 13.4,
        "ultima_deteccion_utc": "2026-09-03 01:22:00",
        "sensores": "VIIRS_NOAA20_NRT",
        "satellites": "N20",
        "instruments": "VIIRS",
        "popup_label": "<strong>ALERT-20260903-044<\/strong><br>Nivel: seguimiento<br>Focos: 1<br>Últimas 6 h: 0<br>FRP total: 1.3 MW<br>Última detección UTC: 2026-09-03 01:22:00"
      }
    },
    {
      "type": "Feature",
      "geometry": {
        "type": "Point",
        "coordinates": [-7.7328, 33.4947]
      },
      "properties": {
        "cluster_id": "ALERT-20260903-045",
        "alerta_operativa": "seguimiento",
        "score": 4.4,
        "n_focos": 1,
        "n_ultimas_6h": 0,
        "n_ultimas_24h": 1,
        "frp_total_mw": 1,
        "frp_max_mw": 1,
        "edad_min_h": 12,
        "ultima_deteccion_utc": "2026-09-03 02:45:00",
        "sensores": "VIIRS_SNPP_NRT",
        "satellites": "N",
        "instruments": "VIIRS",
        "popup_label": "<strong>ALERT-20260903-045<\/strong><br>Nivel: seguimiento<br>Focos: 1<br>Últimas 6 h: 0<br>FRP total: 1 MW<br>Última detección UTC: 2026-09-03 02:45:00"
      }
    },
    {
      "type": "Feature",
      "geometry": {
        "type": "Point",
        "coordinates": [-0.3452, 33.4743]
      },
      "properties": {
        "cluster_id": "ALERT-20260903-046",
        "alerta_operativa": "seguimiento",
        "score": 4.4,
        "n_focos": 1,
        "n_ultimas_6h": 0,
        "n_ultimas_24h": 1,
        "frp_total_mw": 1,
        "frp_max_mw": 1,
        "edad_min_h": 12,
        "ultima_deteccion_utc": "2026-09-03 02:43:00",
        "sensores": "VIIRS_SNPP_NRT",
        "satellites": "N",
        "instruments": "VIIRS",
        "popup_label": "<strong>ALERT-20260903-046<\/strong><br>Nivel: seguimiento<br>Focos: 1<br>Últimas 6 h: 0<br>FRP total: 1 MW<br>Última detección UTC: 2026-09-03 02:43:00"
      }
    },
    {
      "type": "Feature",
      "geometry": {
        "type": "Point",
        "coordinates": [1.2412, 36.129]
      },
      "properties": {
        "cluster_id": "ALERT-20260903-047",
        "alerta_operativa": "seguimiento",
        "score": 4.4,
        "n_focos": 1,
        "n_ultimas_6h": 0,
        "n_ultimas_24h": 1,
        "frp_total_mw": 1,
        "frp_max_mw": 1,
        "edad_min_h": 12,
        "ultima_deteccion_utc": "2026-09-03 02:43:00",
        "sensores": "VIIRS_SNPP_NRT",
        "satellites": "N",
        "instruments": "VIIRS",
        "popup_label": "<strong>ALERT-20260903-047<\/strong><br>Nivel: seguimiento<br>Focos: 1<br>Últimas 6 h: 0<br>FRP total: 1 MW<br>Última detección UTC: 2026-09-03 02:43:00"
      }
    },
    {
      "type": "Feature",
      "geometry": {
        "type": "Point",
        "coordinates": [-2.3481, 34.5967]
      },
      "properties": {
        "cluster_id": "ALERT-20260903-048",
        "alerta_operativa": "seguimiento",
        "score": 4.3,
        "n_focos": 1,
        "n_ultimas_6h": 0,
        "n_ultimas_24h": 1,
        "frp_total_mw": 0.9,
        "frp_max_mw": 0.9,
        "edad_min_h": 12,
        "ultima_deteccion_utc": "2026-09-03 02:43:00",
        "sensores": "VIIRS_SNPP_NRT",
        "satellites": "N",
        "instruments": "VIIRS",
        "popup_label": "<strong>ALERT-20260903-048<\/strong><br>Nivel: seguimiento<br>Focos: 1<br>Últimas 6 h: 0<br>FRP total: 0.9 MW<br>Última detección UTC: 2026-09-03 02:43:00"
      }
    },
    {
      "type": "Feature",
      "geometry": {
        "type": "Point",
        "coordinates": [-4.1631, 42.8746]
      },
      "properties": {
        "cluster_id": "ALERT-20260903-049",
        "alerta_operativa": "seguimiento",
        "score": 4.2,
        "n_focos": 1,
        "n_ultimas_6h": 0,
        "n_ultimas_24h": 1,
        "frp_total_mw": 0.8,
        "frp_max_mw": 0.8,
        "edad_min_h": 12.1,
        "ultima_deteccion_utc": "2026-09-03 02:41:00",
        "sensores": "VIIRS_SNPP_NRT",
        "satellites": "N",
        "instruments": "VIIRS",
        "popup_label": "<strong>ALERT-20260903-049<\/strong><br>Nivel: seguimiento<br>Focos: 1<br>Últimas 6 h: 0<br>FRP total: 0.8 MW<br>Última detección UTC: 2026-09-03 02:41:00"
      }
    },
    {
      "type": "Feature",
      "geometry": {
        "type": "Point",
        "coordinates": [-6.2328, 34.5366]
      },
      "properties": {
        "cluster_id": "ALERT-20260903-050",
        "alerta_operativa": "seguimiento",
        "score": 4.1,
        "n_focos": 1,
        "n_ultimas_6h": 0,
        "n_ultimas_24h": 1,
        "frp_total_mw": 0.7,
        "frp_max_mw": 0.7,
        "edad_min_h": 12,
        "ultima_deteccion_utc": "2026-09-03 02:43:00",
        "sensores": "VIIRS_SNPP_NRT",
        "satellites": "N",
        "instruments": "VIIRS",
        "popup_label": "<strong>ALERT-20260903-050<\/strong><br>Nivel: seguimiento<br>Focos: 1<br>Últimas 6 h: 0<br>FRP total: 0.7 MW<br>Última detección UTC: 2026-09-03 02:43:00"
      }
    },
    {
      "type": "Feature",
      "geometry": {
        "type": "Point",
        "coordinates": [-8.9374, 38.502]
      },
      "properties": {
        "cluster_id": "ALERT-20260903-051",
        "alerta_operativa": "seguimiento",
        "score": 4.1,
        "n_focos": 1,
        "n_ultimas_6h": 0,
        "n_ultimas_24h": 1,
        "frp_total_mw": 0.7,
        "frp_max_mw": 0.7,
        "edad_min_h": 12,
        "ultima_deteccion_utc": "2026-09-03 02:43:00",
        "sensores": "VIIRS_SNPP_NRT",
        "satellites": "N",
        "instruments": "VIIRS",
        "popup_label": "<strong>ALERT-20260903-051<\/strong><br>Nivel: seguimiento<br>Focos: 1<br>Últimas 6 h: 0<br>FRP total: 0.7 MW<br>Última detección UTC: 2026-09-03 02:43:00"
      }
    },
    {
      "type": "Feature",
      "geometry": {
        "type": "Point",
        "coordinates": [-1.5129, 42.9214]
      },
      "properties": {
        "cluster_id": "ALERT-20260903-052",
        "alerta_operativa": "seguimiento",
        "score": 3.9,
        "n_focos": 1,
        "n_ultimas_6h": 0,
        "n_ultimas_24h": 1,
        "frp_total_mw": 0.6,
        "frp_max_mw": 0.6,
        "edad_min_h": 11.7,
        "ultima_deteccion_utc": "2026-09-03 03:02:00",
        "sensores": "VIIRS_NOAA20_NRT",
        "satellites": "N20",
        "instruments": "VIIRS",
        "popup_label": "<strong>ALERT-20260903-052<\/strong><br>Nivel: seguimiento<br>Focos: 1<br>Últimas 6 h: 0<br>FRP total: 0.6 MW<br>Última detección UTC: 2026-09-03 03:02:00"
      }
    },
    {
      "type": "Feature",
      "geometry": {
        "type": "Point",
        "coordinates": [-6.8286, 38.9574]
      },
      "properties": {
        "cluster_id": "ALERT-20260903-053",
        "alerta_operativa": "informativa",
        "score": 20.2,
        "n_focos": 14,
        "n_ultimas_6h": 0,
        "n_ultimas_24h": 0,
        "frp_total_mw": 21.2,
        "frp_max_mw": 2.8,
        "edad_min_h": 35.4,
        "ultima_deteccion_utc": "2026-09-02 03:21:00",
        "sensores": "VIIRS_NOAA20_NRT, VIIRS_SNPP_NRT",
        "satellites": "N, N20",
        "instruments": "VIIRS",
        "popup_label": "<strong>ALERT-20260903-053<\/strong><br>Nivel: informativa<br>Focos: 14<br>Últimas 6 h: 0<br>FRP total: 21.2 MW<br>Última detección UTC: 2026-09-02 03:21:00"
      }
    },
    {
      "type": "Feature",
      "geometry": {
        "type": "Point",
        "coordinates": [-0.5339, 42.9251]
      },
      "properties": {
        "cluster_id": "ALERT-20260903-054",
        "alerta_operativa": "informativa",
        "score": 12.8,
        "n_focos": 6,
        "n_ultimas_6h": 0,
        "n_ultimas_24h": 0,
        "frp_total_mw": 28.8,
        "frp_max_mw": 5.7,
        "edad_min_h": 25.7,
        "ultima_deteccion_utc": "2026-09-02 13:04:00",
        "sensores": "VIIRS_NOAA20_NRT, VIIRS_SNPP_NRT",
        "satellites": "N, N20",
        "instruments": "VIIRS",
        "popup_label": "<strong>ALERT-20260903-054<\/strong><br>Nivel: informativa<br>Focos: 6<br>Últimas 6 h: 0<br>FRP total: 28.8 MW<br>Última detección UTC: 2026-09-02 13:04:00"
      }
    },
    {
      "type": "Feature",
      "geometry": {
        "type": "Point",
        "coordinates": [-5.4122, 33.9225]
      },
      "properties": {
        "cluster_id": "ALERT-20260903-055",
        "alerta_operativa": "informativa",
        "score": 10.6,
        "n_focos": 4,
        "n_ultimas_6h": 0,
        "n_ultimas_24h": 0,
        "frp_total_mw": 25.5,
        "frp_max_mw": 11.2,
        "edad_min_h": 24.4,
        "ultima_deteccion_utc": "2026-09-02 14:22:00",
        "sensores": "VIIRS_NOAA20_NRT, VIIRS_SNPP_NRT",
        "satellites": "N, N20",
        "instruments": "VIIRS",
        "popup_label": "<strong>ALERT-20260903-055<\/strong><br>Nivel: informativa<br>Focos: 4<br>Últimas 6 h: 0<br>FRP total: 25.5 MW<br>Última detección UTC: 2026-09-02 14:22:00"
      }
    },
    {
      "type": "Feature",
      "geometry": {
        "type": "Point",
        "coordinates": [-2.7169, 37.1425]
      },
      "properties": {
        "cluster_id": "ALERT-20260903-056",
        "alerta_operativa": "informativa",
        "score": 9.7,
        "n_focos": 4,
        "n_ultimas_6h": 0,
        "n_ultimas_24h": 0,
        "frp_total_mw": 16.7,
        "frp_max_mw": 5.8,
        "edad_min_h": 25.7,
        "ultima_deteccion_utc": "2026-09-02 13:01:00",
        "sensores": "VIIRS_NOAA20_NRT, VIIRS_SNPP_NRT",
        "satellites": "N, N20",
        "instruments": "VIIRS",
        "popup_label": "<strong>ALERT-20260903-056<\/strong><br>Nivel: informativa<br>Focos: 4<br>Últimas 6 h: 0<br>FRP total: 16.7 MW<br>Última detección UTC: 2026-09-02 13:01:00"
      }
    },
    {
      "type": "Feature",
      "geometry": {
        "type": "Point",
        "coordinates": [-5.5154, 33.7253]
      },
      "properties": {
        "cluster_id": "ALERT-20260903-057",
        "alerta_operativa": "informativa",
        "score": 9.7,
        "n_focos": 4,
        "n_ultimas_6h": 0,
        "n_ultimas_24h": 0,
        "frp_total_mw": 16.1,
        "frp_max_mw": 6,
        "edad_min_h": 24.4,
        "ultima_deteccion_utc": "2026-09-02 14:22:00",
        "sensores": "VIIRS_NOAA20_NRT, VIIRS_SNPP_NRT",
        "satellites": "N, N20",
        "instruments": "VIIRS",
        "popup_label": "<strong>ALERT-20260903-057<\/strong><br>Nivel: informativa<br>Focos: 4<br>Últimas 6 h: 0<br>FRP total: 16.1 MW<br>Última detección UTC: 2026-09-02 14:22:00"
      }
    },
    {
      "type": "Feature",
      "geometry": {
        "type": "Point",
        "coordinates": [-4.9781, 33.9929]
      },
      "properties": {
        "cluster_id": "ALERT-20260903-058",
        "alerta_operativa": "informativa",
        "score": 7.6,
        "n_focos": 2,
        "n_ultimas_6h": 0,
        "n_ultimas_24h": 0,
        "frp_total_mw": 15.6,
        "frp_max_mw": 13.1,
        "edad_min_h": 25.7,
        "ultima_deteccion_utc": "2026-09-02 13:01:00",
        "sensores": "VIIRS_NOAA20_NRT, VIIRS_SNPP_NRT",
        "satellites": "N, N20",
        "instruments": "VIIRS",
        "popup_label": "<strong>ALERT-20260903-058<\/strong><br>Nivel: informativa<br>Focos: 2<br>Últimas 6 h: 0<br>FRP total: 15.6 MW<br>Última detección UTC: 2026-09-02 13:01:00"
      }
    },
    {
      "type": "Feature",
      "geometry": {
        "type": "Point",
        "coordinates": [0.5593, 28.0673]
      },
      "properties": {
        "cluster_id": "ALERT-20260903-059",
        "alerta_operativa": "informativa",
        "score": 7.6,
        "n_focos": 2,
        "n_ultimas_6h": 0,
        "n_ultimas_24h": 0,
        "frp_total_mw": 15.1,
        "frp_max_mw": 7.7,
        "edad_min_h": 26.1,
        "ultima_deteccion_utc": "2026-09-02 12:40:00",
        "sensores": "VIIRS_SNPP_NRT",
        "satellites": "N",
        "instruments": "VIIRS",
        "popup_label": "<strong>ALERT-20260903-059<\/strong><br>Nivel: informativa<br>Focos: 2<br>Últimas 6 h: 0<br>FRP total: 15.1 MW<br>Última detección UTC: 2026-09-02 12:40:00"
      }
    },
    {
      "type": "Feature",
      "geometry": {
        "type": "Point",
        "coordinates": [2.232, 43.2858]
      },
      "properties": {
        "cluster_id": "ALERT-20260903-060",
        "alerta_operativa": "informativa",
        "score": 6.9,
        "n_focos": 2,
        "n_ultimas_6h": 0,
        "n_ultimas_24h": 0,
        "frp_total_mw": 10.6,
        "frp_max_mw": 5.3,
        "edad_min_h": 26,
        "ultima_deteccion_utc": "2026-09-02 12:44:00",
        "sensores": "VIIRS_SNPP_NRT",
        "satellites": "N",
        "instruments": "VIIRS",
        "popup_label": "<strong>ALERT-20260903-060<\/strong><br>Nivel: informativa<br>Focos: 2<br>Últimas 6 h: 0<br>FRP total: 10.6 MW<br>Última detección UTC: 2026-09-02 12:44:00"
      }
    },
    {
      "type": "Feature",
      "geometry": {
        "type": "Point",
        "coordinates": [-6.3794, 37.4146]
      },
      "properties": {
        "cluster_id": "ALERT-20260903-061",
        "alerta_operativa": "informativa",
        "score": 6.7,
        "n_focos": 2,
        "n_ultimas_6h": 0,
        "n_ultimas_24h": 0,
        "frp_total_mw": 9.7,
        "frp_max_mw": 6.3,
        "edad_min_h": 24.3,
        "ultima_deteccion_utc": "2026-09-02 14:25:00",
        "sensores": "VIIRS_SNPP_NRT",
        "satellites": "N",
        "instruments": "VIIRS",
        "popup_label": "<strong>ALERT-20260903-061<\/strong><br>Nivel: informativa<br>Focos: 2<br>Últimas 6 h: 0<br>FRP total: 9.7 MW<br>Última detección UTC: 2026-09-02 14:25:00"
      }
    },
    {
      "type": "Feature",
      "geometry": {
        "type": "Point",
        "coordinates": [0.452, 44.3785]
      },
      "properties": {
        "cluster_id": "ALERT-20260903-062",
        "alerta_operativa": "informativa",
        "score": 6.4,
        "n_focos": 2,
        "n_ultimas_6h": 0,
        "n_ultimas_24h": 0,
        "frp_total_mw": 7.9,
        "frp_max_mw": 4,
        "edad_min_h": 26,
        "ultima_deteccion_utc": "2026-09-02 12:44:00",
        "sensores": "VIIRS_SNPP_NRT",
        "satellites": "N",
        "instruments": "VIIRS",
        "popup_label": "<strong>ALERT-20260903-062<\/strong><br>Nivel: informativa<br>Focos: 2<br>Últimas 6 h: 0<br>FRP total: 7.9 MW<br>Última detección UTC: 2026-09-02 12:44:00"
      }
    },
    {
      "type": "Feature",
      "geometry": {
        "type": "Point",
        "coordinates": [-4.2251, 37.7367]
      },
      "properties": {
        "cluster_id": "ALERT-20260903-063",
        "alerta_operativa": "informativa",
        "score": 6.4,
        "n_focos": 3,
        "n_ultimas_6h": 0,
        "n_ultimas_24h": 0,
        "frp_total_mw": 4.4,
        "frp_max_mw": 1.9,
        "edad_min_h": 35.4,
        "ultima_deteccion_utc": "2026-09-02 03:21:00",
        "sensores": "VIIRS_NOAA20_NRT",
        "satellites": "N20",
        "instruments": "VIIRS",
        "popup_label": "<strong>ALERT-20260903-063<\/strong><br>Nivel: informativa<br>Focos: 3<br>Últimas 6 h: 0<br>FRP total: 4.4 MW<br>Última detección UTC: 2026-09-02 03:21:00"
      }
    },
    {
      "type": "Feature",
      "geometry": {
        "type": "Point",
        "coordinates": [-5.6333, 37.1009]
      },
      "properties": {
        "cluster_id": "ALERT-20260903-064",
        "alerta_operativa": "informativa",
        "score": 6.2,
        "n_focos": 1,
        "n_ultimas_6h": 0,
        "n_ultimas_24h": 0,
        "frp_total_mw": 12.4,
        "frp_max_mw": 12.4,
        "edad_min_h": 25.7,
        "ultima_deteccion_utc": "2026-09-02 13:01:00",
        "sensores": "VIIRS_NOAA20_NRT",
        "satellites": "N20",
        "instruments": "VIIRS",
        "popup_label": "<strong>ALERT-20260903-064<\/strong><br>Nivel: informativa<br>Focos: 1<br>Últimas 6 h: 0<br>FRP total: 12.4 MW<br>Última detección UTC: 2026-09-02 13:01:00"
      }
    },
    {
      "type": "Feature",
      "geometry": {
        "type": "Point",
        "coordinates": [-6.983, 38.8396]
      },
      "properties": {
        "cluster_id": "ALERT-20260903-065",
        "alerta_operativa": "informativa",
        "score": 5.7,
        "n_focos": 2,
        "n_ultimas_6h": 0,
        "n_ultimas_24h": 0,
        "frp_total_mw": 5.4,
        "frp_max_mw": 3.3,
        "edad_min_h": 25.7,
        "ultima_deteccion_utc": "2026-09-02 13:04:00",
        "sensores": "VIIRS_NOAA20_NRT",
        "satellites": "N20",
        "instruments": "VIIRS",
        "popup_label": "<strong>ALERT-20260903-065<\/strong><br>Nivel: informativa<br>Focos: 2<br>Últimas 6 h: 0<br>FRP total: 5.4 MW<br>Última detección UTC: 2026-09-02 13:04:00"
      }
    },
    {
      "type": "Feature",
      "geometry": {
        "type": "Point",
        "coordinates": [-2.281, 36.8366]
      },
      "properties": {
        "cluster_id": "ALERT-20260903-066",
        "alerta_operativa": "informativa",
        "score": 5.6,
        "n_focos": 2,
        "n_ultimas_6h": 0,
        "n_ultimas_24h": 0,
        "frp_total_mw": 5.2,
        "frp_max_mw": 2.9,
        "edad_min_h": 26,
        "ultima_deteccion_utc": "2026-09-02 12:44:00",
        "sensores": "VIIRS_SNPP_NRT",
        "satellites": "N",
        "instruments": "VIIRS",
        "popup_label": "<strong>ALERT-20260903-066<\/strong><br>Nivel: informativa<br>Focos: 2<br>Últimas 6 h: 0<br>FRP total: 5.2 MW<br>Última detección UTC: 2026-09-02 12:44:00"
      }
    },
    {
      "type": "Feature",
      "geometry": {
        "type": "Point",
        "coordinates": [2.721, 42.2011]
      },
      "properties": {
        "cluster_id": "ALERT-20260903-067",
        "alerta_operativa": "informativa",
        "score": 5.4,
        "n_focos": 1,
        "n_ultimas_6h": 0,
        "n_ultimas_24h": 0,
        "frp_total_mw": 7.9,
        "frp_max_mw": 7.9,
        "edad_min_h": 26,
        "ultima_deteccion_utc": "2026-09-02 12:44:00",
        "sensores": "VIIRS_SNPP_NRT",
        "satellites": "N",
        "instruments": "VIIRS",
        "popup_label": "<strong>ALERT-20260903-067<\/strong><br>Nivel: informativa<br>Focos: 1<br>Últimas 6 h: 0<br>FRP total: 7.9 MW<br>Última detección UTC: 2026-09-02 12:44:00"
      }
    },
    {
      "type": "Feature",
      "geometry": {
        "type": "Point",
        "coordinates": [3.5197, 34.957]
      },
      "properties": {
        "cluster_id": "ALERT-20260903-068",
        "alerta_operativa": "informativa",
        "score": 5.2,
        "n_focos": 1,
        "n_ultimas_6h": 0,
        "n_ultimas_24h": 0,
        "frp_total_mw": 7.1,
        "frp_max_mw": 7.1,
        "edad_min_h": 25.7,
        "ultima_deteccion_utc": "2026-09-02 13:01:00",
        "sensores": "VIIRS_NOAA20_NRT",
        "satellites": "N20",
        "instruments": "VIIRS",
        "popup_label": "<strong>ALERT-20260903-068<\/strong><br>Nivel: informativa<br>Focos: 1<br>Últimas 6 h: 0<br>FRP total: 7.1 MW<br>Última detección UTC: 2026-09-02 13:01:00"
      }
    },
    {
      "type": "Feature",
      "geometry": {
        "type": "Point",
        "coordinates": [1.9477, 43.6528]
      },
      "properties": {
        "cluster_id": "ALERT-20260903-069",
        "alerta_operativa": "informativa",
        "score": 4.9,
        "n_focos": 1,
        "n_ultimas_6h": 0,
        "n_ultimas_24h": 0,
        "frp_total_mw": 5.9,
        "frp_max_mw": 5.9,
        "edad_min_h": 26,
        "ultima_deteccion_utc": "2026-09-02 12:44:00",
        "sensores": "VIIRS_SNPP_NRT",
        "satellites": "N",
        "instruments": "VIIRS",
        "popup_label": "<strong>ALERT-20260903-069<\/strong><br>Nivel: informativa<br>Focos: 1<br>Últimas 6 h: 0<br>FRP total: 5.9 MW<br>Última detección UTC: 2026-09-02 12:44:00"
      }
    },
    {
      "type": "Feature",
      "geometry": {
        "type": "Point",
        "coordinates": [2.1443, 44.0366]
      },
      "properties": {
        "cluster_id": "ALERT-20260903-070",
        "alerta_operativa": "informativa",
        "score": 4.6,
        "n_focos": 2,
        "n_ultimas_6h": 0,
        "n_ultimas_24h": 0,
        "frp_total_mw": 2.7,
        "frp_max_mw": 1.4,
        "edad_min_h": 26,
        "ultima_deteccion_utc": "2026-09-02 12:44:00",
        "sensores": "VIIRS_SNPP_NRT",
        "satellites": "N",
        "instruments": "VIIRS",
        "popup_label": "<strong>ALERT-20260903-070<\/strong><br>Nivel: informativa<br>Focos: 2<br>Últimas 6 h: 0<br>FRP total: 2.7 MW<br>Última detección UTC: 2026-09-02 12:44:00"
      }
    },
    {
      "type": "Feature",
      "geometry": {
        "type": "Point",
        "coordinates": [1.9013, 41.4935]
      },
      "properties": {
        "cluster_id": "ALERT-20260903-071",
        "alerta_operativa": "informativa",
        "score": 4.5,
        "n_focos": 1,
        "n_ultimas_6h": 0,
        "n_ultimas_24h": 0,
        "frp_total_mw": 4.7,
        "frp_max_mw": 4.7,
        "edad_min_h": 26,
        "ultima_deteccion_utc": "2026-09-02 12:44:00",
        "sensores": "VIIRS_SNPP_NRT",
        "satellites": "N",
        "instruments": "VIIRS",
        "popup_label": "<strong>ALERT-20260903-071<\/strong><br>Nivel: informativa<br>Focos: 1<br>Últimas 6 h: 0<br>FRP total: 4.7 MW<br>Última detección UTC: 2026-09-02 12:44:00"
      }
    },
    {
      "type": "Feature",
      "geometry": {
        "type": "Point",
        "coordinates": [-3.6195, 40.4676]
      },
      "properties": {
        "cluster_id": "ALERT-20260903-072",
        "alerta_operativa": "informativa",
        "score": 4.4,
        "n_focos": 1,
        "n_ultimas_6h": 0,
        "n_ultimas_24h": 0,
        "frp_total_mw": 4.6,
        "frp_max_mw": 4.6,
        "edad_min_h": 25.7,
        "ultima_deteccion_utc": "2026-09-02 13:04:00",
        "sensores": "VIIRS_NOAA20_NRT",
        "satellites": "N20",
        "instruments": "VIIRS",
        "popup_label": "<strong>ALERT-20260903-072<\/strong><br>Nivel: informativa<br>Focos: 1<br>Últimas 6 h: 0<br>FRP total: 4.6 MW<br>Última detección UTC: 2026-09-02 13:04:00"
      }
    },
    {
      "type": "Feature",
      "geometry": {
        "type": "Point",
        "coordinates": [3.4447, 39.7144]
      },
      "properties": {
        "cluster_id": "ALERT-20260903-073",
        "alerta_operativa": "informativa",
        "score": 4.2,
        "n_focos": 1,
        "n_ultimas_6h": 0,
        "n_ultimas_24h": 0,
        "frp_total_mw": 4,
        "frp_max_mw": 4,
        "edad_min_h": 26,
        "ultima_deteccion_utc": "2026-09-02 12:44:00",
        "sensores": "VIIRS_SNPP_NRT",
        "satellites": "N",
        "instruments": "VIIRS",
        "popup_label": "<strong>ALERT-20260903-073<\/strong><br>Nivel: informativa<br>Focos: 1<br>Últimas 6 h: 0<br>FRP total: 4 MW<br>Última detección UTC: 2026-09-02 12:44:00"
      }
    },
    {
      "type": "Feature",
      "geometry": {
        "type": "Point",
        "coordinates": [3.3928, 32.8428]
      },
      "properties": {
        "cluster_id": "ALERT-20260903-074",
        "alerta_operativa": "informativa",
        "score": 4.1,
        "n_focos": 1,
        "n_ultimas_6h": 0,
        "n_ultimas_24h": 0,
        "frp_total_mw": 3.7,
        "frp_max_mw": 3.7,
        "edad_min_h": 25.7,
        "ultima_deteccion_utc": "2026-09-02 13:01:00",
        "sensores": "VIIRS_NOAA20_NRT",
        "satellites": "N20",
        "instruments": "VIIRS",
        "popup_label": "<strong>ALERT-20260903-074<\/strong><br>Nivel: informativa<br>Focos: 1<br>Últimas 6 h: 0<br>FRP total: 3.7 MW<br>Última detección UTC: 2026-09-02 13:01:00"
      }
    },
    {
      "type": "Feature",
      "geometry": {
        "type": "Point",
        "coordinates": [3.126, 44.019]
      },
      "properties": {
        "cluster_id": "ALERT-20260903-075",
        "alerta_operativa": "informativa",
        "score": 4.1,
        "n_focos": 1,
        "n_ultimas_6h": 0,
        "n_ultimas_24h": 0,
        "frp_total_mw": 3.6,
        "frp_max_mw": 3.6,
        "edad_min_h": 26,
        "ultima_deteccion_utc": "2026-09-02 12:44:00",
        "sensores": "VIIRS_SNPP_NRT",
        "satellites": "N",
        "instruments": "VIIRS",
        "popup_label": "<strong>ALERT-20260903-075<\/strong><br>Nivel: informativa<br>Focos: 1<br>Últimas 6 h: 0<br>FRP total: 3.6 MW<br>Última detección UTC: 2026-09-02 12:44:00"
      }
    },
    {
      "type": "Feature",
      "geometry": {
        "type": "Point",
        "coordinates": [4.1448, 32.0747]
      },
      "properties": {
        "cluster_id": "ALERT-20260903-076",
        "alerta_operativa": "informativa",
        "score": 3.8,
        "n_focos": 1,
        "n_ultimas_6h": 0,
        "n_ultimas_24h": 0,
        "frp_total_mw": 3.1,
        "frp_max_mw": 3.1,
        "edad_min_h": 25.8,
        "ultima_deteccion_utc": "2026-09-02 12:59:00",
        "sensores": "VIIRS_NOAA20_NRT",
        "satellites": "N20",
        "instruments": "VIIRS",
        "popup_label": "<strong>ALERT-20260903-076<\/strong><br>Nivel: informativa<br>Focos: 1<br>Últimas 6 h: 0<br>FRP total: 3.1 MW<br>Última detección UTC: 2026-09-02 12:59:00"
      }
    },
    {
      "type": "Feature",
      "geometry": {
        "type": "Point",
        "coordinates": [2.2815, 42.9652]
      },
      "properties": {
        "cluster_id": "ALERT-20260903-077",
        "alerta_operativa": "informativa",
        "score": 3.8,
        "n_focos": 1,
        "n_ultimas_6h": 0,
        "n_ultimas_24h": 0,
        "frp_total_mw": 3,
        "frp_max_mw": 3,
        "edad_min_h": 26,
        "ultima_deteccion_utc": "2026-09-02 12:44:00",
        "sensores": "VIIRS_SNPP_NRT",
        "satellites": "N",
        "instruments": "VIIRS",
        "popup_label": "<strong>ALERT-20260903-077<\/strong><br>Nivel: informativa<br>Focos: 1<br>Últimas 6 h: 0<br>FRP total: 3 MW<br>Última detección UTC: 2026-09-02 12:44:00"
      }
    },
    {
      "type": "Feature",
      "geometry": {
        "type": "Point",
        "coordinates": [2.0585, 34.0813]
      },
      "properties": {
        "cluster_id": "ALERT-20260903-078",
        "alerta_operativa": "informativa",
        "score": 3.8,
        "n_focos": 1,
        "n_ultimas_6h": 0,
        "n_ultimas_24h": 0,
        "frp_total_mw": 3,
        "frp_max_mw": 3,
        "edad_min_h": 25.7,
        "ultima_deteccion_utc": "2026-09-02 13:01:00",
        "sensores": "VIIRS_NOAA20_NRT",
        "satellites": "N20",
        "instruments": "VIIRS",
        "popup_label": "<strong>ALERT-20260903-078<\/strong><br>Nivel: informativa<br>Focos: 1<br>Últimas 6 h: 0<br>FRP total: 3 MW<br>Última detección UTC: 2026-09-02 13:01:00"
      }
    },
    {
      "type": "Feature",
      "geometry": {
        "type": "Point",
        "coordinates": [1.9511, 43.2784]
      },
      "properties": {
        "cluster_id": "ALERT-20260903-079",
        "alerta_operativa": "informativa",
        "score": 3.6,
        "n_focos": 1,
        "n_ultimas_6h": 0,
        "n_ultimas_24h": 0,
        "frp_total_mw": 2.6,
        "frp_max_mw": 2.6,
        "edad_min_h": 26,
        "ultima_deteccion_utc": "2026-09-02 12:44:00",
        "sensores": "VIIRS_SNPP_NRT",
        "satellites": "N",
        "instruments": "VIIRS",
        "popup_label": "<strong>ALERT-20260903-079<\/strong><br>Nivel: informativa<br>Focos: 1<br>Últimas 6 h: 0<br>FRP total: 2.6 MW<br>Última detección UTC: 2026-09-02 12:44:00"
      }
    },
    {
      "type": "Feature",
      "geometry": {
        "type": "Point",
        "coordinates": [-6.2574, 38.5037]
      },
      "properties": {
        "cluster_id": "ALERT-20260903-080",
        "alerta_operativa": "informativa",
        "score": 3.6,
        "n_focos": 2,
        "n_ultimas_6h": 0,
        "n_ultimas_24h": 0,
        "frp_total_mw": 1.2,
        "frp_max_mw": 0.7,
        "edad_min_h": 35.7,
        "ultima_deteccion_utc": "2026-09-02 03:02:00",
        "sensores": "VIIRS_SNPP_NRT",
        "satellites": "N",
        "instruments": "VIIRS",
        "popup_label": "<strong>ALERT-20260903-080<\/strong><br>Nivel: informativa<br>Focos: 2<br>Últimas 6 h: 0<br>FRP total: 1.2 MW<br>Última detección UTC: 2026-09-02 03:02:00"
      }
    },
    {
      "type": "Feature",
      "geometry": {
        "type": "Point",
        "coordinates": [-6.6618, 37.3427]
      },
      "properties": {
        "cluster_id": "ALERT-20260903-081",
        "alerta_operativa": "informativa",
        "score": 3.6,
        "n_focos": 2,
        "n_ultimas_6h": 0,
        "n_ultimas_24h": 0,
        "frp_total_mw": 1.2,
        "frp_max_mw": 0.7,
        "edad_min_h": 37,
        "ultima_deteccion_utc": "2026-09-02 01:43:00",
        "sensores": "VIIRS_NOAA20_NRT",
        "satellites": "N20",
        "instruments": "VIIRS",
        "popup_label": "<strong>ALERT-20260903-081<\/strong><br>Nivel: informativa<br>Focos: 2<br>Últimas 6 h: 0<br>FRP total: 1.2 MW<br>Última detección UTC: 2026-09-02 01:43:00"
      }
    },
    {
      "type": "Feature",
      "geometry": {
        "type": "Point",
        "coordinates": [3.3714, 39.6173]
      },
      "properties": {
        "cluster_id": "ALERT-20260903-082",
        "alerta_operativa": "informativa",
        "score": 3.5,
        "n_focos": 1,
        "n_ultimas_6h": 0,
        "n_ultimas_24h": 0,
        "frp_total_mw": 2.5,
        "frp_max_mw": 2.5,
        "edad_min_h": 26,
        "ultima_deteccion_utc": "2026-09-02 12:44:00",
        "sensores": "VIIRS_SNPP_NRT",
        "satellites": "N",
        "instruments": "VIIRS",
        "popup_label": "<strong>ALERT-20260903-082<\/strong><br>Nivel: informativa<br>Focos: 1<br>Últimas 6 h: 0<br>FRP total: 2.5 MW<br>Última detección UTC: 2026-09-02 12:44:00"
      }
    },
    {
      "type": "Feature",
      "geometry": {
        "type": "Point",
        "coordinates": [3.0572, 42.2983]
      },
      "properties": {
        "cluster_id": "ALERT-20260903-083",
        "alerta_operativa": "informativa",
        "score": 3.4,
        "n_focos": 1,
        "n_ultimas_6h": 0,
        "n_ultimas_24h": 0,
        "frp_total_mw": 2.4,
        "frp_max_mw": 2.4,
        "edad_min_h": 26,
        "ultima_deteccion_utc": "2026-09-02 12:44:00",
        "sensores": "VIIRS_SNPP_NRT",
        "satellites": "N",
        "instruments": "VIIRS",
        "popup_label": "<strong>ALERT-20260903-083<\/strong><br>Nivel: informativa<br>Focos: 1<br>Últimas 6 h: 0<br>FRP total: 2.4 MW<br>Última detección UTC: 2026-09-02 12:44:00"
      }
    },
    {
      "type": "Feature",
      "geometry": {
        "type": "Point",
        "coordinates": [1.6934, 43.7452]
      },
      "properties": {
        "cluster_id": "ALERT-20260903-084",
        "alerta_operativa": "informativa",
        "score": 3.4,
        "n_focos": 1,
        "n_ultimas_6h": 0,
        "n_ultimas_24h": 0,
        "frp_total_mw": 2.4,
        "frp_max_mw": 2.4,
        "edad_min_h": 26,
        "ultima_deteccion_utc": "2026-09-02 12:44:00",
        "sensores": "VIIRS_SNPP_NRT",
        "satellites": "N",
        "instruments": "VIIRS",
        "popup_label": "<strong>ALERT-20260903-084<\/strong><br>Nivel: informativa<br>Focos: 1<br>Últimas 6 h: 0<br>FRP total: 2.4 MW<br>Última detección UTC: 2026-09-02 12:44:00"
      }
    },
    {
      "type": "Feature",
      "geometry": {
        "type": "Point",
        "coordinates": [1.3517, 44.0637]
      },
      "properties": {
        "cluster_id": "ALERT-20260903-085",
        "alerta_operativa": "informativa",
        "score": 3.4,
        "n_focos": 1,
        "n_ultimas_6h": 0,
        "n_ultimas_24h": 0,
        "frp_total_mw": 2.3,
        "frp_max_mw": 2.3,
        "edad_min_h": 26,
        "ultima_deteccion_utc": "2026-09-02 12:44:00",
        "sensores": "VIIRS_SNPP_NRT",
        "satellites": "N",
        "instruments": "VIIRS",
        "popup_label": "<strong>ALERT-20260903-085<\/strong><br>Nivel: informativa<br>Focos: 1<br>Últimas 6 h: 0<br>FRP total: 2.3 MW<br>Última detección UTC: 2026-09-02 12:44:00"
      }
    },
    {
      "type": "Feature",
      "geometry": {
        "type": "Point",
        "coordinates": [-8.088, 41.2866]
      },
      "properties": {
        "cluster_id": "ALERT-20260903-086",
        "alerta_operativa": "informativa",
        "score": 3.3,
        "n_focos": 1,
        "n_ultimas_6h": 0,
        "n_ultimas_24h": 0,
        "frp_total_mw": 2.2,
        "frp_max_mw": 2.2,
        "edad_min_h": 25.7,
        "ultima_deteccion_utc": "2026-09-02 13:04:00",
        "sensores": "VIIRS_NOAA20_NRT",
        "satellites": "N20",
        "instruments": "VIIRS",
        "popup_label": "<strong>ALERT-20260903-086<\/strong><br>Nivel: informativa<br>Focos: 1<br>Últimas 6 h: 0<br>FRP total: 2.2 MW<br>Última detección UTC: 2026-09-02 13:04:00"
      }
    },
    {
      "type": "Feature",
      "geometry": {
        "type": "Point",
        "coordinates": [2.5894, 42.6838]
      },
      "properties": {
        "cluster_id": "ALERT-20260903-087",
        "alerta_operativa": "informativa",
        "score": 3.3,
        "n_focos": 1,
        "n_ultimas_6h": 0,
        "n_ultimas_24h": 0,
        "frp_total_mw": 2.1,
        "frp_max_mw": 2.1,
        "edad_min_h": 26,
        "ultima_deteccion_utc": "2026-09-02 12:44:00",
        "sensores": "VIIRS_SNPP_NRT",
        "satellites": "N",
        "instruments": "VIIRS",
        "popup_label": "<strong>ALERT-20260903-087<\/strong><br>Nivel: informativa<br>Focos: 1<br>Últimas 6 h: 0<br>FRP total: 2.1 MW<br>Última detección UTC: 2026-09-02 12:44:00"
      }
    },
    {
      "type": "Feature",
      "geometry": {
        "type": "Point",
        "coordinates": [-0.3966, 35.4606]
      },
      "properties": {
        "cluster_id": "ALERT-20260903-088",
        "alerta_operativa": "informativa",
        "score": 3,
        "n_focos": 1,
        "n_ultimas_6h": 0,
        "n_ultimas_24h": 0,
        "frp_total_mw": 1.7,
        "frp_max_mw": 1.7,
        "edad_min_h": 37.1,
        "ultima_deteccion_utc": "2026-09-02 01:41:00",
        "sensores": "VIIRS_NOAA20_NRT",
        "satellites": "N20",
        "instruments": "VIIRS",
        "popup_label": "<strong>ALERT-20260903-088<\/strong><br>Nivel: informativa<br>Focos: 1<br>Últimas 6 h: 0<br>FRP total: 1.7 MW<br>Última detección UTC: 2026-09-02 01:41:00"
      }
    },
    {
      "type": "Feature",
      "geometry": {
        "type": "Point",
        "coordinates": [-4.8443, 40.9385]
      },
      "properties": {
        "cluster_id": "ALERT-20260903-089",
        "alerta_operativa": "informativa",
        "score": 2.9,
        "n_focos": 1,
        "n_ultimas_6h": 0,
        "n_ultimas_24h": 0,
        "frp_total_mw": 1.6,
        "frp_max_mw": 1.6,
        "edad_min_h": 25.7,
        "ultima_deteccion_utc": "2026-09-02 13:04:00",
        "sensores": "VIIRS_NOAA20_NRT",
        "satellites": "N20",
        "instruments": "VIIRS",
        "popup_label": "<strong>ALERT-20260903-089<\/strong><br>Nivel: informativa<br>Focos: 1<br>Últimas 6 h: 0<br>FRP total: 1.6 MW<br>Última detección UTC: 2026-09-02 13:04:00"
      }
    },
    {
      "type": "Feature",
      "geometry": {
        "type": "Point",
        "coordinates": [3.449, 36.7238]
      },
      "properties": {
        "cluster_id": "ALERT-20260903-090",
        "alerta_operativa": "informativa",
        "score": 2.9,
        "n_focos": 1,
        "n_ultimas_6h": 0,
        "n_ultimas_24h": 0,
        "frp_total_mw": 1.6,
        "frp_max_mw": 1.6,
        "edad_min_h": 37,
        "ultima_deteccion_utc": "2026-09-02 01:43:00",
        "sensores": "VIIRS_NOAA20_NRT",
        "satellites": "N20",
        "instruments": "VIIRS",
        "popup_label": "<strong>ALERT-20260903-090<\/strong><br>Nivel: informativa<br>Focos: 1<br>Últimas 6 h: 0<br>FRP total: 1.6 MW<br>Última detección UTC: 2026-09-02 01:43:00"
      }
    },
    {
      "type": "Feature",
      "geometry": {
        "type": "Point",
        "coordinates": [-2.6725, 42.8632]
      },
      "properties": {
        "cluster_id": "ALERT-20260903-091",
        "alerta_operativa": "informativa",
        "score": 2.6,
        "n_focos": 1,
        "n_ultimas_6h": 0,
        "n_ultimas_24h": 0,
        "frp_total_mw": 1.2,
        "frp_max_mw": 1.2,
        "edad_min_h": 26,
        "ultima_deteccion_utc": "2026-09-02 12:44:00",
        "sensores": "VIIRS_SNPP_NRT",
        "satellites": "N",
        "instruments": "VIIRS",
        "popup_label": "<strong>ALERT-20260903-091<\/strong><br>Nivel: informativa<br>Focos: 1<br>Últimas 6 h: 0<br>FRP total: 1.2 MW<br>Última detección UTC: 2026-09-02 12:44:00"
      }
    },
    {
      "type": "Feature",
      "geometry": {
        "type": "Point",
        "coordinates": [-1.9042, 36.967]
      },
      "properties": {
        "cluster_id": "ALERT-20260903-092",
        "alerta_operativa": "informativa",
        "score": 2.6,
        "n_focos": 1,
        "n_ultimas_6h": 0,
        "n_ultimas_24h": 0,
        "frp_total_mw": 1.2,
        "frp_max_mw": 1.2,
        "edad_min_h": 37,
        "ultima_deteccion_utc": "2026-09-02 01:43:00",
        "sensores": "VIIRS_NOAA20_NRT",
        "satellites": "N20",
        "instruments": "VIIRS",
        "popup_label": "<strong>ALERT-20260903-092<\/strong><br>Nivel: informativa<br>Focos: 1<br>Últimas 6 h: 0<br>FRP total: 1.2 MW<br>Última detección UTC: 2026-09-02 01:43:00"
      }
    },
    {
      "type": "Feature",
      "geometry": {
        "type": "Point",
        "coordinates": [4.9175, 43.6658]
      },
      "properties": {
        "cluster_id": "ALERT-20260903-093",
        "alerta_operativa": "informativa",
        "score": 2.5,
        "n_focos": 1,
        "n_ultimas_6h": 0,
        "n_ultimas_24h": 0,
        "frp_total_mw": 1.1,
        "frp_max_mw": 1.1,
        "edad_min_h": 25.7,
        "ultima_deteccion_utc": "2026-09-02 13:04:00",
        "sensores": "VIIRS_NOAA20_NRT",
        "satellites": "N20",
        "instruments": "VIIRS",
        "popup_label": "<strong>ALERT-20260903-093<\/strong><br>Nivel: informativa<br>Focos: 1<br>Últimas 6 h: 0<br>FRP total: 1.1 MW<br>Última detección UTC: 2026-09-02 13:04:00"
      }
    },
    {
      "type": "Feature",
      "geometry": {
        "type": "Point",
        "coordinates": [-1.8112, 37.5128]
      },
      "properties": {
        "cluster_id": "ALERT-20260903-094",
        "alerta_operativa": "informativa",
        "score": 2.5,
        "n_focos": 1,
        "n_ultimas_6h": 0,
        "n_ultimas_24h": 0,
        "frp_total_mw": 1.1,
        "frp_max_mw": 1.1,
        "edad_min_h": 37,
        "ultima_deteccion_utc": "2026-09-02 01:43:00",
        "sensores": "VIIRS_NOAA20_NRT",
        "satellites": "N20",
        "instruments": "VIIRS",
        "popup_label": "<strong>ALERT-20260903-094<\/strong><br>Nivel: informativa<br>Focos: 1<br>Últimas 6 h: 0<br>FRP total: 1.1 MW<br>Última detección UTC: 2026-09-02 01:43:00"
      }
    },
    {
      "type": "Feature",
      "geometry": {
        "type": "Point",
        "coordinates": [-0.9189, 37.5698]
      },
      "properties": {
        "cluster_id": "ALERT-20260903-095",
        "alerta_operativa": "informativa",
        "score": 2.4,
        "n_focos": 1,
        "n_ultimas_6h": 0,
        "n_ultimas_24h": 0,
        "frp_total_mw": 1,
        "frp_max_mw": 1,
        "edad_min_h": 37.4,
        "ultima_deteccion_utc": "2026-09-02 01:22:00",
        "sensores": "VIIRS_SNPP_NRT",
        "satellites": "N",
        "instruments": "VIIRS",
        "popup_label": "<strong>ALERT-20260903-095<\/strong><br>Nivel: informativa<br>Focos: 1<br>Últimas 6 h: 0<br>FRP total: 1 MW<br>Última detección UTC: 2026-09-02 01:22:00"
      }
    },
    {
      "type": "Feature",
      "geometry": {
        "type": "Point",
        "coordinates": [-3.8399, 43.4113]
      },
      "properties": {
        "cluster_id": "ALERT-20260903-096",
        "alerta_operativa": "informativa",
        "score": 2.4,
        "n_focos": 1,
        "n_ultimas_6h": 0,
        "n_ultimas_24h": 0,
        "frp_total_mw": 1,
        "frp_max_mw": 1,
        "edad_min_h": 37.4,
        "ultima_deteccion_utc": "2026-09-02 01:20:00",
        "sensores": "VIIRS_SNPP_NRT",
        "satellites": "N",
        "instruments": "VIIRS",
        "popup_label": "<strong>ALERT-20260903-096<\/strong><br>Nivel: informativa<br>Focos: 1<br>Últimas 6 h: 0<br>FRP total: 1 MW<br>Última detección UTC: 2026-09-02 01:20:00"
      }
    },
    {
      "type": "Feature",
      "geometry": {
        "type": "Point",
        "coordinates": [0.5413, 40.5753]
      },
      "properties": {
        "cluster_id": "ALERT-20260903-097",
        "alerta_operativa": "informativa",
        "score": 2.3,
        "n_focos": 1,
        "n_ultimas_6h": 0,
        "n_ultimas_24h": 0,
        "frp_total_mw": 0.9,
        "frp_max_mw": 0.9,
        "edad_min_h": 37.4,
        "ultima_deteccion_utc": "2026-09-02 01:22:00",
        "sensores": "VIIRS_SNPP_NRT",
        "satellites": "N",
        "instruments": "VIIRS",
        "popup_label": "<strong>ALERT-20260903-097<\/strong><br>Nivel: informativa<br>Focos: 1<br>Últimas 6 h: 0<br>FRP total: 0.9 MW<br>Última detección UTC: 2026-09-02 01:22:00"
      }
    },
    {
      "type": "Feature",
      "geometry": {
        "type": "Point",
        "coordinates": [0.3299, 34.8003]
      },
      "properties": {
        "cluster_id": "ALERT-20260903-098",
        "alerta_operativa": "informativa",
        "score": 2.2,
        "n_focos": 1,
        "n_ultimas_6h": 0,
        "n_ultimas_24h": 0,
        "frp_total_mw": 0.8,
        "frp_max_mw": 0.8,
        "edad_min_h": 37.1,
        "ultima_deteccion_utc": "2026-09-02 01:41:00",
        "sensores": "VIIRS_NOAA20_NRT",
        "satellites": "N20",
        "instruments": "VIIRS",
        "popup_label": "<strong>ALERT-20260903-098<\/strong><br>Nivel: informativa<br>Focos: 1<br>Últimas 6 h: 0<br>FRP total: 0.8 MW<br>Última detección UTC: 2026-09-02 01:41:00"
      }
    },
    {
      "type": "Feature",
      "geometry": {
        "type": "Point",
        "coordinates": [-2.2218, 43.036]
      },
      "properties": {
        "cluster_id": "ALERT-20260903-099",
        "alerta_operativa": "informativa",
        "score": 1.8,
        "n_focos": 1,
        "n_ultimas_6h": 0,
        "n_ultimas_24h": 0,
        "frp_total_mw": 0.5,
        "frp_max_mw": 0.5,
        "edad_min_h": 37.1,
        "ultima_deteccion_utc": "2026-09-02 01:41:00",
        "sensores": "VIIRS_NOAA20_NRT",
        "satellites": "N20",
        "instruments": "VIIRS",
        "popup_label": "<strong>ALERT-20260903-099<\/strong><br>Nivel: informativa<br>Focos: 1<br>Últimas 6 h: 0<br>FRP total: 0.5 MW<br>Última detección UTC: 2026-09-02 01:41:00"
      }
    },
    {
      "type": "Feature",
      "geometry": {
        "type": "Point",
        "coordinates": [-8.4369, 43.3471]
      },
      "properties": {
        "cluster_id": "ALERT-20260903-100",
        "alerta_operativa": "informativa",
        "score": 1.8,
        "n_focos": 1,
        "n_ultimas_6h": 0,
        "n_ultimas_24h": 0,
        "frp_total_mw": 0.5,
        "frp_max_mw": 0.5,
        "edad_min_h": 37.1,
        "ultima_deteccion_utc": "2026-09-02 01:41:00",
        "sensores": "VIIRS_NOAA20_NRT",
        "satellites": "N20",
        "instruments": "VIIRS",
        "popup_label": "<strong>ALERT-20260903-100<\/strong><br>Nivel: informativa<br>Focos: 1<br>Últimas 6 h: 0<br>FRP total: 0.5 MW<br>Última detección UTC: 2026-09-02 01:41:00"
      }
    },
    {
      "type": "Feature",
      "geometry": {
        "type": "Point",
        "coordinates": [1.8982, 30.9136]
      },
      "properties": {
        "cluster_id": "ALERT-20260903-101",
        "alerta_operativa": "informativa",
        "score": 1.7,
        "n_focos": 1,
        "n_ultimas_6h": 0,
        "n_ultimas_24h": 0,
        "frp_total_mw": 0.4,
        "frp_max_mw": 0.4,
        "edad_min_h": 37,
        "ultima_deteccion_utc": "2026-09-02 01:43:00",
        "sensores": "VIIRS_NOAA20_NRT",
        "satellites": "N20",
        "instruments": "VIIRS",
        "popup_label": "<strong>ALERT-20260903-101<\/strong><br>Nivel: informativa<br>Focos: 1<br>Últimas 6 h: 0<br>FRP total: 0.4 MW<br>Última detección UTC: 2026-09-02 01:43:00"
      }
    },
    {
      "type": "Feature",
      "geometry": {
        "type": "Point",
        "coordinates": [-3.9736, 42.1906]
      },
      "properties": {
        "cluster_id": "ALERT-20260903-102",
        "alerta_operativa": "informativa",
        "score": 1.5,
        "n_focos": 1,
        "n_ultimas_6h": 0,
        "n_ultimas_24h": 0,
        "frp_total_mw": 0.3,
        "frp_max_mw": 0.3,
        "edad_min_h": 35.7,
        "ultima_deteccion_utc": "2026-09-02 03:02:00",
        "sensores": "VIIRS_SNPP_NRT",
        "satellites": "N",
        "instruments": "VIIRS",
        "popup_label": "<strong>ALERT-20260903-102<\/strong><br>Nivel: informativa<br>Focos: 1<br>Últimas 6 h: 0<br>FRP total: 0.3 MW<br>Última detección UTC: 2026-09-02 03:02:00"
      }
    }
  ]
}
