{
  "type": "FeatureCollection",
  "features": [
    {
      "type": "Feature",
      "geometry": {
        "type": "Point",
        "coordinates": [4.8946, 43.4413]
      },
      "properties": {
        "cluster_id": "ALERT-20260918-001",
        "alerta_operativa": "alta",
        "score": 205.3,
        "n_focos": 44,
        "n_ultimas_6h": 19,
        "n_ultimas_24h": 29,
        "frp_total_mw": 63.8,
        "frp_max_mw": 6.5,
        "edad_min_h": 4.6,
        "ultima_deteccion_utc": "2026-09-18 03:00:00",
        "sensores": "VIIRS_NOAA20_NRT, VIIRS_SNPP_NRT",
        "satellites": "N, N20",
        "instruments": "VIIRS",
        "popup_label": "<strong>ALERT-20260918-001<\/strong><br>Nivel: alta<br>Focos: 44<br>Últimas 6 h: 19<br>FRP total: 63.8 MW<br>Última detección UTC: 2026-09-18 03:00:00"
      }
    },
    {
      "type": "Feature",
      "geometry": {
        "type": "Point",
        "coordinates": [-0.2541, 35.8071]
      },
      "properties": {
        "cluster_id": "ALERT-20260918-002",
        "alerta_operativa": "alta",
        "score": 99.3,
        "n_focos": 32,
        "n_ultimas_6h": 6,
        "n_ultimas_24h": 14,
        "frp_total_mw": 103.9,
        "frp_max_mw": 13.6,
        "edad_min_h": 5.9,
        "ultima_deteccion_utc": "2026-09-18 01:41:00",
        "sensores": "VIIRS_NOAA20_NRT, VIIRS_SNPP_NRT",
        "satellites": "N, N20",
        "instruments": "VIIRS",
        "popup_label": "<strong>ALERT-20260918-002<\/strong><br>Nivel: alta<br>Focos: 32<br>Últimas 6 h: 6<br>FRP total: 103.9 MW<br>Última detección UTC: 2026-09-18 01:41:00"
      }
    },
    {
      "type": "Feature",
      "geometry": {
        "type": "Point",
        "coordinates": [-8.3422, 41.7364]
      },
      "properties": {
        "cluster_id": "ALERT-20260918-003",
        "alerta_operativa": "alta",
        "score": 81.3,
        "n_focos": 38,
        "n_ultimas_6h": 0,
        "n_ultimas_24h": 16,
        "frp_total_mw": 282.6,
        "frp_max_mw": 26.6,
        "edad_min_h": 16.8,
        "ultima_deteccion_utc": "2026-09-17 14:44:00",
        "sensores": "VIIRS_NOAA20_NRT, VIIRS_SNPP_NRT",
        "satellites": "N, N20",
        "instruments": "VIIRS",
        "popup_label": "<strong>ALERT-20260918-003<\/strong><br>Nivel: alta<br>Focos: 38<br>Últimas 6 h: 0<br>FRP total: 282.6 MW<br>Última detección UTC: 2026-09-17 14:44:00"
      }
    },
    {
      "type": "Feature",
      "geometry": {
        "type": "Point",
        "coordinates": [-5.7746, 38.9124]
      },
      "properties": {
        "cluster_id": "ALERT-20260918-004",
        "alerta_operativa": "alta",
        "score": 64.7,
        "n_focos": 11,
        "n_ultimas_6h": 5,
        "n_ultimas_24h": 11,
        "frp_total_mw": 27.8,
        "frp_max_mw": 5.7,
        "edad_min_h": 4.2,
        "ultima_deteccion_utc": "2026-09-18 03:21:00",
        "sensores": "VIIRS_NOAA20_NRT, VIIRS_SNPP_NRT",
        "satellites": "N, N20",
        "instruments": "VIIRS",
        "popup_label": "<strong>ALERT-20260918-004<\/strong><br>Nivel: alta<br>Focos: 11<br>Últimas 6 h: 5<br>FRP total: 27.8 MW<br>Última detección UTC: 2026-09-18 03:21:00"
      }
    },
    {
      "type": "Feature",
      "geometry": {
        "type": "Point",
        "coordinates": [-1.1369, 44.1407]
      },
      "properties": {
        "cluster_id": "ALERT-20260918-005",
        "alerta_operativa": "alta",
        "score": 63.8,
        "n_focos": 11,
        "n_ultimas_6h": 4,
        "n_ultimas_24h": 11,
        "frp_total_mw": 224.3,
        "frp_max_mw": 44.7,
        "edad_min_h": 5.9,
        "ultima_deteccion_utc": "2026-09-18 01:41:00",
        "sensores": "VIIRS_NOAA20_NRT, VIIRS_SNPP_NRT",
        "satellites": "N, N20",
        "instruments": "VIIRS",
        "popup_label": "<strong>ALERT-20260918-005<\/strong><br>Nivel: alta<br>Focos: 11<br>Últimas 6 h: 4<br>FRP total: 224.3 MW<br>Última detección UTC: 2026-09-18 01:41:00"
      }
    },
    {
      "type": "Feature",
      "geometry": {
        "type": "Point",
        "coordinates": [-6.5669, 38.8282]
      },
      "properties": {
        "cluster_id": "ALERT-20260918-006",
        "alerta_operativa": "alta",
        "score": 54.5,
        "n_focos": 7,
        "n_ultimas_6h": 6,
        "n_ultimas_24h": 7,
        "frp_total_mw": 4.9,
        "frp_max_mw": 0.9,
        "edad_min_h": 4.2,
        "ultima_deteccion_utc": "2026-09-18 03:21:00",
        "sensores": "VIIRS_NOAA20_NRT, VIIRS_SNPP_NRT",
        "satellites": "N, N20",
        "instruments": "VIIRS",
        "popup_label": "<strong>ALERT-20260918-006<\/strong><br>Nivel: alta<br>Focos: 7<br>Últimas 6 h: 6<br>FRP total: 4.9 MW<br>Última detección UTC: 2026-09-18 03:21:00"
      }
    },
    {
      "type": "Feature",
      "geometry": {
        "type": "Point",
        "coordinates": [-3.4752, 40.2462]
      },
      "properties": {
        "cluster_id": "ALERT-20260918-007",
        "alerta_operativa": "alta",
        "score": 40.5,
        "n_focos": 5,
        "n_ultimas_6h": 4,
        "n_ultimas_24h": 5,
        "frp_total_mw": 14.5,
        "frp_max_mw": 3.8,
        "edad_min_h": 4.2,
        "ultima_deteccion_utc": "2026-09-18 03:21:00",
        "sensores": "VIIRS_NOAA20_NRT, VIIRS_SNPP_NRT",
        "satellites": "N, N20",
        "instruments": "VIIRS",
        "popup_label": "<strong>ALERT-20260918-007<\/strong><br>Nivel: alta<br>Focos: 5<br>Últimas 6 h: 4<br>FRP total: 14.5 MW<br>Última detección UTC: 2026-09-18 03:21:00"
      }
    },
    {
      "type": "Feature",
      "geometry": {
        "type": "Point",
        "coordinates": [3.3335, 33.1307]
      },
      "properties": {
        "cluster_id": "ALERT-20260918-008",
        "alerta_operativa": "alta",
        "score": 30.3,
        "n_focos": 7,
        "n_ultimas_6h": 2,
        "n_ultimas_24h": 4,
        "frp_total_mw": 13.3,
        "frp_max_mw": 4.7,
        "edad_min_h": 5.9,
        "ultima_deteccion_utc": "2026-09-18 01:41:00",
        "sensores": "VIIRS_NOAA20_NRT, VIIRS_SNPP_NRT",
        "satellites": "N, N20",
        "instruments": "VIIRS",
        "popup_label": "<strong>ALERT-20260918-008<\/strong><br>Nivel: alta<br>Focos: 7<br>Últimas 6 h: 2<br>FRP total: 13.3 MW<br>Última detección UTC: 2026-09-18 01:41:00"
      }
    },
    {
      "type": "Feature",
      "geometry": {
        "type": "Point",
        "coordinates": [-4.9055, 33.9267]
      },
      "properties": {
        "cluster_id": "ALERT-20260918-009",
        "alerta_operativa": "alta",
        "score": 28.8,
        "n_focos": 3,
        "n_ultimas_6h": 3,
        "n_ultimas_24h": 3,
        "frp_total_mw": 10.1,
        "frp_max_mw": 4.4,
        "edad_min_h": 4.5,
        "ultima_deteccion_utc": "2026-09-18 03:04:00",
        "sensores": "VIIRS_NOAA20_NRT, VIIRS_SNPP_NRT",
        "satellites": "N, N20",
        "instruments": "VIIRS",
        "popup_label": "<strong>ALERT-20260918-009<\/strong><br>Nivel: alta<br>Focos: 3<br>Últimas 6 h: 3<br>FRP total: 10.1 MW<br>Última detección UTC: 2026-09-18 03:04:00"
      }
    },
    {
      "type": "Feature",
      "geometry": {
        "type": "Point",
        "coordinates": [-1.9054, 36.9673]
      },
      "properties": {
        "cluster_id": "ALERT-20260918-010",
        "alerta_operativa": "alta",
        "score": 26.3,
        "n_focos": 6,
        "n_ultimas_6h": 2,
        "n_ultimas_24h": 3,
        "frp_total_mw": 7.7,
        "frp_max_mw": 2,
        "edad_min_h": 4.5,
        "ultima_deteccion_utc": "2026-09-18 03:02:00",
        "sensores": "VIIRS_NOAA20_NRT, VIIRS_SNPP_NRT",
        "satellites": "N, N20",
        "instruments": "VIIRS",
        "popup_label": "<strong>ALERT-20260918-010<\/strong><br>Nivel: alta<br>Focos: 6<br>Últimas 6 h: 2<br>FRP total: 7.7 MW<br>Última detección UTC: 2026-09-18 03:02:00"
      }
    },
    {
      "type": "Feature",
      "geometry": {
        "type": "Point",
        "coordinates": [-0.5451, 38.376]
      },
      "properties": {
        "cluster_id": "ALERT-20260918-011",
        "alerta_operativa": "alta",
        "score": 26.2,
        "n_focos": 5,
        "n_ultimas_6h": 2,
        "n_ultimas_24h": 4,
        "frp_total_mw": 3.9,
        "frp_max_mw": 1.2,
        "edad_min_h": 4.5,
        "ultima_deteccion_utc": "2026-09-18 03:02:00",
        "sensores": "VIIRS_NOAA20_NRT, VIIRS_SNPP_NRT",
        "satellites": "N, N20",
        "instruments": "VIIRS",
        "popup_label": "<strong>ALERT-20260918-011<\/strong><br>Nivel: alta<br>Focos: 5<br>Últimas 6 h: 2<br>FRP total: 3.9 MW<br>Última detección UTC: 2026-09-18 03:02:00"
      }
    },
    {
      "type": "Feature",
      "geometry": {
        "type": "Point",
        "coordinates": [-8.9066, 39.687]
      },
      "properties": {
        "cluster_id": "ALERT-20260918-012",
        "alerta_operativa": "alta",
        "score": 24,
        "n_focos": 6,
        "n_ultimas_6h": 2,
        "n_ultimas_24h": 2,
        "frp_total_mw": 6.3,
        "frp_max_mw": 1.3,
        "edad_min_h": 4.2,
        "ultima_deteccion_utc": "2026-09-18 03:21:00",
        "sensores": "VIIRS_NOAA20_NRT, VIIRS_SNPP_NRT",
        "satellites": "N, N20",
        "instruments": "VIIRS",
        "popup_label": "<strong>ALERT-20260918-012<\/strong><br>Nivel: alta<br>Focos: 6<br>Últimas 6 h: 2<br>FRP total: 6.3 MW<br>Última detección UTC: 2026-09-18 03:21:00"
      }
    },
    {
      "type": "Feature",
      "geometry": {
        "type": "Point",
        "coordinates": [1.9174, 27.0315]
      },
      "properties": {
        "cluster_id": "ALERT-20260918-013",
        "alerta_operativa": "alta",
        "score": 20.2,
        "n_focos": 3,
        "n_ultimas_6h": 0,
        "n_ultimas_24h": 3,
        "frp_total_mw": 270.6,
        "frp_max_mw": 119.4,
        "edad_min_h": 18.3,
        "ultima_deteccion_utc": "2026-09-17 13:18:00",
        "sensores": "VIIRS_NOAA20_NRT, VIIRS_SNPP_NRT",
        "satellites": "N, N20",
        "instruments": "VIIRS",
        "popup_label": "<strong>ALERT-20260918-013<\/strong><br>Nivel: alta<br>Focos: 3<br>Últimas 6 h: 0<br>FRP total: 270.6 MW<br>Última detección UTC: 2026-09-17 13:18:00"
      }
    },
    {
      "type": "Feature",
      "geometry": {
        "type": "Point",
        "coordinates": [-0.4111, 41.9276]
      },
      "properties": {
        "cluster_id": "ALERT-20260918-014",
        "alerta_operativa": "media",
        "score": 42.9,
        "n_focos": 11,
        "n_ultimas_6h": 0,
        "n_ultimas_24h": 11,
        "frp_total_mw": 143.7,
        "frp_max_mw": 29.1,
        "edad_min_h": 18.2,
        "ultima_deteccion_utc": "2026-09-17 13:23:00",
        "sensores": "VIIRS_NOAA20_NRT, VIIRS_SNPP_NRT",
        "satellites": "N, N20",
        "instruments": "VIIRS",
        "popup_label": "<strong>ALERT-20260918-014<\/strong><br>Nivel: media<br>Focos: 11<br>Últimas 6 h: 0<br>FRP total: 143.7 MW<br>Última detección UTC: 2026-09-17 13:23:00"
      }
    },
    {
      "type": "Feature",
      "geometry": {
        "type": "Point",
        "coordinates": [3.2238, 32.901]
      },
      "properties": {
        "cluster_id": "ALERT-20260918-015",
        "alerta_operativa": "media",
        "score": 31.3,
        "n_focos": 20,
        "n_ultimas_6h": 0,
        "n_ultimas_24h": 2,
        "frp_total_mw": 36.9,
        "frp_max_mw": 15.4,
        "edad_min_h": 18.6,
        "ultima_deteccion_utc": "2026-09-17 12:59:00",
        "sensores": "VIIRS_NOAA20_NRT, VIIRS_SNPP_NRT",
        "satellites": "N, N20",
        "instruments": "VIIRS",
        "popup_label": "<strong>ALERT-20260918-015<\/strong><br>Nivel: media<br>Focos: 20<br>Últimas 6 h: 0<br>FRP total: 36.9 MW<br>Última detección UTC: 2026-09-17 12:59:00"
      }
    },
    {
      "type": "Feature",
      "geometry": {
        "type": "Point",
        "coordinates": [4.007, 32.4029]
      },
      "properties": {
        "cluster_id": "ALERT-20260918-016",
        "alerta_operativa": "media",
        "score": 23.5,
        "n_focos": 5,
        "n_ultimas_6h": 0,
        "n_ultimas_24h": 5,
        "frp_total_mw": 67.9,
        "frp_max_mw": 17.1,
        "edad_min_h": 18.2,
        "ultima_deteccion_utc": "2026-09-17 13:21:00",
        "sensores": "VIIRS_NOAA20_NRT, VIIRS_SNPP_NRT",
        "satellites": "N, N20",
        "instruments": "VIIRS",
        "popup_label": "<strong>ALERT-20260918-016<\/strong><br>Nivel: media<br>Focos: 5<br>Últimas 6 h: 0<br>FRP total: 67.9 MW<br>Última detección UTC: 2026-09-17 13:21:00"
      }
    },
    {
      "type": "Feature",
      "geometry": {
        "type": "Point",
        "coordinates": [-0.5173, 28.2]
      },
      "properties": {
        "cluster_id": "ALERT-20260918-017",
        "alerta_operativa": "media",
        "score": 20.4,
        "n_focos": 5,
        "n_ultimas_6h": 1,
        "n_ultimas_24h": 2,
        "frp_total_mw": 24.1,
        "frp_max_mw": 15.8,
        "edad_min_h": 5.8,
        "ultima_deteccion_utc": "2026-09-18 01:43:00",
        "sensores": "VIIRS_NOAA20_NRT, VIIRS_SNPP_NRT",
        "satellites": "N, N20",
        "instruments": "VIIRS",
        "popup_label": "<strong>ALERT-20260918-017<\/strong><br>Nivel: media<br>Focos: 5<br>Últimas 6 h: 1<br>FRP total: 24.1 MW<br>Última detección UTC: 2026-09-18 01:43:00"
      }
    },
    {
      "type": "Feature",
      "geometry": {
        "type": "Point",
        "coordinates": [4.4766, 35.7084]
      },
      "properties": {
        "cluster_id": "ALERT-20260918-018",
        "alerta_operativa": "media",
        "score": 20.3,
        "n_focos": 5,
        "n_ultimas_6h": 1,
        "n_ultimas_24h": 3,
        "frp_total_mw": 7.5,
        "frp_max_mw": 1.9,
        "edad_min_h": 5.9,
        "ultima_deteccion_utc": "2026-09-18 01:41:00",
        "sensores": "VIIRS_NOAA20_NRT, VIIRS_SNPP_NRT",
        "satellites": "N, N20",
        "instruments": "VIIRS",
        "popup_label": "<strong>ALERT-20260918-018<\/strong><br>Nivel: media<br>Focos: 5<br>Últimas 6 h: 1<br>FRP total: 7.5 MW<br>Última detección UTC: 2026-09-18 01:41:00"
      }
    },
    {
      "type": "Feature",
      "geometry": {
        "type": "Point",
        "coordinates": [-5.4386, 36.1254]
      },
      "properties": {
        "cluster_id": "ALERT-20260918-019",
        "alerta_operativa": "media",
        "score": 18.5,
        "n_focos": 3,
        "n_ultimas_6h": 1,
        "n_ultimas_24h": 3,
        "frp_total_mw": 8.4,
        "frp_max_mw": 4.9,
        "edad_min_h": 5.9,
        "ultima_deteccion_utc": "2026-09-18 01:41:00",
        "sensores": "VIIRS_NOAA20_NRT, VIIRS_SNPP_NRT",
        "satellites": "N, N20",
        "instruments": "VIIRS",
        "popup_label": "<strong>ALERT-20260918-019<\/strong><br>Nivel: media<br>Focos: 3<br>Últimas 6 h: 1<br>FRP total: 8.4 MW<br>Última detección UTC: 2026-09-18 01:41:00"
      }
    },
    {
      "type": "Feature",
      "geometry": {
        "type": "Point",
        "coordinates": [-5.6578, 37.3393]
      },
      "properties": {
        "cluster_id": "ALERT-20260918-020",
        "alerta_operativa": "media",
        "score": 17.5,
        "n_focos": 4,
        "n_ultimas_6h": 0,
        "n_ultimas_24h": 4,
        "frp_total_mw": 14.3,
        "frp_max_mw": 4.9,
        "edad_min_h": 18.2,
        "ultima_deteccion_utc": "2026-09-17 13:23:00",
        "sensores": "VIIRS_NOAA20_NRT, VIIRS_SNPP_NRT",
        "satellites": "N, N20",
        "instruments": "VIIRS",
        "popup_label": "<strong>ALERT-20260918-020<\/strong><br>Nivel: media<br>Focos: 4<br>Últimas 6 h: 0<br>FRP total: 14.3 MW<br>Última detección UTC: 2026-09-17 13:23:00"
      }
    },
    {
      "type": "Feature",
      "geometry": {
        "type": "Point",
        "coordinates": [-7.7075, 37.4034]
      },
      "properties": {
        "cluster_id": "ALERT-20260918-021",
        "alerta_operativa": "media",
        "score": 17.2,
        "n_focos": 4,
        "n_ultimas_6h": 0,
        "n_ultimas_24h": 4,
        "frp_total_mw": 12.2,
        "frp_max_mw": 3.9,
        "edad_min_h": 18.2,
        "ultima_deteccion_utc": "2026-09-17 13:23:00",
        "sensores": "VIIRS_NOAA20_NRT",
        "satellites": "N20",
        "instruments": "VIIRS",
        "popup_label": "<strong>ALERT-20260918-021<\/strong><br>Nivel: media<br>Focos: 4<br>Últimas 6 h: 0<br>FRP total: 12.2 MW<br>Última detección UTC: 2026-09-17 13:23:00"
      }
    },
    {
      "type": "Feature",
      "geometry": {
        "type": "Point",
        "coordinates": [-2.3472, 34.5957]
      },
      "properties": {
        "cluster_id": "ALERT-20260918-022",
        "alerta_operativa": "media",
        "score": 16.2,
        "n_focos": 4,
        "n_ultimas_6h": 1,
        "n_ultimas_24h": 2,
        "frp_total_mw": 3.9,
        "frp_max_mw": 1.3,
        "edad_min_h": 5.9,
        "ultima_deteccion_utc": "2026-09-18 01:41:00",
        "sensores": "VIIRS_NOAA20_NRT, VIIRS_SNPP_NRT",
        "satellites": "N, N20",
        "instruments": "VIIRS",
        "popup_label": "<strong>ALERT-20260918-022<\/strong><br>Nivel: media<br>Focos: 4<br>Últimas 6 h: 1<br>FRP total: 3.9 MW<br>Última detección UTC: 2026-09-18 01:41:00"
      }
    },
    {
      "type": "Feature",
      "geometry": {
        "type": "Point",
        "coordinates": [-1.4875, 41.4764]
      },
      "properties": {
        "cluster_id": "ALERT-20260918-023",
        "alerta_operativa": "media",
        "score": 16,
        "n_focos": 4,
        "n_ultimas_6h": 1,
        "n_ultimas_24h": 2,
        "frp_total_mw": 3.5,
        "frp_max_mw": 1.3,
        "edad_min_h": 5.9,
        "ultima_deteccion_utc": "2026-09-18 01:41:00",
        "sensores": "VIIRS_NOAA20_NRT, VIIRS_SNPP_NRT",
        "satellites": "N, N20",
        "instruments": "VIIRS",
        "popup_label": "<strong>ALERT-20260918-023<\/strong><br>Nivel: media<br>Focos: 4<br>Últimas 6 h: 1<br>FRP total: 3.5 MW<br>Última detección UTC: 2026-09-18 01:41:00"
      }
    },
    {
      "type": "Feature",
      "geometry": {
        "type": "Point",
        "coordinates": [2.0595, 34.4373]
      },
      "properties": {
        "cluster_id": "ALERT-20260918-024",
        "alerta_operativa": "media",
        "score": 15.4,
        "n_focos": 3,
        "n_ultimas_6h": 1,
        "n_ultimas_24h": 2,
        "frp_total_mw": 4.4,
        "frp_max_mw": 1.6,
        "edad_min_h": 5.9,
        "ultima_deteccion_utc": "2026-09-18 01:41:00",
        "sensores": "VIIRS_NOAA20_NRT, VIIRS_SNPP_NRT",
        "satellites": "N, N20",
        "instruments": "VIIRS",
        "popup_label": "<strong>ALERT-20260918-024<\/strong><br>Nivel: media<br>Focos: 3<br>Últimas 6 h: 1<br>FRP total: 4.4 MW<br>Última detección UTC: 2026-09-18 01:41:00"
      }
    },
    {
      "type": "Feature",
      "geometry": {
        "type": "Point",
        "coordinates": [-6.6207, 32.5476]
      },
      "properties": {
        "cluster_id": "ALERT-20260918-025",
        "alerta_operativa": "media",
        "score": 15.1,
        "n_focos": 3,
        "n_ultimas_6h": 0,
        "n_ultimas_24h": 3,
        "frp_total_mw": 20.4,
        "frp_max_mw": 8,
        "edad_min_h": 18.2,
        "ultima_deteccion_utc": "2026-09-17 13:21:00",
        "sensores": "VIIRS_NOAA20_NRT, VIIRS_SNPP_NRT",
        "satellites": "N, N20",
        "instruments": "VIIRS",
        "popup_label": "<strong>ALERT-20260918-025<\/strong><br>Nivel: media<br>Focos: 3<br>Últimas 6 h: 0<br>FRP total: 20.4 MW<br>Última detección UTC: 2026-09-17 13:21:00"
      }
    },
    {
      "type": "Feature",
      "geometry": {
        "type": "Point",
        "coordinates": [-9.013, 38.9229]
      },
      "properties": {
        "cluster_id": "ALERT-20260918-026",
        "alerta_operativa": "media",
        "score": 14.2,
        "n_focos": 4,
        "n_ultimas_6h": 1,
        "n_ultimas_24h": 1,
        "frp_total_mw": 4,
        "frp_max_mw": 1.2,
        "edad_min_h": 5.8,
        "ultima_deteccion_utc": "2026-09-18 01:43:00",
        "sensores": "VIIRS_NOAA20_NRT, VIIRS_SNPP_NRT",
        "satellites": "N, N20",
        "instruments": "VIIRS",
        "popup_label": "<strong>ALERT-20260918-026<\/strong><br>Nivel: media<br>Focos: 4<br>Últimas 6 h: 1<br>FRP total: 4 MW<br>Última detección UTC: 2026-09-18 01:43:00"
      }
    },
    {
      "type": "Feature",
      "geometry": {
        "type": "Point",
        "coordinates": [4.4484, 35.8792]
      },
      "properties": {
        "cluster_id": "ALERT-20260918-027",
        "alerta_operativa": "media",
        "score": 13.8,
        "n_focos": 2,
        "n_ultimas_6h": 1,
        "n_ultimas_24h": 2,
        "frp_total_mw": 3.1,
        "frp_max_mw": 1.6,
        "edad_min_h": 5.9,
        "ultima_deteccion_utc": "2026-09-18 01:41:00",
        "sensores": "VIIRS_NOAA20_NRT, VIIRS_SNPP_NRT",
        "satellites": "N, N20",
        "instruments": "VIIRS",
        "popup_label": "<strong>ALERT-20260918-027<\/strong><br>Nivel: media<br>Focos: 2<br>Últimas 6 h: 1<br>FRP total: 3.1 MW<br>Última detección UTC: 2026-09-18 01:41:00"
      }
    },
    {
      "type": "Feature",
      "geometry": {
        "type": "Point",
        "coordinates": [4.8464, 43.9969]
      },
      "properties": {
        "cluster_id": "ALERT-20260918-028",
        "alerta_operativa": "media",
        "score": 13.4,
        "n_focos": 2,
        "n_ultimas_6h": 1,
        "n_ultimas_24h": 2,
        "frp_total_mw": 2.3,
        "frp_max_mw": 1.3,
        "edad_min_h": 5.9,
        "ultima_deteccion_utc": "2026-09-18 01:41:00",
        "sensores": "VIIRS_NOAA20_NRT, VIIRS_SNPP_NRT",
        "satellites": "N, N20",
        "instruments": "VIIRS",
        "popup_label": "<strong>ALERT-20260918-028<\/strong><br>Nivel: media<br>Focos: 2<br>Últimas 6 h: 1<br>FRP total: 2.3 MW<br>Última detección UTC: 2026-09-18 01:41:00"
      }
    },
    {
      "type": "Feature",
      "geometry": {
        "type": "Point",
        "coordinates": [-6.7696, 42.5535]
      },
      "properties": {
        "cluster_id": "ALERT-20260918-029",
        "alerta_operativa": "media",
        "score": 12.7,
        "n_focos": 3,
        "n_ultimas_6h": 1,
        "n_ultimas_24h": 1,
        "frp_total_mw": 2.9,
        "frp_max_mw": 1.2,
        "edad_min_h": 5.9,
        "ultima_deteccion_utc": "2026-09-18 01:41:00",
        "sensores": "VIIRS_NOAA20_NRT, VIIRS_SNPP_NRT",
        "satellites": "N, N20",
        "instruments": "VIIRS",
        "popup_label": "<strong>ALERT-20260918-029<\/strong><br>Nivel: media<br>Focos: 3<br>Últimas 6 h: 1<br>FRP total: 2.9 MW<br>Última detección UTC: 2026-09-18 01:41:00"
      }
    },
    {
      "type": "Feature",
      "geometry": {
        "type": "Point",
        "coordinates": [4.9971, 35.9635]
      },
      "properties": {
        "cluster_id": "ALERT-20260918-030",
        "alerta_operativa": "media",
        "score": 11.9,
        "n_focos": 2,
        "n_ultimas_6h": 0,
        "n_ultimas_24h": 2,
        "frp_total_mw": 18.2,
        "frp_max_mw": 9.8,
        "edad_min_h": 18.2,
        "ultima_deteccion_utc": "2026-09-17 13:21:00",
        "sensores": "VIIRS_NOAA20_NRT, VIIRS_SNPP_NRT",
        "satellites": "N, N20",
        "instruments": "VIIRS",
        "popup_label": "<strong>ALERT-20260918-030<\/strong><br>Nivel: media<br>Focos: 2<br>Últimas 6 h: 0<br>FRP total: 18.2 MW<br>Última detección UTC: 2026-09-17 13:21:00"
      }
    },
    {
      "type": "Feature",
      "geometry": {
        "type": "Point",
        "coordinates": [-7.7496, 33.3668]
      },
      "properties": {
        "cluster_id": "ALERT-20260918-031",
        "alerta_operativa": "media",
        "score": 11.5,
        "n_focos": 2,
        "n_ultimas_6h": 1,
        "n_ultimas_24h": 1,
        "frp_total_mw": 2.5,
        "frp_max_mw": 1.6,
        "edad_min_h": 4.5,
        "ultima_deteccion_utc": "2026-09-18 03:04:00",
        "sensores": "VIIRS_SNPP_NRT",
        "satellites": "N",
        "instruments": "VIIRS",
        "popup_label": "<strong>ALERT-20260918-031<\/strong><br>Nivel: media<br>Focos: 2<br>Últimas 6 h: 1<br>FRP total: 2.5 MW<br>Última detección UTC: 2026-09-18 03:04:00"
      }
    },
    {
      "type": "Feature",
      "geometry": {
        "type": "Point",
        "coordinates": [2.9363, 36.7966]
      },
      "properties": {
        "cluster_id": "ALERT-20260918-032",
        "alerta_operativa": "media",
        "score": 10.2,
        "n_focos": 2,
        "n_ultimas_6h": 0,
        "n_ultimas_24h": 2,
        "frp_total_mw": 7.3,
        "frp_max_mw": 4.4,
        "edad_min_h": 18.2,
        "ultima_deteccion_utc": "2026-09-17 13:23:00",
        "sensores": "VIIRS_NOAA20_NRT, VIIRS_SNPP_NRT",
        "satellites": "N, N20",
        "instruments": "VIIRS",
        "popup_label": "<strong>ALERT-20260918-032<\/strong><br>Nivel: media<br>Focos: 2<br>Últimas 6 h: 0<br>FRP total: 7.3 MW<br>Última detección UTC: 2026-09-17 13:23:00"
      }
    },
    {
      "type": "Feature",
      "geometry": {
        "type": "Point",
        "coordinates": [0.126, 36.0177]
      },
      "properties": {
        "cluster_id": "ALERT-20260918-033",
        "alerta_operativa": "media",
        "score": 10.1,
        "n_focos": 1,
        "n_ultimas_6h": 1,
        "n_ultimas_24h": 1,
        "frp_total_mw": 1.8,
        "frp_max_mw": 1.8,
        "edad_min_h": 5.9,
        "ultima_deteccion_utc": "2026-09-18 01:41:00",
        "sensores": "VIIRS_NOAA20_NRT",
        "satellites": "N20",
        "instruments": "VIIRS",
        "popup_label": "<strong>ALERT-20260918-033<\/strong><br>Nivel: media<br>Focos: 1<br>Últimas 6 h: 1<br>FRP total: 1.8 MW<br>Última detección UTC: 2026-09-18 01:41:00"
      }
    },
    {
      "type": "Feature",
      "geometry": {
        "type": "Point",
        "coordinates": [-0.915, 37.5702]
      },
      "properties": {
        "cluster_id": "ALERT-20260918-034",
        "alerta_operativa": "media",
        "score": 10,
        "n_focos": 1,
        "n_ultimas_6h": 1,
        "n_ultimas_24h": 1,
        "frp_total_mw": 1.7,
        "frp_max_mw": 1.7,
        "edad_min_h": 5.8,
        "ultima_deteccion_utc": "2026-09-18 01:43:00",
        "sensores": "VIIRS_NOAA20_NRT",
        "satellites": "N20",
        "instruments": "VIIRS",
        "popup_label": "<strong>ALERT-20260918-034<\/strong><br>Nivel: media<br>Focos: 1<br>Últimas 6 h: 1<br>FRP total: 1.7 MW<br>Última detección UTC: 2026-09-18 01:43:00"
      }
    },
    {
      "type": "Feature",
      "geometry": {
        "type": "Point",
        "coordinates": [-8.2034, 41.5822]
      },
      "properties": {
        "cluster_id": "ALERT-20260918-035",
        "alerta_operativa": "media",
        "score": 9.8,
        "n_focos": 1,
        "n_ultimas_6h": 1,
        "n_ultimas_24h": 1,
        "frp_total_mw": 1.5,
        "frp_max_mw": 1.5,
        "edad_min_h": 5.9,
        "ultima_deteccion_utc": "2026-09-18 01:41:00",
        "sensores": "VIIRS_NOAA20_NRT",
        "satellites": "N20",
        "instruments": "VIIRS",
        "popup_label": "<strong>ALERT-20260918-035<\/strong><br>Nivel: media<br>Focos: 1<br>Últimas 6 h: 1<br>FRP total: 1.5 MW<br>Última detección UTC: 2026-09-18 01:41:00"
      }
    },
    {
      "type": "Feature",
      "geometry": {
        "type": "Point",
        "coordinates": [-8.49, 32.376]
      },
      "properties": {
        "cluster_id": "ALERT-20260918-036",
        "alerta_operativa": "media",
        "score": 9.7,
        "n_focos": 1,
        "n_ultimas_6h": 1,
        "n_ultimas_24h": 1,
        "frp_total_mw": 1.3,
        "frp_max_mw": 1.3,
        "edad_min_h": 5.8,
        "ultima_deteccion_utc": "2026-09-18 01:43:00",
        "sensores": "VIIRS_NOAA20_NRT",
        "satellites": "N20",
        "instruments": "VIIRS",
        "popup_label": "<strong>ALERT-20260918-036<\/strong><br>Nivel: media<br>Focos: 1<br>Últimas 6 h: 1<br>FRP total: 1.3 MW<br>Última detección UTC: 2026-09-18 01:43:00"
      }
    },
    {
      "type": "Feature",
      "geometry": {
        "type": "Point",
        "coordinates": [-8.9103, 39.1384]
      },
      "properties": {
        "cluster_id": "ALERT-20260918-037",
        "alerta_operativa": "media",
        "score": 9.6,
        "n_focos": 2,
        "n_ultimas_6h": 0,
        "n_ultimas_24h": 2,
        "frp_total_mw": 5.2,
        "frp_max_mw": 2.6,
        "edad_min_h": 18.2,
        "ultima_deteccion_utc": "2026-09-17 13:23:00",
        "sensores": "VIIRS_NOAA20_NRT",
        "satellites": "N20",
        "instruments": "VIIRS",
        "popup_label": "<strong>ALERT-20260918-037<\/strong><br>Nivel: media<br>Focos: 2<br>Últimas 6 h: 0<br>FRP total: 5.2 MW<br>Última detección UTC: 2026-09-17 13:23:00"
      }
    },
    {
      "type": "Feature",
      "geometry": {
        "type": "Point",
        "coordinates": [-5.9138, 36.7354]
      },
      "properties": {
        "cluster_id": "ALERT-20260918-038",
        "alerta_operativa": "media",
        "score": 9.4,
        "n_focos": 1,
        "n_ultimas_6h": 1,
        "n_ultimas_24h": 1,
        "frp_total_mw": 1,
        "frp_max_mw": 1,
        "edad_min_h": 4.2,
        "ultima_deteccion_utc": "2026-09-18 03:21:00",
        "sensores": "VIIRS_NOAA20_NRT",
        "satellites": "N20",
        "instruments": "VIIRS",
        "popup_label": "<strong>ALERT-20260918-038<\/strong><br>Nivel: media<br>Focos: 1<br>Últimas 6 h: 1<br>FRP total: 1 MW<br>Última detección UTC: 2026-09-18 03:21:00"
      }
    },
    {
      "type": "Feature",
      "geometry": {
        "type": "Point",
        "coordinates": [-5.6738, 41.982]
      },
      "properties": {
        "cluster_id": "ALERT-20260918-039",
        "alerta_operativa": "media",
        "score": 9.4,
        "n_focos": 1,
        "n_ultimas_6h": 1,
        "n_ultimas_24h": 1,
        "frp_total_mw": 1,
        "frp_max_mw": 1,
        "edad_min_h": 5.9,
        "ultima_deteccion_utc": "2026-09-18 01:41:00",
        "sensores": "VIIRS_NOAA20_NRT",
        "satellites": "N20",
        "instruments": "VIIRS",
        "popup_label": "<strong>ALERT-20260918-039<\/strong><br>Nivel: media<br>Focos: 1<br>Últimas 6 h: 1<br>FRP total: 1 MW<br>Última detección UTC: 2026-09-18 01:41:00"
      }
    },
    {
      "type": "Feature",
      "geometry": {
        "type": "Point",
        "coordinates": [-5.132, 37.5441]
      },
      "properties": {
        "cluster_id": "ALERT-20260918-040",
        "alerta_operativa": "media",
        "score": 9.1,
        "n_focos": 2,
        "n_ultimas_6h": 0,
        "n_ultimas_24h": 2,
        "frp_total_mw": 3.7,
        "frp_max_mw": 2.4,
        "edad_min_h": 18.2,
        "ultima_deteccion_utc": "2026-09-17 13:23:00",
        "sensores": "VIIRS_NOAA20_NRT, VIIRS_SNPP_NRT",
        "satellites": "N, N20",
        "instruments": "VIIRS",
        "popup_label": "<strong>ALERT-20260918-040<\/strong><br>Nivel: media<br>Focos: 2<br>Últimas 6 h: 0<br>FRP total: 3.7 MW<br>Última detección UTC: 2026-09-17 13:23:00"
      }
    },
    {
      "type": "Feature",
      "geometry": {
        "type": "Point",
        "coordinates": [-9.5432, 30.3353]
      },
      "properties": {
        "cluster_id": "ALERT-20260918-041",
        "alerta_operativa": "media",
        "score": 8.9,
        "n_focos": 1,
        "n_ultimas_6h": 1,
        "n_ultimas_24h": 1,
        "frp_total_mw": 0.6,
        "frp_max_mw": 0.6,
        "edad_min_h": 5.8,
        "ultima_deteccion_utc": "2026-09-18 01:43:00",
        "sensores": "VIIRS_NOAA20_NRT",
        "satellites": "N20",
        "instruments": "VIIRS",
        "popup_label": "<strong>ALERT-20260918-041<\/strong><br>Nivel: media<br>Focos: 1<br>Últimas 6 h: 1<br>FRP total: 0.6 MW<br>Última detección UTC: 2026-09-18 01:43:00"
      }
    },
    {
      "type": "Feature",
      "geometry": {
        "type": "Point",
        "coordinates": [-4.3302, 36.715]
      },
      "properties": {
        "cluster_id": "ALERT-20260918-042",
        "alerta_operativa": "media",
        "score": 8.7,
        "n_focos": 1,
        "n_ultimas_6h": 1,
        "n_ultimas_24h": 1,
        "frp_total_mw": 0.4,
        "frp_max_mw": 0.4,
        "edad_min_h": 4.5,
        "ultima_deteccion_utc": "2026-09-18 03:02:00",
        "sensores": "VIIRS_SNPP_NRT",
        "satellites": "N",
        "instruments": "VIIRS",
        "popup_label": "<strong>ALERT-20260918-042<\/strong><br>Nivel: media<br>Focos: 1<br>Últimas 6 h: 1<br>FRP total: 0.4 MW<br>Última detección UTC: 2026-09-18 03:02:00"
      }
    },
    {
      "type": "Feature",
      "geometry": {
        "type": "Point",
        "coordinates": [2.6578, 33.8733]
      },
      "properties": {
        "cluster_id": "ALERT-20260918-043",
        "alerta_operativa": "media",
        "score": 8.4,
        "n_focos": 1,
        "n_ultimas_6h": 1,
        "n_ultimas_24h": 1,
        "frp_total_mw": 0.2,
        "frp_max_mw": 0.2,
        "edad_min_h": 5.9,
        "ultima_deteccion_utc": "2026-09-18 01:41:00",
        "sensores": "VIIRS_NOAA20_NRT",
        "satellites": "N20",
        "instruments": "VIIRS",
        "popup_label": "<strong>ALERT-20260918-043<\/strong><br>Nivel: media<br>Focos: 1<br>Últimas 6 h: 1<br>FRP total: 0.2 MW<br>Última detección UTC: 2026-09-18 01:41:00"
      }
    },
    {
      "type": "Feature",
      "geometry": {
        "type": "Point",
        "coordinates": [3.3935, 32.8432]
      },
      "properties": {
        "cluster_id": "ALERT-20260918-044",
        "alerta_operativa": "seguimiento",
        "score": 8.4,
        "n_focos": 3,
        "n_ultimas_6h": 0,
        "n_ultimas_24h": 1,
        "frp_total_mw": 4.5,
        "frp_max_mw": 1.8,
        "edad_min_h": 18.2,
        "ultima_deteccion_utc": "2026-09-17 13:21:00",
        "sensores": "VIIRS_NOAA20_NRT, VIIRS_SNPP_NRT",
        "satellites": "N, N20",
        "instruments": "VIIRS",
        "popup_label": "<strong>ALERT-20260918-044<\/strong><br>Nivel: seguimiento<br>Focos: 3<br>Últimas 6 h: 0<br>FRP total: 4.5 MW<br>Última detección UTC: 2026-09-17 13:21:00"
      }
    },
    {
      "type": "Feature",
      "geometry": {
        "type": "Point",
        "coordinates": [3.9879, 32.2761]
      },
      "properties": {
        "cluster_id": "ALERT-20260918-045",
        "alerta_operativa": "seguimiento",
        "score": 8.2,
        "n_focos": 1,
        "n_ultimas_6h": 0,
        "n_ultimas_24h": 1,
        "frp_total_mw": 12.7,
        "frp_max_mw": 12.7,
        "edad_min_h": 18.6,
        "ultima_deteccion_utc": "2026-09-17 12:59:00",
        "sensores": "VIIRS_SNPP_NRT",
        "satellites": "N",
        "instruments": "VIIRS",
        "popup_label": "<strong>ALERT-20260918-045<\/strong><br>Nivel: seguimiento<br>Focos: 1<br>Últimas 6 h: 0<br>FRP total: 12.7 MW<br>Última detección UTC: 2026-09-17 12:59:00"
      }
    },
    {
      "type": "Feature",
      "geometry": {
        "type": "Point",
        "coordinates": [0.1787, 41.9237]
      },
      "properties": {
        "cluster_id": "ALERT-20260918-046",
        "alerta_operativa": "seguimiento",
        "score": 8,
        "n_focos": 1,
        "n_ultimas_6h": 0,
        "n_ultimas_24h": 1,
        "frp_total_mw": 10.9,
        "frp_max_mw": 10.9,
        "edad_min_h": 18.2,
        "ultima_deteccion_utc": "2026-09-17 13:23:00",
        "sensores": "VIIRS_NOAA20_NRT",
        "satellites": "N20",
        "instruments": "VIIRS",
        "popup_label": "<strong>ALERT-20260918-046<\/strong><br>Nivel: seguimiento<br>Focos: 1<br>Últimas 6 h: 0<br>FRP total: 10.9 MW<br>Última detección UTC: 2026-09-17 13:23:00"
      }
    },
    {
      "type": "Feature",
      "geometry": {
        "type": "Point",
        "coordinates": [-9.3426, 38.895]
      },
      "properties": {
        "cluster_id": "ALERT-20260918-047",
        "alerta_operativa": "seguimiento",
        "score": 7.6,
        "n_focos": 1,
        "n_ultimas_6h": 0,
        "n_ultimas_24h": 1,
        "frp_total_mw": 9.2,
        "frp_max_mw": 9.2,
        "edad_min_h": 18.2,
        "ultima_deteccion_utc": "2026-09-17 13:23:00",
        "sensores": "VIIRS_NOAA20_NRT",
        "satellites": "N20",
        "instruments": "VIIRS",
        "popup_label": "<strong>ALERT-20260918-047<\/strong><br>Nivel: seguimiento<br>Focos: 1<br>Últimas 6 h: 0<br>FRP total: 9.2 MW<br>Última detección UTC: 2026-09-17 13:23:00"
      }
    },
    {
      "type": "Feature",
      "geometry": {
        "type": "Point",
        "coordinates": [-7.6738, 41.0183]
      },
      "properties": {
        "cluster_id": "ALERT-20260918-048",
        "alerta_operativa": "seguimiento",
        "score": 7.6,
        "n_focos": 1,
        "n_ultimas_6h": 0,
        "n_ultimas_24h": 1,
        "frp_total_mw": 8.9,
        "frp_max_mw": 8.9,
        "edad_min_h": 18.2,
        "ultima_deteccion_utc": "2026-09-17 13:23:00",
        "sensores": "VIIRS_NOAA20_NRT",
        "satellites": "N20",
        "instruments": "VIIRS",
        "popup_label": "<strong>ALERT-20260918-048<\/strong><br>Nivel: seguimiento<br>Focos: 1<br>Últimas 6 h: 0<br>FRP total: 8.9 MW<br>Última detección UTC: 2026-09-17 13:23:00"
      }
    },
    {
      "type": "Feature",
      "geometry": {
        "type": "Point",
        "coordinates": [3.7891, 36.2647]
      },
      "properties": {
        "cluster_id": "ALERT-20260918-049",
        "alerta_operativa": "seguimiento",
        "score": 7.4,
        "n_focos": 1,
        "n_ultimas_6h": 0,
        "n_ultimas_24h": 1,
        "frp_total_mw": 8.1,
        "frp_max_mw": 8.1,
        "edad_min_h": 18.5,
        "ultima_deteccion_utc": "2026-09-17 13:01:00",
        "sensores": "VIIRS_SNPP_NRT",
        "satellites": "N",
        "instruments": "VIIRS",
        "popup_label": "<strong>ALERT-20260918-049<\/strong><br>Nivel: seguimiento<br>Focos: 1<br>Últimas 6 h: 0<br>FRP total: 8.1 MW<br>Última detección UTC: 2026-09-17 13:01:00"
      }
    },
    {
      "type": "Feature",
      "geometry": {
        "type": "Point",
        "coordinates": [-6.9621, 38.8829]
      },
      "properties": {
        "cluster_id": "ALERT-20260918-050",
        "alerta_operativa": "seguimiento",
        "score": 7.2,
        "n_focos": 1,
        "n_ultimas_6h": 0,
        "n_ultimas_24h": 1,
        "frp_total_mw": 7.1,
        "frp_max_mw": 7.1,
        "edad_min_h": 18.2,
        "ultima_deteccion_utc": "2026-09-17 13:23:00",
        "sensores": "VIIRS_NOAA20_NRT",
        "satellites": "N20",
        "instruments": "VIIRS",
        "popup_label": "<strong>ALERT-20260918-050<\/strong><br>Nivel: seguimiento<br>Focos: 1<br>Últimas 6 h: 0<br>FRP total: 7.1 MW<br>Última detección UTC: 2026-09-17 13:23:00"
      }
    },
    {
      "type": "Feature",
      "geometry": {
        "type": "Point",
        "coordinates": [-7.4651, 39.8193]
      },
      "properties": {
        "cluster_id": "ALERT-20260918-051",
        "alerta_operativa": "seguimiento",
        "score": 7.2,
        "n_focos": 1,
        "n_ultimas_6h": 0,
        "n_ultimas_24h": 1,
        "frp_total_mw": 7,
        "frp_max_mw": 7,
        "edad_min_h": 18.5,
        "ultima_deteccion_utc": "2026-09-17 13:04:00",
        "sensores": "VIIRS_SNPP_NRT",
        "satellites": "N",
        "instruments": "VIIRS",
        "popup_label": "<strong>ALERT-20260918-051<\/strong><br>Nivel: seguimiento<br>Focos: 1<br>Últimas 6 h: 0<br>FRP total: 7 MW<br>Última detección UTC: 2026-09-17 13:04:00"
      }
    },
    {
      "type": "Feature",
      "geometry": {
        "type": "Point",
        "coordinates": [-5.69, 36.8628]
      },
      "properties": {
        "cluster_id": "ALERT-20260918-052",
        "alerta_operativa": "seguimiento",
        "score": 7,
        "n_focos": 1,
        "n_ultimas_6h": 0,
        "n_ultimas_24h": 1,
        "frp_total_mw": 6.5,
        "frp_max_mw": 6.5,
        "edad_min_h": 18.2,
        "ultima_deteccion_utc": "2026-09-17 13:23:00",
        "sensores": "VIIRS_NOAA20_NRT",
        "satellites": "N20",
        "instruments": "VIIRS",
        "popup_label": "<strong>ALERT-20260918-052<\/strong><br>Nivel: seguimiento<br>Focos: 1<br>Últimas 6 h: 0<br>FRP total: 6.5 MW<br>Última detección UTC: 2026-09-17 13:23:00"
      }
    },
    {
      "type": "Feature",
      "geometry": {
        "type": "Point",
        "coordinates": [3.7939, 31.5351]
      },
      "properties": {
        "cluster_id": "ALERT-20260918-053",
        "alerta_operativa": "seguimiento",
        "score": 6.8,
        "n_focos": 1,
        "n_ultimas_6h": 0,
        "n_ultimas_24h": 1,
        "frp_total_mw": 5.7,
        "frp_max_mw": 5.7,
        "edad_min_h": 18.6,
        "ultima_deteccion_utc": "2026-09-17 12:59:00",
        "sensores": "VIIRS_SNPP_NRT",
        "satellites": "N",
        "instruments": "VIIRS",
        "popup_label": "<strong>ALERT-20260918-053<\/strong><br>Nivel: seguimiento<br>Focos: 1<br>Últimas 6 h: 0<br>FRP total: 5.7 MW<br>Última detección UTC: 2026-09-17 12:59:00"
      }
    },
    {
      "type": "Feature",
      "geometry": {
        "type": "Point",
        "coordinates": [0.5916, 28.9634]
      },
      "properties": {
        "cluster_id": "ALERT-20260918-054",
        "alerta_operativa": "seguimiento",
        "score": 6.8,
        "n_focos": 1,
        "n_ultimas_6h": 0,
        "n_ultimas_24h": 1,
        "frp_total_mw": 5.7,
        "frp_max_mw": 5.7,
        "edad_min_h": 18.2,
        "ultima_deteccion_utc": "2026-09-17 13:21:00",
        "sensores": "VIIRS_NOAA20_NRT",
        "satellites": "N20",
        "instruments": "VIIRS",
        "popup_label": "<strong>ALERT-20260918-054<\/strong><br>Nivel: seguimiento<br>Focos: 1<br>Últimas 6 h: 0<br>FRP total: 5.7 MW<br>Última detección UTC: 2026-09-17 13:21:00"
      }
    },
    {
      "type": "Feature",
      "geometry": {
        "type": "Point",
        "coordinates": [2.8795, 36.5961]
      },
      "properties": {
        "cluster_id": "ALERT-20260918-055",
        "alerta_operativa": "seguimiento",
        "score": 6.8,
        "n_focos": 2,
        "n_ultimas_6h": 0,
        "n_ultimas_24h": 1,
        "frp_total_mw": 3.1,
        "frp_max_mw": 2.8,
        "edad_min_h": 18.2,
        "ultima_deteccion_utc": "2026-09-17 13:23:00",
        "sensores": "VIIRS_NOAA20_NRT",
        "satellites": "N20",
        "instruments": "VIIRS",
        "popup_label": "<strong>ALERT-20260918-055<\/strong><br>Nivel: seguimiento<br>Focos: 2<br>Últimas 6 h: 0<br>FRP total: 3.1 MW<br>Última detección UTC: 2026-09-17 13:23:00"
      }
    },
    {
      "type": "Feature",
      "geometry": {
        "type": "Point",
        "coordinates": [-6.1032, 34.6041]
      },
      "properties": {
        "cluster_id": "ALERT-20260918-056",
        "alerta_operativa": "seguimiento",
        "score": 6.4,
        "n_focos": 1,
        "n_ultimas_6h": 0,
        "n_ultimas_24h": 1,
        "frp_total_mw": 4.6,
        "frp_max_mw": 4.6,
        "edad_min_h": 18.2,
        "ultima_deteccion_utc": "2026-09-17 13:21:00",
        "sensores": "VIIRS_NOAA20_NRT",
        "satellites": "N20",
        "instruments": "VIIRS",
        "popup_label": "<strong>ALERT-20260918-056<\/strong><br>Nivel: seguimiento<br>Focos: 1<br>Últimas 6 h: 0<br>FRP total: 4.6 MW<br>Última detección UTC: 2026-09-17 13:21:00"
      }
    },
    {
      "type": "Feature",
      "geometry": {
        "type": "Point",
        "coordinates": [-5.5546, 35.8386]
      },
      "properties": {
        "cluster_id": "ALERT-20260918-057",
        "alerta_operativa": "seguimiento",
        "score": 6.1,
        "n_focos": 1,
        "n_ultimas_6h": 0,
        "n_ultimas_24h": 1,
        "frp_total_mw": 3.6,
        "frp_max_mw": 3.6,
        "edad_min_h": 18.2,
        "ultima_deteccion_utc": "2026-09-17 13:23:00",
        "sensores": "VIIRS_NOAA20_NRT",
        "satellites": "N20",
        "instruments": "VIIRS",
        "popup_label": "<strong>ALERT-20260918-057<\/strong><br>Nivel: seguimiento<br>Focos: 1<br>Últimas 6 h: 0<br>FRP total: 3.6 MW<br>Última detección UTC: 2026-09-17 13:23:00"
      }
    },
    {
      "type": "Feature",
      "geometry": {
        "type": "Point",
        "coordinates": [-7.0921, 39.8556]
      },
      "properties": {
        "cluster_id": "ALERT-20260918-058",
        "alerta_operativa": "seguimiento",
        "score": 5.7,
        "n_focos": 1,
        "n_ultimas_6h": 0,
        "n_ultimas_24h": 1,
        "frp_total_mw": 2.9,
        "frp_max_mw": 2.9,
        "edad_min_h": 18.5,
        "ultima_deteccion_utc": "2026-09-17 13:04:00",
        "sensores": "VIIRS_SNPP_NRT",
        "satellites": "N",
        "instruments": "VIIRS",
        "popup_label": "<strong>ALERT-20260918-058<\/strong><br>Nivel: seguimiento<br>Focos: 1<br>Últimas 6 h: 0<br>FRP total: 2.9 MW<br>Última detección UTC: 2026-09-17 13:04:00"
      }
    },
    {
      "type": "Feature",
      "geometry": {
        "type": "Point",
        "coordinates": [-4.8334, 37.6961]
      },
      "properties": {
        "cluster_id": "ALERT-20260918-059",
        "alerta_operativa": "seguimiento",
        "score": 5.7,
        "n_focos": 1,
        "n_ultimas_6h": 0,
        "n_ultimas_24h": 1,
        "frp_total_mw": 2.8,
        "frp_max_mw": 2.8,
        "edad_min_h": 18.5,
        "ultima_deteccion_utc": "2026-09-17 13:01:00",
        "sensores": "VIIRS_SNPP_NRT",
        "satellites": "N",
        "instruments": "VIIRS",
        "popup_label": "<strong>ALERT-20260918-059<\/strong><br>Nivel: seguimiento<br>Focos: 1<br>Últimas 6 h: 0<br>FRP total: 2.8 MW<br>Última detección UTC: 2026-09-17 13:01:00"
      }
    },
    {
      "type": "Feature",
      "geometry": {
        "type": "Point",
        "coordinates": [0.5558, 32.9449]
      },
      "properties": {
        "cluster_id": "ALERT-20260918-060",
        "alerta_operativa": "seguimiento",
        "score": 5.7,
        "n_focos": 1,
        "n_ultimas_6h": 0,
        "n_ultimas_24h": 1,
        "frp_total_mw": 2.8,
        "frp_max_mw": 2.8,
        "edad_min_h": 18.6,
        "ultima_deteccion_utc": "2026-09-17 12:59:00",
        "sensores": "VIIRS_SNPP_NRT",
        "satellites": "N",
        "instruments": "VIIRS",
        "popup_label": "<strong>ALERT-20260918-060<\/strong><br>Nivel: seguimiento<br>Focos: 1<br>Últimas 6 h: 0<br>FRP total: 2.8 MW<br>Última detección UTC: 2026-09-17 12:59:00"
      }
    },
    {
      "type": "Feature",
      "geometry": {
        "type": "Point",
        "coordinates": [-7.5546, 41.0837]
      },
      "properties": {
        "cluster_id": "ALERT-20260918-061",
        "alerta_operativa": "seguimiento",
        "score": 5.4,
        "n_focos": 1,
        "n_ultimas_6h": 0,
        "n_ultimas_24h": 1,
        "frp_total_mw": 2.3,
        "frp_max_mw": 2.3,
        "edad_min_h": 18.5,
        "ultima_deteccion_utc": "2026-09-17 13:04:00",
        "sensores": "VIIRS_SNPP_NRT",
        "satellites": "N",
        "instruments": "VIIRS",
        "popup_label": "<strong>ALERT-20260918-061<\/strong><br>Nivel: seguimiento<br>Focos: 1<br>Últimas 6 h: 0<br>FRP total: 2.3 MW<br>Última detección UTC: 2026-09-17 13:04:00"
      }
    },
    {
      "type": "Feature",
      "geometry": {
        "type": "Point",
        "coordinates": [-7.7028, 33.5731]
      },
      "properties": {
        "cluster_id": "ALERT-20260918-062",
        "alerta_operativa": "seguimiento",
        "score": 5.3,
        "n_focos": 1,
        "n_ultimas_6h": 0,
        "n_ultimas_24h": 1,
        "frp_total_mw": 2.1,
        "frp_max_mw": 2.1,
        "edad_min_h": 18.2,
        "ultima_deteccion_utc": "2026-09-17 13:21:00",
        "sensores": "VIIRS_NOAA20_NRT",
        "satellites": "N20",
        "instruments": "VIIRS",
        "popup_label": "<strong>ALERT-20260918-062<\/strong><br>Nivel: seguimiento<br>Focos: 1<br>Últimas 6 h: 0<br>FRP total: 2.1 MW<br>Última detección UTC: 2026-09-17 13:21:00"
      }
    },
    {
      "type": "Feature",
      "geometry": {
        "type": "Point",
        "coordinates": [4.0055, 36.7527]
      },
      "properties": {
        "cluster_id": "ALERT-20260918-063",
        "alerta_operativa": "seguimiento",
        "score": 5,
        "n_focos": 1,
        "n_ultimas_6h": 0,
        "n_ultimas_24h": 1,
        "frp_total_mw": 1.7,
        "frp_max_mw": 1.7,
        "edad_min_h": 18.5,
        "ultima_deteccion_utc": "2026-09-17 13:01:00",
        "sensores": "VIIRS_SNPP_NRT",
        "satellites": "N",
        "instruments": "VIIRS",
        "popup_label": "<strong>ALERT-20260918-063<\/strong><br>Nivel: seguimiento<br>Focos: 1<br>Últimas 6 h: 0<br>FRP total: 1.7 MW<br>Última detección UTC: 2026-09-17 13:01:00"
      }
    },
    {
      "type": "Feature",
      "geometry": {
        "type": "Point",
        "coordinates": [-3.6859, 37.0735]
      },
      "properties": {
        "cluster_id": "ALERT-20260918-064",
        "alerta_operativa": "seguimiento",
        "score": 4.8,
        "n_focos": 1,
        "n_ultimas_6h": 0,
        "n_ultimas_24h": 1,
        "frp_total_mw": 1.5,
        "frp_max_mw": 1.5,
        "edad_min_h": 18.2,
        "ultima_deteccion_utc": "2026-09-17 13:23:00",
        "sensores": "VIIRS_NOAA20_NRT",
        "satellites": "N20",
        "instruments": "VIIRS",
        "popup_label": "<strong>ALERT-20260918-064<\/strong><br>Nivel: seguimiento<br>Focos: 1<br>Últimas 6 h: 0<br>FRP total: 1.5 MW<br>Última detección UTC: 2026-09-17 13:23:00"
      }
    },
    {
      "type": "Feature",
      "geometry": {
        "type": "Point",
        "coordinates": [-5.6073, 37.1184]
      },
      "properties": {
        "cluster_id": "ALERT-20260918-065",
        "alerta_operativa": "seguimiento",
        "score": 4.6,
        "n_focos": 1,
        "n_ultimas_6h": 0,
        "n_ultimas_24h": 1,
        "frp_total_mw": 1.2,
        "frp_max_mw": 1.2,
        "edad_min_h": 18.2,
        "ultima_deteccion_utc": "2026-09-17 13:23:00",
        "sensores": "VIIRS_NOAA20_NRT",
        "satellites": "N20",
        "instruments": "VIIRS",
        "popup_label": "<strong>ALERT-20260918-065<\/strong><br>Nivel: seguimiento<br>Focos: 1<br>Últimas 6 h: 0<br>FRP total: 1.2 MW<br>Última detección UTC: 2026-09-17 13:23:00"
      }
    },
    {
      "type": "Feature",
      "geometry": {
        "type": "Point",
        "coordinates": [-0.9406, 35.5665]
      },
      "properties": {
        "cluster_id": "ALERT-20260918-066",
        "alerta_operativa": "seguimiento",
        "score": 4.4,
        "n_focos": 1,
        "n_ultimas_6h": 0,
        "n_ultimas_24h": 1,
        "frp_total_mw": 1,
        "frp_max_mw": 1,
        "edad_min_h": 6.2,
        "ultima_deteccion_utc": "2026-09-18 01:22:00",
        "sensores": "VIIRS_SNPP_NRT",
        "satellites": "N",
        "instruments": "VIIRS",
        "popup_label": "<strong>ALERT-20260918-066<\/strong><br>Nivel: seguimiento<br>Focos: 1<br>Últimas 6 h: 0<br>FRP total: 1 MW<br>Última detección UTC: 2026-09-18 01:22:00"
      }
    },
    {
      "type": "Feature",
      "geometry": {
        "type": "Point",
        "coordinates": [-5.7882, 43.5358]
      },
      "properties": {
        "cluster_id": "ALERT-20260918-067",
        "alerta_operativa": "informativa",
        "score": 19.6,
        "n_focos": 13,
        "n_ultimas_6h": 0,
        "n_ultimas_24h": 0,
        "frp_total_mw": 26.2,
        "frp_max_mw": 6,
        "edad_min_h": 28.2,
        "ultima_deteccion_utc": "2026-09-17 03:19:00",
        "sensores": "VIIRS_NOAA20_NRT, VIIRS_SNPP_NRT",
        "satellites": "N, N20",
        "instruments": "VIIRS",
        "popup_label": "<strong>ALERT-20260918-067<\/strong><br>Nivel: informativa<br>Focos: 13<br>Últimas 6 h: 0<br>FRP total: 26.2 MW<br>Última detección UTC: 2026-09-17 03:19:00"
      }
    },
    {
      "type": "Feature",
      "geometry": {
        "type": "Point",
        "coordinates": [-8.0315, 41.4839]
      },
      "properties": {
        "cluster_id": "ALERT-20260918-068",
        "alerta_operativa": "informativa",
        "score": 18.8,
        "n_focos": 11,
        "n_ultimas_6h": 0,
        "n_ultimas_24h": 0,
        "frp_total_mw": 47.7,
        "frp_max_mw": 7,
        "edad_min_h": 27.9,
        "ultima_deteccion_utc": "2026-09-17 03:40:00",
        "sensores": "VIIRS_NOAA20_NRT, VIIRS_SNPP_NRT",
        "satellites": "N, N20",
        "instruments": "VIIRS",
        "popup_label": "<strong>ALERT-20260918-068<\/strong><br>Nivel: informativa<br>Focos: 11<br>Últimas 6 h: 0<br>FRP total: 47.7 MW<br>Última detección UTC: 2026-09-17 03:40:00"
      }
    },
    {
      "type": "Feature",
      "geometry": {
        "type": "Point",
        "coordinates": [-0.9289, 44.1879]
      },
      "properties": {
        "cluster_id": "ALERT-20260918-069",
        "alerta_operativa": "informativa",
        "score": 17,
        "n_focos": 11,
        "n_ultimas_6h": 0,
        "n_ultimas_24h": 0,
        "frp_total_mw": 19,
        "frp_max_mw": 2,
        "edad_min_h": 29.6,
        "ultima_deteccion_utc": "2026-09-17 01:58:00",
        "sensores": "VIIRS_NOAA20_NRT, VIIRS_SNPP_NRT",
        "satellites": "N, N20",
        "instruments": "VIIRS",
        "popup_label": "<strong>ALERT-20260918-069<\/strong><br>Nivel: informativa<br>Focos: 11<br>Últimas 6 h: 0<br>FRP total: 19 MW<br>Última detección UTC: 2026-09-17 01:58:00"
      }
    },
    {
      "type": "Feature",
      "geometry": {
        "type": "Point",
        "coordinates": [-6.9742, 41.0496]
      },
      "properties": {
        "cluster_id": "ALERT-20260918-070",
        "alerta_operativa": "informativa",
        "score": 16.4,
        "n_focos": 10,
        "n_ultimas_6h": 0,
        "n_ultimas_24h": 0,
        "frp_total_mw": 23.8,
        "frp_max_mw": 5.7,
        "edad_min_h": 27.9,
        "ultima_deteccion_utc": "2026-09-17 03:40:00",
        "sensores": "VIIRS_NOAA20_NRT, VIIRS_SNPP_NRT",
        "satellites": "N, N20",
        "instruments": "VIIRS",
        "popup_label": "<strong>ALERT-20260918-070<\/strong><br>Nivel: informativa<br>Focos: 10<br>Últimas 6 h: 0<br>FRP total: 23.8 MW<br>Última detección UTC: 2026-09-17 03:40:00"
      }
    },
    {
      "type": "Feature",
      "geometry": {
        "type": "Point",
        "coordinates": [3.1162, 36.666]
      },
      "properties": {
        "cluster_id": "ALERT-20260918-071",
        "alerta_operativa": "informativa",
        "score": 13.8,
        "n_focos": 9,
        "n_ultimas_6h": 0,
        "n_ultimas_24h": 0,
        "frp_total_mw": 9.9,
        "frp_max_mw": 1.8,
        "edad_min_h": 29.6,
        "ultima_deteccion_utc": "2026-09-17 02:00:00",
        "sensores": "VIIRS_NOAA20_NRT, VIIRS_SNPP_NRT",
        "satellites": "N, N20",
        "instruments": "VIIRS",
        "popup_label": "<strong>ALERT-20260918-071<\/strong><br>Nivel: informativa<br>Focos: 9<br>Últimas 6 h: 0<br>FRP total: 9.9 MW<br>Última detección UTC: 2026-09-17 02:00:00"
      }
    },
    {
      "type": "Feature",
      "geometry": {
        "type": "Point",
        "coordinates": [-5.1578, 37.3791]
      },
      "properties": {
        "cluster_id": "ALERT-20260918-072",
        "alerta_operativa": "informativa",
        "score": 13.5,
        "n_focos": 7,
        "n_ultimas_6h": 0,
        "n_ultimas_24h": 0,
        "frp_total_mw": 24.5,
        "frp_max_mw": 17.3,
        "edad_min_h": 28.2,
        "ultima_deteccion_utc": "2026-09-17 03:21:00",
        "sensores": "VIIRS_NOAA20_NRT, VIIRS_SNPP_NRT",
        "satellites": "N, N20",
        "instruments": "VIIRS",
        "popup_label": "<strong>ALERT-20260918-072<\/strong><br>Nivel: informativa<br>Focos: 7<br>Últimas 6 h: 0<br>FRP total: 24.5 MW<br>Última detección UTC: 2026-09-17 03:21:00"
      }
    },
    {
      "type": "Feature",
      "geometry": {
        "type": "Point",
        "coordinates": [-1.2796, 41.9343]
      },
      "properties": {
        "cluster_id": "ALERT-20260918-073",
        "alerta_operativa": "informativa",
        "score": 12.3,
        "n_focos": 7,
        "n_ultimas_6h": 0,
        "n_ultimas_24h": 0,
        "frp_total_mw": 13.2,
        "frp_max_mw": 4,
        "edad_min_h": 28.2,
        "ultima_deteccion_utc": "2026-09-17 03:19:00",
        "sensores": "VIIRS_NOAA20_NRT, VIIRS_SNPP_NRT",
        "satellites": "N, N20",
        "instruments": "VIIRS",
        "popup_label": "<strong>ALERT-20260918-073<\/strong><br>Nivel: informativa<br>Focos: 7<br>Últimas 6 h: 0<br>FRP total: 13.2 MW<br>Última detección UTC: 2026-09-17 03:19:00"
      }
    },
    {
      "type": "Feature",
      "geometry": {
        "type": "Point",
        "coordinates": [-7.5522, 33.5103]
      },
      "properties": {
        "cluster_id": "ALERT-20260918-074",
        "alerta_operativa": "informativa",
        "score": 9.1,
        "n_focos": 5,
        "n_ultimas_6h": 0,
        "n_ultimas_24h": 0,
        "frp_total_mw": 6.6,
        "frp_max_mw": 1.6,
        "edad_min_h": 28.2,
        "ultima_deteccion_utc": "2026-09-17 03:21:00",
        "sensores": "VIIRS_NOAA20_NRT, VIIRS_SNPP_NRT",
        "satellites": "N, N20",
        "instruments": "VIIRS",
        "popup_label": "<strong>ALERT-20260918-074<\/strong><br>Nivel: informativa<br>Focos: 5<br>Últimas 6 h: 0<br>FRP total: 6.6 MW<br>Última detección UTC: 2026-09-17 03:21:00"
      }
    },
    {
      "type": "Feature",
      "geometry": {
        "type": "Point",
        "coordinates": [-3.168, 40.7477]
      },
      "properties": {
        "cluster_id": "ALERT-20260918-075",
        "alerta_operativa": "informativa",
        "score": 8.4,
        "n_focos": 4,
        "n_ultimas_6h": 0,
        "n_ultimas_24h": 0,
        "frp_total_mw": 8.2,
        "frp_max_mw": 2.3,
        "edad_min_h": 29.6,
        "ultima_deteccion_utc": "2026-09-17 02:00:00",
        "sensores": "VIIRS_NOAA20_NRT, VIIRS_SNPP_NRT",
        "satellites": "N, N20",
        "instruments": "VIIRS",
        "popup_label": "<strong>ALERT-20260918-075<\/strong><br>Nivel: informativa<br>Focos: 4<br>Últimas 6 h: 0<br>FRP total: 8.2 MW<br>Última detección UTC: 2026-09-17 02:00:00"
      }
    },
    {
      "type": "Feature",
      "geometry": {
        "type": "Point",
        "coordinates": [-4.1266, 40.9309]
      },
      "properties": {
        "cluster_id": "ALERT-20260918-076",
        "alerta_operativa": "informativa",
        "score": 6.2,
        "n_focos": 3,
        "n_ultimas_6h": 0,
        "n_ultimas_24h": 0,
        "frp_total_mw": 3.9,
        "frp_max_mw": 2,
        "edad_min_h": 28.2,
        "ultima_deteccion_utc": "2026-09-17 03:19:00",
        "sensores": "VIIRS_NOAA20_NRT, VIIRS_SNPP_NRT",
        "satellites": "N, N20",
        "instruments": "VIIRS",
        "popup_label": "<strong>ALERT-20260918-076<\/strong><br>Nivel: informativa<br>Focos: 3<br>Últimas 6 h: 0<br>FRP total: 3.9 MW<br>Última detección UTC: 2026-09-17 03:19:00"
      }
    },
    {
      "type": "Feature",
      "geometry": {
        "type": "Point",
        "coordinates": [3.1679, 32.5547]
      },
      "properties": {
        "cluster_id": "ALERT-20260918-077",
        "alerta_operativa": "informativa",
        "score": 5.4,
        "n_focos": 2,
        "n_ultimas_6h": 0,
        "n_ultimas_24h": 0,
        "frp_total_mw": 4.4,
        "frp_max_mw": 2.8,
        "edad_min_h": 29.5,
        "ultima_deteccion_utc": "2026-09-17 02:02:00",
        "sensores": "VIIRS_NOAA20_NRT, VIIRS_SNPP_NRT",
        "satellites": "N, N20",
        "instruments": "VIIRS",
        "popup_label": "<strong>ALERT-20260918-077<\/strong><br>Nivel: informativa<br>Focos: 2<br>Últimas 6 h: 0<br>FRP total: 4.4 MW<br>Última detección UTC: 2026-09-17 02:02:00"
      }
    },
    {
      "type": "Feature",
      "geometry": {
        "type": "Point",
        "coordinates": [2.9274, 36.1411]
      },
      "properties": {
        "cluster_id": "ALERT-20260918-078",
        "alerta_operativa": "informativa",
        "score": 4.5,
        "n_focos": 2,
        "n_ultimas_6h": 0,
        "n_ultimas_24h": 0,
        "frp_total_mw": 2.5,
        "frp_max_mw": 1.4,
        "edad_min_h": 29.6,
        "ultima_deteccion_utc": "2026-09-17 02:00:00",
        "sensores": "VIIRS_NOAA20_NRT, VIIRS_SNPP_NRT",
        "satellites": "N, N20",
        "instruments": "VIIRS",
        "popup_label": "<strong>ALERT-20260918-078<\/strong><br>Nivel: informativa<br>Focos: 2<br>Últimas 6 h: 0<br>FRP total: 2.5 MW<br>Última detección UTC: 2026-09-17 02:00:00"
      }
    },
    {
      "type": "Feature",
      "geometry": {
        "type": "Point",
        "coordinates": [-0.2752, 35.5322]
      },
      "properties": {
        "cluster_id": "ALERT-20260918-079",
        "alerta_operativa": "informativa",
        "score": 4,
        "n_focos": 2,
        "n_ultimas_6h": 0,
        "n_ultimas_24h": 0,
        "frp_total_mw": 1.7,
        "frp_max_mw": 0.8,
        "edad_min_h": 29.5,
        "ultima_deteccion_utc": "2026-09-17 02:02:00",
        "sensores": "VIIRS_NOAA20_NRT",
        "satellites": "N20",
        "instruments": "VIIRS",
        "popup_label": "<strong>ALERT-20260918-079<\/strong><br>Nivel: informativa<br>Focos: 2<br>Últimas 6 h: 0<br>FRP total: 1.7 MW<br>Última detección UTC: 2026-09-17 02:02:00"
      }
    },
    {
      "type": "Feature",
      "geometry": {
        "type": "Point",
        "coordinates": [-5.4336, 35.6032]
      },
      "properties": {
        "cluster_id": "ALERT-20260918-080",
        "alerta_operativa": "informativa",
        "score": 3.7,
        "n_focos": 2,
        "n_ultimas_6h": 0,
        "n_ultimas_24h": 0,
        "frp_total_mw": 1.3,
        "frp_max_mw": 0.8,
        "edad_min_h": 29.5,
        "ultima_deteccion_utc": "2026-09-17 02:02:00",
        "sensores": "VIIRS_NOAA20_NRT, VIIRS_SNPP_NRT",
        "satellites": "N, N20",
        "instruments": "VIIRS",
        "popup_label": "<strong>ALERT-20260918-080<\/strong><br>Nivel: informativa<br>Focos: 2<br>Últimas 6 h: 0<br>FRP total: 1.3 MW<br>Última detección UTC: 2026-09-17 02:02:00"
      }
    },
    {
      "type": "Feature",
      "geometry": {
        "type": "Point",
        "coordinates": [0.8078, 36.0967]
      },
      "properties": {
        "cluster_id": "ALERT-20260918-081",
        "alerta_operativa": "informativa",
        "score": 3.5,
        "n_focos": 2,
        "n_ultimas_6h": 0,
        "n_ultimas_24h": 0,
        "frp_total_mw": 1.1,
        "frp_max_mw": 0.7,
        "edad_min_h": 29.6,
        "ultima_deteccion_utc": "2026-09-17 02:00:00",
        "sensores": "VIIRS_NOAA20_NRT, VIIRS_SNPP_NRT",
        "satellites": "N, N20",
        "instruments": "VIIRS",
        "popup_label": "<strong>ALERT-20260918-081<\/strong><br>Nivel: informativa<br>Focos: 2<br>Últimas 6 h: 0<br>FRP total: 1.1 MW<br>Última detección UTC: 2026-09-17 02:00:00"
      }
    },
    {
      "type": "Feature",
      "geometry": {
        "type": "Point",
        "coordinates": [-7.8239, 40.4842]
      },
      "properties": {
        "cluster_id": "ALERT-20260918-082",
        "alerta_operativa": "informativa",
        "score": 3.4,
        "n_focos": 2,
        "n_ultimas_6h": 0,
        "n_ultimas_24h": 0,
        "frp_total_mw": 1,
        "frp_max_mw": 0.6,
        "edad_min_h": 29.9,
        "ultima_deteccion_utc": "2026-09-17 01:39:00",
        "sensores": "VIIRS_SNPP_NRT",
        "satellites": "N",
        "instruments": "VIIRS",
        "popup_label": "<strong>ALERT-20260918-082<\/strong><br>Nivel: informativa<br>Focos: 2<br>Últimas 6 h: 0<br>FRP total: 1 MW<br>Última detección UTC: 2026-09-17 01:39:00"
      }
    },
    {
      "type": "Feature",
      "geometry": {
        "type": "Point",
        "coordinates": [-6.0893, 40.0093]
      },
      "properties": {
        "cluster_id": "ALERT-20260918-083",
        "alerta_operativa": "informativa",
        "score": 3.3,
        "n_focos": 2,
        "n_ultimas_6h": 0,
        "n_ultimas_24h": 0,
        "frp_total_mw": 0.9,
        "frp_max_mw": 0.5,
        "edad_min_h": 29.9,
        "ultima_deteccion_utc": "2026-09-17 01:39:00",
        "sensores": "VIIRS_SNPP_NRT",
        "satellites": "N",
        "instruments": "VIIRS",
        "popup_label": "<strong>ALERT-20260918-083<\/strong><br>Nivel: informativa<br>Focos: 2<br>Últimas 6 h: 0<br>FRP total: 0.9 MW<br>Última detección UTC: 2026-09-17 01:39:00"
      }
    },
    {
      "type": "Feature",
      "geometry": {
        "type": "Point",
        "coordinates": [-3.8423, 43.4087]
      },
      "properties": {
        "cluster_id": "ALERT-20260918-084",
        "alerta_operativa": "informativa",
        "score": 2.9,
        "n_focos": 1,
        "n_ultimas_6h": 0,
        "n_ultimas_24h": 0,
        "frp_total_mw": 1.6,
        "frp_max_mw": 1.6,
        "edad_min_h": 29.9,
        "ultima_deteccion_utc": "2026-09-17 01:39:00",
        "sensores": "VIIRS_SNPP_NRT",
        "satellites": "N",
        "instruments": "VIIRS",
        "popup_label": "<strong>ALERT-20260918-084<\/strong><br>Nivel: informativa<br>Focos: 1<br>Últimas 6 h: 0<br>FRP total: 1.6 MW<br>Última detección UTC: 2026-09-17 01:39:00"
      }
    },
    {
      "type": "Feature",
      "geometry": {
        "type": "Point",
        "coordinates": [-6.721, 38.3198]
      },
      "properties": {
        "cluster_id": "ALERT-20260918-085",
        "alerta_operativa": "informativa",
        "score": 2.2,
        "n_focos": 1,
        "n_ultimas_6h": 0,
        "n_ultimas_24h": 0,
        "frp_total_mw": 0.8,
        "frp_max_mw": 0.8,
        "edad_min_h": 29.6,
        "ultima_deteccion_utc": "2026-09-17 02:00:00",
        "sensores": "VIIRS_NOAA20_NRT",
        "satellites": "N20",
        "instruments": "VIIRS",
        "popup_label": "<strong>ALERT-20260918-085<\/strong><br>Nivel: informativa<br>Focos: 1<br>Últimas 6 h: 0<br>FRP total: 0.8 MW<br>Última detección UTC: 2026-09-17 02:00:00"
      }
    },
    {
      "type": "Feature",
      "geometry": {
        "type": "Point",
        "coordinates": [-7.1479, 32.9906]
      },
      "properties": {
        "cluster_id": "ALERT-20260918-086",
        "alerta_operativa": "informativa",
        "score": 2.1,
        "n_focos": 1,
        "n_ultimas_6h": 0,
        "n_ultimas_24h": 0,
        "frp_total_mw": 0.7,
        "frp_max_mw": 0.7,
        "edad_min_h": 29.9,
        "ultima_deteccion_utc": "2026-09-17 01:41:00",
        "sensores": "VIIRS_SNPP_NRT",
        "satellites": "N",
        "instruments": "VIIRS",
        "popup_label": "<strong>ALERT-20260918-086<\/strong><br>Nivel: informativa<br>Focos: 1<br>Últimas 6 h: 0<br>FRP total: 0.7 MW<br>Última detección UTC: 2026-09-17 01:41:00"
      }
    },
    {
      "type": "Feature",
      "geometry": {
        "type": "Point",
        "coordinates": [4.4763, 36.0361]
      },
      "properties": {
        "cluster_id": "ALERT-20260918-087",
        "alerta_operativa": "informativa",
        "score": 1.8,
        "n_focos": 1,
        "n_ultimas_6h": 0,
        "n_ultimas_24h": 0,
        "frp_total_mw": 0.5,
        "frp_max_mw": 0.5,
        "edad_min_h": 29.9,
        "ultima_deteccion_utc": "2026-09-17 01:41:00",
        "sensores": "VIIRS_SNPP_NRT",
        "satellites": "N",
        "instruments": "VIIRS",
        "popup_label": "<strong>ALERT-20260918-087<\/strong><br>Nivel: informativa<br>Focos: 1<br>Últimas 6 h: 0<br>FRP total: 0.5 MW<br>Última detección UTC: 2026-09-17 01:41:00"
      }
    },
    {
      "type": "Feature",
      "geometry": {
        "type": "Point",
        "coordinates": [0.9893, 43.1877]
      },
      "properties": {
        "cluster_id": "ALERT-20260918-088",
        "alerta_operativa": "informativa",
        "score": 1.7,
        "n_focos": 1,
        "n_ultimas_6h": 0,
        "n_ultimas_24h": 0,
        "frp_total_mw": 0.4,
        "frp_max_mw": 0.4,
        "edad_min_h": 29.6,
        "ultima_deteccion_utc": "2026-09-17 01:58:00",
        "sensores": "VIIRS_NOAA20_NRT",
        "satellites": "N20",
        "instruments": "VIIRS",
        "popup_label": "<strong>ALERT-20260918-088<\/strong><br>Nivel: informativa<br>Focos: 1<br>Últimas 6 h: 0<br>FRP total: 0.4 MW<br>Última detección UTC: 2026-09-17 01:58:00"
      }
    },
    {
      "type": "Feature",
      "geometry": {
        "type": "Point",
        "coordinates": [1.0098, 41.5674]
      },
      "properties": {
        "cluster_id": "ALERT-20260918-089",
        "alerta_operativa": "informativa",
        "score": 1.5,
        "n_focos": 1,
        "n_ultimas_6h": 0,
        "n_ultimas_24h": 0,
        "frp_total_mw": 0.3,
        "frp_max_mw": 0.3,
        "edad_min_h": 29.6,
        "ultima_deteccion_utc": "2026-09-17 02:00:00",
        "sensores": "VIIRS_NOAA20_NRT",
        "satellites": "N20",
        "instruments": "VIIRS",
        "popup_label": "<strong>ALERT-20260918-089<\/strong><br>Nivel: informativa<br>Focos: 1<br>Últimas 6 h: 0<br>FRP total: 0.3 MW<br>Última detección UTC: 2026-09-17 02:00:00"
      }
    }
  ]
}
