{
  "type": "FeatureCollection",
  "features": [
    {
      "type": "Feature",
      "geometry": {
        "type": "Point",
        "coordinates": [-8.9989, 42.6551]
      },
      "properties": {
        "cluster_id": "ALERT-20260921-001",
        "alerta_operativa": "alta",
        "score": 13.4,
        "n_focos": 1,
        "n_ultimas_6h": 0,
        "n_ultimas_24h": 1,
        "frp_total_mw": 180.1,
        "frp_max_mw": 180.1,
        "edad_min_h": 6.2,
        "ultima_deteccion_utc": "2026-09-21 13:48:00",
        "sensores": "VIIRS_NOAA20_NRT",
        "satellites": "N20",
        "instruments": "VIIRS",
        "popup_label": "<strong>ALERT-20260921-001<\/strong><br>Nivel: alta<br>Focos: 1<br>Últimas 6 h: 0<br>FRP total: 180.1 MW<br>Última detección UTC: 2026-09-21 13:48:00"
      }
    },
    {
      "type": "Feature",
      "geometry": {
        "type": "Point",
        "coordinates": [-0.2588, 35.8052]
      },
      "properties": {
        "cluster_id": "ALERT-20260921-002",
        "alerta_operativa": "media",
        "score": 88.6,
        "n_focos": 43,
        "n_ultimas_6h": 0,
        "n_ultimas_24h": 18,
        "frp_total_mw": 119.8,
        "frp_max_mw": 12.6,
        "edad_min_h": 6.2,
        "ultima_deteccion_utc": "2026-09-21 13:46:00",
        "sensores": "VIIRS_NOAA20_NRT, VIIRS_SNPP_NRT",
        "satellites": "N, N20",
        "instruments": "VIIRS",
        "popup_label": "<strong>ALERT-20260921-002<\/strong><br>Nivel: media<br>Focos: 43<br>Últimas 6 h: 0<br>FRP total: 119.8 MW<br>Última detección UTC: 2026-09-21 13:46:00"
      }
    },
    {
      "type": "Feature",
      "geometry": {
        "type": "Point",
        "coordinates": [-5.7654, 43.5313]
      },
      "properties": {
        "cluster_id": "ALERT-20260921-003",
        "alerta_operativa": "media",
        "score": 80,
        "n_focos": 36,
        "n_ultimas_6h": 0,
        "n_ultimas_24h": 17,
        "frp_total_mw": 143.9,
        "frp_max_mw": 19.6,
        "edad_min_h": 6.2,
        "ultima_deteccion_utc": "2026-09-21 13:48:00",
        "sensores": "VIIRS_NOAA20_NRT, VIIRS_SNPP_NRT",
        "satellites": "N, N20",
        "instruments": "VIIRS",
        "popup_label": "<strong>ALERT-20260921-003<\/strong><br>Nivel: media<br>Focos: 36<br>Últimas 6 h: 0<br>FRP total: 143.9 MW<br>Última detección UTC: 2026-09-21 13:48:00"
      }
    },
    {
      "type": "Feature",
      "geometry": {
        "type": "Point",
        "coordinates": [-7.6721, 41.0225]
      },
      "properties": {
        "cluster_id": "ALERT-20260921-004",
        "alerta_operativa": "media",
        "score": 60,
        "n_focos": 17,
        "n_ultimas_6h": 0,
        "n_ultimas_24h": 17,
        "frp_total_mw": 87.3,
        "frp_max_mw": 7.6,
        "edad_min_h": 6.5,
        "ultima_deteccion_utc": "2026-09-21 13:27:00",
        "sensores": "VIIRS_SNPP_NRT",
        "satellites": "N",
        "instruments": "VIIRS",
        "popup_label": "<strong>ALERT-20260921-004<\/strong><br>Nivel: media<br>Focos: 17<br>Últimas 6 h: 0<br>FRP total: 87.3 MW<br>Última detección UTC: 2026-09-21 13:27:00"
      }
    },
    {
      "type": "Feature",
      "geometry": {
        "type": "Point",
        "coordinates": [4.8948, 43.4419]
      },
      "properties": {
        "cluster_id": "ALERT-20260921-005",
        "alerta_operativa": "media",
        "score": 58.2,
        "n_focos": 39,
        "n_ultimas_6h": 0,
        "n_ultimas_24h": 5,
        "frp_total_mw": 98.2,
        "frp_max_mw": 10.2,
        "edad_min_h": 17.9,
        "ultima_deteccion_utc": "2026-09-21 02:04:00",
        "sensores": "VIIRS_NOAA20_NRT, VIIRS_SNPP_NRT",
        "satellites": "N, N20",
        "instruments": "VIIRS",
        "popup_label": "<strong>ALERT-20260921-005<\/strong><br>Nivel: media<br>Focos: 39<br>Últimas 6 h: 0<br>FRP total: 98.2 MW<br>Última detección UTC: 2026-09-21 02:04:00"
      }
    },
    {
      "type": "Feature",
      "geometry": {
        "type": "Point",
        "coordinates": [3.9866, 32.2779]
      },
      "properties": {
        "cluster_id": "ALERT-20260921-006",
        "alerta_operativa": "media",
        "score": 34.7,
        "n_focos": 17,
        "n_ultimas_6h": 0,
        "n_ultimas_24h": 5,
        "frp_total_mw": 46.2,
        "frp_max_mw": 6,
        "edad_min_h": 17.8,
        "ultima_deteccion_utc": "2026-09-21 02:09:00",
        "sensores": "VIIRS_NOAA20_NRT, VIIRS_SNPP_NRT",
        "satellites": "N, N20",
        "instruments": "VIIRS",
        "popup_label": "<strong>ALERT-20260921-006<\/strong><br>Nivel: media<br>Focos: 17<br>Últimas 6 h: 0<br>FRP total: 46.2 MW<br>Última detección UTC: 2026-09-21 02:09:00"
      }
    },
    {
      "type": "Feature",
      "geometry": {
        "type": "Point",
        "coordinates": [-0.5173, 28.2]
      },
      "properties": {
        "cluster_id": "ALERT-20260921-007",
        "alerta_operativa": "media",
        "score": 34.1,
        "n_focos": 13,
        "n_ultimas_6h": 0,
        "n_ultimas_24h": 7,
        "frp_total_mw": 34.4,
        "frp_max_mw": 10.1,
        "edad_min_h": 6.6,
        "ultima_deteccion_utc": "2026-09-21 13:23:00",
        "sensores": "VIIRS_NOAA20_NRT, VIIRS_SNPP_NRT",
        "satellites": "N, N20",
        "instruments": "VIIRS",
        "popup_label": "<strong>ALERT-20260921-007<\/strong><br>Nivel: media<br>Focos: 13<br>Últimas 6 h: 0<br>FRP total: 34.4 MW<br>Última detección UTC: 2026-09-21 13:23:00"
      }
    },
    {
      "type": "Feature",
      "geometry": {
        "type": "Point",
        "coordinates": [-8.144, 41.0719]
      },
      "properties": {
        "cluster_id": "ALERT-20260921-008",
        "alerta_operativa": "media",
        "score": 32.5,
        "n_focos": 9,
        "n_ultimas_6h": 0,
        "n_ultimas_24h": 8,
        "frp_total_mw": 41.9,
        "frp_max_mw": 13.4,
        "edad_min_h": 6.5,
        "ultima_deteccion_utc": "2026-09-21 13:27:00",
        "sensores": "VIIRS_NOAA20_NRT, VIIRS_SNPP_NRT",
        "satellites": "N, N20",
        "instruments": "VIIRS",
        "popup_label": "<strong>ALERT-20260921-008<\/strong><br>Nivel: media<br>Focos: 9<br>Últimas 6 h: 0<br>FRP total: 41.9 MW<br>Última detección UTC: 2026-09-21 13:27:00"
      }
    },
    {
      "type": "Feature",
      "geometry": {
        "type": "Point",
        "coordinates": [4.3488, 43.7007]
      },
      "properties": {
        "cluster_id": "ALERT-20260921-009",
        "alerta_operativa": "media",
        "score": 28.8,
        "n_focos": 7,
        "n_ultimas_6h": 0,
        "n_ultimas_24h": 7,
        "frp_total_mw": 47.3,
        "frp_max_mw": 10.2,
        "edad_min_h": 6.2,
        "ultima_deteccion_utc": "2026-09-21 13:48:00",
        "sensores": "VIIRS_NOAA20_NRT, VIIRS_SNPP_NRT",
        "satellites": "N, N20",
        "instruments": "VIIRS",
        "popup_label": "<strong>ALERT-20260921-009<\/strong><br>Nivel: media<br>Focos: 7<br>Últimas 6 h: 0<br>FRP total: 47.3 MW<br>Última detección UTC: 2026-09-21 13:48:00"
      }
    },
    {
      "type": "Feature",
      "geometry": {
        "type": "Point",
        "coordinates": [-3.4745, 40.2448]
      },
      "properties": {
        "cluster_id": "ALERT-20260921-010",
        "alerta_operativa": "media",
        "score": 28.5,
        "n_focos": 13,
        "n_ultimas_6h": 0,
        "n_ultimas_24h": 4,
        "frp_total_mw": 40.5,
        "frp_max_mw": 4.8,
        "edad_min_h": 6.2,
        "ultima_deteccion_utc": "2026-09-21 13:48:00",
        "sensores": "VIIRS_NOAA20_NRT, VIIRS_SNPP_NRT",
        "satellites": "N, N20",
        "instruments": "VIIRS",
        "popup_label": "<strong>ALERT-20260921-010<\/strong><br>Nivel: media<br>Focos: 13<br>Últimas 6 h: 0<br>FRP total: 40.5 MW<br>Última detección UTC: 2026-09-21 13:48:00"
      }
    },
    {
      "type": "Feature",
      "geometry": {
        "type": "Point",
        "coordinates": [2.9239, 42.6321]
      },
      "properties": {
        "cluster_id": "ALERT-20260921-011",
        "alerta_operativa": "media",
        "score": 27.9,
        "n_focos": 7,
        "n_ultimas_6h": 0,
        "n_ultimas_24h": 6,
        "frp_total_mw": 85.7,
        "frp_max_mw": 24.5,
        "edad_min_h": 6.5,
        "ultima_deteccion_utc": "2026-09-21 13:27:00",
        "sensores": "VIIRS_NOAA20_NRT, VIIRS_SNPP_NRT",
        "satellites": "N, N20",
        "instruments": "VIIRS",
        "popup_label": "<strong>ALERT-20260921-011<\/strong><br>Nivel: media<br>Focos: 7<br>Últimas 6 h: 0<br>FRP total: 85.7 MW<br>Última detección UTC: 2026-09-21 13:27:00"
      }
    },
    {
      "type": "Feature",
      "geometry": {
        "type": "Point",
        "coordinates": [-5.6605, 35.718]
      },
      "properties": {
        "cluster_id": "ALERT-20260921-012",
        "alerta_operativa": "media",
        "score": 26.4,
        "n_focos": 13,
        "n_ultimas_6h": 0,
        "n_ultimas_24h": 3,
        "frp_total_mw": 39.4,
        "frp_max_mw": 6.8,
        "edad_min_h": 17.6,
        "ultima_deteccion_utc": "2026-09-21 02:26:00",
        "sensores": "VIIRS_NOAA20_NRT, VIIRS_SNPP_NRT",
        "satellites": "N, N20",
        "instruments": "VIIRS",
        "popup_label": "<strong>ALERT-20260921-012<\/strong><br>Nivel: media<br>Focos: 13<br>Últimas 6 h: 0<br>FRP total: 39.4 MW<br>Última detección UTC: 2026-09-21 02:26:00"
      }
    },
    {
      "type": "Feature",
      "geometry": {
        "type": "Point",
        "coordinates": [-8.0288, 41.7478]
      },
      "properties": {
        "cluster_id": "ALERT-20260921-013",
        "alerta_operativa": "media",
        "score": 24.1,
        "n_focos": 6,
        "n_ultimas_6h": 0,
        "n_ultimas_24h": 6,
        "frp_total_mw": 19.9,
        "frp_max_mw": 4,
        "edad_min_h": 17.6,
        "ultima_deteccion_utc": "2026-09-21 02:26:00",
        "sensores": "VIIRS_NOAA20_NRT, VIIRS_SNPP_NRT",
        "satellites": "N, N20",
        "instruments": "VIIRS",
        "popup_label": "<strong>ALERT-20260921-013<\/strong><br>Nivel: media<br>Focos: 6<br>Últimas 6 h: 0<br>FRP total: 19.9 MW<br>Última detección UTC: 2026-09-21 02:26:00"
      }
    },
    {
      "type": "Feature",
      "geometry": {
        "type": "Point",
        "coordinates": [-7.9125, 40.9244]
      },
      "properties": {
        "cluster_id": "ALERT-20260921-014",
        "alerta_operativa": "media",
        "score": 23.8,
        "n_focos": 6,
        "n_ultimas_6h": 0,
        "n_ultimas_24h": 6,
        "frp_total_mw": 16.8,
        "frp_max_mw": 4.1,
        "edad_min_h": 17.6,
        "ultima_deteccion_utc": "2026-09-21 02:26:00",
        "sensores": "VIIRS_NOAA20_NRT, VIIRS_SNPP_NRT",
        "satellites": "N, N20",
        "instruments": "VIIRS",
        "popup_label": "<strong>ALERT-20260921-014<\/strong><br>Nivel: media<br>Focos: 6<br>Últimas 6 h: 0<br>FRP total: 16.8 MW<br>Última detección UTC: 2026-09-21 02:26:00"
      }
    },
    {
      "type": "Feature",
      "geometry": {
        "type": "Point",
        "coordinates": [-8.4603, 43.3546]
      },
      "properties": {
        "cluster_id": "ALERT-20260921-015",
        "alerta_operativa": "media",
        "score": 21.4,
        "n_focos": 6,
        "n_ultimas_6h": 0,
        "n_ultimas_24h": 5,
        "frp_total_mw": 13.6,
        "frp_max_mw": 3.5,
        "edad_min_h": 16.2,
        "ultima_deteccion_utc": "2026-09-21 03:47:00",
        "sensores": "VIIRS_NOAA20_NRT, VIIRS_SNPP_NRT",
        "satellites": "N, N20",
        "instruments": "VIIRS",
        "popup_label": "<strong>ALERT-20260921-015<\/strong><br>Nivel: media<br>Focos: 6<br>Últimas 6 h: 0<br>FRP total: 13.6 MW<br>Última detección UTC: 2026-09-21 03:47:00"
      }
    },
    {
      "type": "Feature",
      "geometry": {
        "type": "Point",
        "coordinates": [-8.5811, 40.4416]
      },
      "properties": {
        "cluster_id": "ALERT-20260921-016",
        "alerta_operativa": "media",
        "score": 19.4,
        "n_focos": 5,
        "n_ultimas_6h": 0,
        "n_ultimas_24h": 3,
        "frp_total_mw": 66,
        "frp_max_mw": 14.1,
        "edad_min_h": 6.2,
        "ultima_deteccion_utc": "2026-09-21 13:48:00",
        "sensores": "VIIRS_NOAA20_NRT, VIIRS_SNPP_NRT",
        "satellites": "N, N20",
        "instruments": "VIIRS",
        "popup_label": "<strong>ALERT-20260921-016<\/strong><br>Nivel: media<br>Focos: 5<br>Últimas 6 h: 0<br>FRP total: 66 MW<br>Última detección UTC: 2026-09-21 13:48:00"
      }
    },
    {
      "type": "Feature",
      "geometry": {
        "type": "Point",
        "coordinates": [-2.8085, 42.4595]
      },
      "properties": {
        "cluster_id": "ALERT-20260921-017",
        "alerta_operativa": "media",
        "score": 18.1,
        "n_focos": 7,
        "n_ultimas_6h": 0,
        "n_ultimas_24h": 2,
        "frp_total_mw": 33,
        "frp_max_mw": 8.8,
        "edad_min_h": 17.6,
        "ultima_deteccion_utc": "2026-09-21 02:24:00",
        "sensores": "VIIRS_NOAA20_NRT, VIIRS_SNPP_NRT",
        "satellites": "N, N20",
        "instruments": "VIIRS",
        "popup_label": "<strong>ALERT-20260921-017<\/strong><br>Nivel: media<br>Focos: 7<br>Últimas 6 h: 0<br>FRP total: 33 MW<br>Última detección UTC: 2026-09-21 02:24:00"
      }
    },
    {
      "type": "Feature",
      "geometry": {
        "type": "Point",
        "coordinates": [3.0957, 36.7257]
      },
      "properties": {
        "cluster_id": "ALERT-20260921-018",
        "alerta_operativa": "media",
        "score": 18.1,
        "n_focos": 6,
        "n_ultimas_6h": 0,
        "n_ultimas_24h": 4,
        "frp_total_mw": 6.8,
        "frp_max_mw": 1.7,
        "edad_min_h": 17.6,
        "ultima_deteccion_utc": "2026-09-21 02:26:00",
        "sensores": "VIIRS_NOAA20_NRT, VIIRS_SNPP_NRT",
        "satellites": "N, N20",
        "instruments": "VIIRS",
        "popup_label": "<strong>ALERT-20260921-018<\/strong><br>Nivel: media<br>Focos: 6<br>Últimas 6 h: 0<br>FRP total: 6.8 MW<br>Última detección UTC: 2026-09-21 02:26:00"
      }
    },
    {
      "type": "Feature",
      "geometry": {
        "type": "Point",
        "coordinates": [-8.6165, 42.4681]
      },
      "properties": {
        "cluster_id": "ALERT-20260921-019",
        "alerta_operativa": "media",
        "score": 15.7,
        "n_focos": 3,
        "n_ultimas_6h": 0,
        "n_ultimas_24h": 3,
        "frp_total_mw": 27.5,
        "frp_max_mw": 24.2,
        "edad_min_h": 6.2,
        "ultima_deteccion_utc": "2026-09-21 13:48:00",
        "sensores": "VIIRS_NOAA20_NRT, VIIRS_SNPP_NRT",
        "satellites": "N, N20",
        "instruments": "VIIRS",
        "popup_label": "<strong>ALERT-20260921-019<\/strong><br>Nivel: media<br>Focos: 3<br>Últimas 6 h: 0<br>FRP total: 27.5 MW<br>Última detección UTC: 2026-09-21 13:48:00"
      }
    },
    {
      "type": "Feature",
      "geometry": {
        "type": "Point",
        "coordinates": [-4.0963, 38.6363]
      },
      "properties": {
        "cluster_id": "ALERT-20260921-020",
        "alerta_operativa": "media",
        "score": 15.3,
        "n_focos": 2,
        "n_ultimas_6h": 0,
        "n_ultimas_24h": 2,
        "frp_total_mw": 104.7,
        "frp_max_mw": 52.4,
        "edad_min_h": 6.2,
        "ultima_deteccion_utc": "2026-09-21 13:48:00",
        "sensores": "VIIRS_NOAA20_NRT",
        "satellites": "N20",
        "instruments": "VIIRS",
        "popup_label": "<strong>ALERT-20260921-020<\/strong><br>Nivel: media<br>Focos: 2<br>Últimas 6 h: 0<br>FRP total: 104.7 MW<br>Última detección UTC: 2026-09-21 13:48:00"
      }
    },
    {
      "type": "Feature",
      "geometry": {
        "type": "Point",
        "coordinates": [-7.3283, 41.634]
      },
      "properties": {
        "cluster_id": "ALERT-20260921-021",
        "alerta_operativa": "media",
        "score": 14.1,
        "n_focos": 3,
        "n_ultimas_6h": 0,
        "n_ultimas_24h": 3,
        "frp_total_mw": 11.8,
        "frp_max_mw": 5.9,
        "edad_min_h": 6.5,
        "ultima_deteccion_utc": "2026-09-21 13:27:00",
        "sensores": "VIIRS_SNPP_NRT",
        "satellites": "N",
        "instruments": "VIIRS",
        "popup_label": "<strong>ALERT-20260921-021<\/strong><br>Nivel: media<br>Focos: 3<br>Últimas 6 h: 0<br>FRP total: 11.8 MW<br>Última detección UTC: 2026-09-21 13:27:00"
      }
    },
    {
      "type": "Feature",
      "geometry": {
        "type": "Point",
        "coordinates": [3.1116, 43.23]
      },
      "properties": {
        "cluster_id": "ALERT-20260921-022",
        "alerta_operativa": "media",
        "score": 13.6,
        "n_focos": 2,
        "n_ultimas_6h": 0,
        "n_ultimas_24h": 2,
        "frp_total_mw": 43.6,
        "frp_max_mw": 24.3,
        "edad_min_h": 6.5,
        "ultima_deteccion_utc": "2026-09-21 13:27:00",
        "sensores": "VIIRS_SNPP_NRT",
        "satellites": "N",
        "instruments": "VIIRS",
        "popup_label": "<strong>ALERT-20260921-022<\/strong><br>Nivel: media<br>Focos: 2<br>Últimas 6 h: 0<br>FRP total: 43.6 MW<br>Última detección UTC: 2026-09-21 13:27:00"
      }
    },
    {
      "type": "Feature",
      "geometry": {
        "type": "Point",
        "coordinates": [0.1785, 41.9245]
      },
      "properties": {
        "cluster_id": "ALERT-20260921-023",
        "alerta_operativa": "media",
        "score": 13.4,
        "n_focos": 4,
        "n_ultimas_6h": 0,
        "n_ultimas_24h": 2,
        "frp_total_mw": 13.7,
        "frp_max_mw": 8.8,
        "edad_min_h": 17.6,
        "ultima_deteccion_utc": "2026-09-21 02:24:00",
        "sensores": "VIIRS_NOAA20_NRT",
        "satellites": "N20",
        "instruments": "VIIRS",
        "popup_label": "<strong>ALERT-20260921-023<\/strong><br>Nivel: media<br>Focos: 4<br>Últimas 6 h: 0<br>FRP total: 13.7 MW<br>Última detección UTC: 2026-09-21 02:24:00"
      }
    },
    {
      "type": "Feature",
      "geometry": {
        "type": "Point",
        "coordinates": [-7.004, 39.6557]
      },
      "properties": {
        "cluster_id": "ALERT-20260921-024",
        "alerta_operativa": "media",
        "score": 13.3,
        "n_focos": 3,
        "n_ultimas_6h": 0,
        "n_ultimas_24h": 3,
        "frp_total_mw": 7.8,
        "frp_max_mw": 3.1,
        "edad_min_h": 6.5,
        "ultima_deteccion_utc": "2026-09-21 13:27:00",
        "sensores": "VIIRS_SNPP_NRT",
        "satellites": "N",
        "instruments": "VIIRS",
        "popup_label": "<strong>ALERT-20260921-024<\/strong><br>Nivel: media<br>Focos: 3<br>Últimas 6 h: 0<br>FRP total: 7.8 MW<br>Última detección UTC: 2026-09-21 13:27:00"
      }
    },
    {
      "type": "Feature",
      "geometry": {
        "type": "Point",
        "coordinates": [0.127, 36.0182]
      },
      "properties": {
        "cluster_id": "ALERT-20260921-025",
        "alerta_operativa": "media",
        "score": 12.9,
        "n_focos": 4,
        "n_ultimas_6h": 0,
        "n_ultimas_24h": 3,
        "frp_total_mw": 3.2,
        "frp_max_mw": 1.1,
        "edad_min_h": 17.6,
        "ultima_deteccion_utc": "2026-09-21 02:26:00",
        "sensores": "VIIRS_NOAA20_NRT, VIIRS_SNPP_NRT",
        "satellites": "N, N20",
        "instruments": "VIIRS",
        "popup_label": "<strong>ALERT-20260921-025<\/strong><br>Nivel: media<br>Focos: 4<br>Últimas 6 h: 0<br>FRP total: 3.2 MW<br>Última detección UTC: 2026-09-21 02:26:00"
      }
    },
    {
      "type": "Feature",
      "geometry": {
        "type": "Point",
        "coordinates": [-6.3115, 38.8843]
      },
      "properties": {
        "cluster_id": "ALERT-20260921-026",
        "alerta_operativa": "media",
        "score": 12.6,
        "n_focos": 4,
        "n_ultimas_6h": 0,
        "n_ultimas_24h": 0,
        "frp_total_mw": 71.1,
        "frp_max_mw": 23.8,
        "edad_min_h": 29.9,
        "ultima_deteccion_utc": "2026-09-20 14:05:00",
        "sensores": "VIIRS_NOAA20_NRT, VIIRS_SNPP_NRT",
        "satellites": "N, N20",
        "instruments": "VIIRS",
        "popup_label": "<strong>ALERT-20260921-026<\/strong><br>Nivel: media<br>Focos: 4<br>Últimas 6 h: 0<br>FRP total: 71.1 MW<br>Última detección UTC: 2026-09-20 14:05:00"
      }
    },
    {
      "type": "Feature",
      "geometry": {
        "type": "Point",
        "coordinates": [-2.2221, 43.0368]
      },
      "properties": {
        "cluster_id": "ALERT-20260921-027",
        "alerta_operativa": "media",
        "score": 12.6,
        "n_focos": 5,
        "n_ultimas_6h": 0,
        "n_ultimas_24h": 2,
        "frp_total_mw": 5.2,
        "frp_max_mw": 1.3,
        "edad_min_h": 17.6,
        "ultima_deteccion_utc": "2026-09-21 02:24:00",
        "sensores": "VIIRS_NOAA20_NRT, VIIRS_SNPP_NRT",
        "satellites": "N, N20",
        "instruments": "VIIRS",
        "popup_label": "<strong>ALERT-20260921-027<\/strong><br>Nivel: media<br>Focos: 5<br>Últimas 6 h: 0<br>FRP total: 5.2 MW<br>Última detección UTC: 2026-09-21 02:24:00"
      }
    },
    {
      "type": "Feature",
      "geometry": {
        "type": "Point",
        "coordinates": [-9.0116, 38.9224]
      },
      "properties": {
        "cluster_id": "ALERT-20260921-028",
        "alerta_operativa": "media",
        "score": 12,
        "n_focos": 4,
        "n_ultimas_6h": 0,
        "n_ultimas_24h": 2,
        "frp_total_mw": 6.5,
        "frp_max_mw": 1.9,
        "edad_min_h": 17.6,
        "ultima_deteccion_utc": "2026-09-21 02:26:00",
        "sensores": "VIIRS_NOAA20_NRT, VIIRS_SNPP_NRT",
        "satellites": "N, N20",
        "instruments": "VIIRS",
        "popup_label": "<strong>ALERT-20260921-028<\/strong><br>Nivel: media<br>Focos: 4<br>Últimas 6 h: 0<br>FRP total: 6.5 MW<br>Última detección UTC: 2026-09-21 02:26:00"
      }
    },
    {
      "type": "Feature",
      "geometry": {
        "type": "Point",
        "coordinates": [-2.3476, 34.5969]
      },
      "properties": {
        "cluster_id": "ALERT-20260921-029",
        "alerta_operativa": "media",
        "score": 11.3,
        "n_focos": 4,
        "n_ultimas_6h": 0,
        "n_ultimas_24h": 2,
        "frp_total_mw": 4.3,
        "frp_max_mw": 1.3,
        "edad_min_h": 17.6,
        "ultima_deteccion_utc": "2026-09-21 02:26:00",
        "sensores": "VIIRS_NOAA20_NRT, VIIRS_SNPP_NRT",
        "satellites": "N, N20",
        "instruments": "VIIRS",
        "popup_label": "<strong>ALERT-20260921-029<\/strong><br>Nivel: media<br>Focos: 4<br>Últimas 6 h: 0<br>FRP total: 4.3 MW<br>Última detección UTC: 2026-09-21 02:26:00"
      }
    },
    {
      "type": "Feature",
      "geometry": {
        "type": "Point",
        "coordinates": [-6.7699, 42.553]
      },
      "properties": {
        "cluster_id": "ALERT-20260921-030",
        "alerta_operativa": "media",
        "score": 10.9,
        "n_focos": 4,
        "n_ultimas_6h": 0,
        "n_ultimas_24h": 2,
        "frp_total_mw": 3.3,
        "frp_max_mw": 1,
        "edad_min_h": 17.6,
        "ultima_deteccion_utc": "2026-09-21 02:24:00",
        "sensores": "VIIRS_NOAA20_NRT, VIIRS_SNPP_NRT",
        "satellites": "N, N20",
        "instruments": "VIIRS",
        "popup_label": "<strong>ALERT-20260921-030<\/strong><br>Nivel: media<br>Focos: 4<br>Últimas 6 h: 0<br>FRP total: 3.3 MW<br>Última detección UTC: 2026-09-21 02:24:00"
      }
    },
    {
      "type": "Feature",
      "geometry": {
        "type": "Point",
        "coordinates": [1.9874, 41.4306]
      },
      "properties": {
        "cluster_id": "ALERT-20260921-031",
        "alerta_operativa": "media",
        "score": 10.9,
        "n_focos": 4,
        "n_ultimas_6h": 0,
        "n_ultimas_24h": 2,
        "frp_total_mw": 3.2,
        "frp_max_mw": 1.1,
        "edad_min_h": 17.6,
        "ultima_deteccion_utc": "2026-09-21 02:24:00",
        "sensores": "VIIRS_NOAA20_NRT, VIIRS_SNPP_NRT",
        "satellites": "N, N20",
        "instruments": "VIIRS",
        "popup_label": "<strong>ALERT-20260921-031<\/strong><br>Nivel: media<br>Focos: 4<br>Últimas 6 h: 0<br>FRP total: 3.2 MW<br>Última detección UTC: 2026-09-21 02:24:00"
      }
    },
    {
      "type": "Feature",
      "geometry": {
        "type": "Point",
        "coordinates": [-8.4198, 40.2893]
      },
      "properties": {
        "cluster_id": "ALERT-20260921-032",
        "alerta_operativa": "media",
        "score": 10.8,
        "n_focos": 4,
        "n_ultimas_6h": 0,
        "n_ultimas_24h": 2,
        "frp_total_mw": 3,
        "frp_max_mw": 0.9,
        "edad_min_h": 16.2,
        "ultima_deteccion_utc": "2026-09-21 03:47:00",
        "sensores": "VIIRS_NOAA20_NRT, VIIRS_SNPP_NRT",
        "satellites": "N, N20",
        "instruments": "VIIRS",
        "popup_label": "<strong>ALERT-20260921-032<\/strong><br>Nivel: media<br>Focos: 4<br>Últimas 6 h: 0<br>FRP total: 3 MW<br>Última detección UTC: 2026-09-21 03:47:00"
      }
    },
    {
      "type": "Feature",
      "geometry": {
        "type": "Point",
        "coordinates": [-3.0161, 43.3137]
      },
      "properties": {
        "cluster_id": "ALERT-20260921-033",
        "alerta_operativa": "media",
        "score": 10.7,
        "n_focos": 4,
        "n_ultimas_6h": 0,
        "n_ultimas_24h": 2,
        "frp_total_mw": 2.8,
        "frp_max_mw": 1,
        "edad_min_h": 17.9,
        "ultima_deteccion_utc": "2026-09-21 02:04:00",
        "sensores": "VIIRS_NOAA20_NRT, VIIRS_SNPP_NRT",
        "satellites": "N, N20",
        "instruments": "VIIRS",
        "popup_label": "<strong>ALERT-20260921-033<\/strong><br>Nivel: media<br>Focos: 4<br>Últimas 6 h: 0<br>FRP total: 2.8 MW<br>Última detección UTC: 2026-09-21 02:04:00"
      }
    },
    {
      "type": "Feature",
      "geometry": {
        "type": "Point",
        "coordinates": [-8.7424, 42.2078]
      },
      "properties": {
        "cluster_id": "ALERT-20260921-034",
        "alerta_operativa": "media",
        "score": 10.6,
        "n_focos": 2,
        "n_ultimas_6h": 0,
        "n_ultimas_24h": 2,
        "frp_total_mw": 8.8,
        "frp_max_mw": 5.1,
        "edad_min_h": 6.5,
        "ultima_deteccion_utc": "2026-09-21 13:27:00",
        "sensores": "VIIRS_SNPP_NRT",
        "satellites": "N",
        "instruments": "VIIRS",
        "popup_label": "<strong>ALERT-20260921-034<\/strong><br>Nivel: media<br>Focos: 2<br>Últimas 6 h: 0<br>FRP total: 8.8 MW<br>Última detección UTC: 2026-09-21 13:27:00"
      }
    },
    {
      "type": "Feature",
      "geometry": {
        "type": "Point",
        "coordinates": [0.656, 40.724]
      },
      "properties": {
        "cluster_id": "ALERT-20260921-035",
        "alerta_operativa": "media",
        "score": 10.5,
        "n_focos": 2,
        "n_ultimas_6h": 0,
        "n_ultimas_24h": 2,
        "frp_total_mw": 8.5,
        "frp_max_mw": 4.3,
        "edad_min_h": 6.5,
        "ultima_deteccion_utc": "2026-09-21 13:27:00",
        "sensores": "VIIRS_SNPP_NRT",
        "satellites": "N",
        "instruments": "VIIRS",
        "popup_label": "<strong>ALERT-20260921-035<\/strong><br>Nivel: media<br>Focos: 2<br>Últimas 6 h: 0<br>FRP total: 8.5 MW<br>Última detección UTC: 2026-09-21 13:27:00"
      }
    },
    {
      "type": "Feature",
      "geometry": {
        "type": "Point",
        "coordinates": [-3.8315, 39.9616]
      },
      "properties": {
        "cluster_id": "ALERT-20260921-036",
        "alerta_operativa": "media",
        "score": 10.4,
        "n_focos": 2,
        "n_ultimas_6h": 0,
        "n_ultimas_24h": 2,
        "frp_total_mw": 7.9,
        "frp_max_mw": 4.9,
        "edad_min_h": 6.2,
        "ultima_deteccion_utc": "2026-09-21 13:48:00",
        "sensores": "VIIRS_NOAA20_NRT, VIIRS_SNPP_NRT",
        "satellites": "N, N20",
        "instruments": "VIIRS",
        "popup_label": "<strong>ALERT-20260921-036<\/strong><br>Nivel: media<br>Focos: 2<br>Últimas 6 h: 0<br>FRP total: 7.9 MW<br>Última detección UTC: 2026-09-21 13:48:00"
      }
    },
    {
      "type": "Feature",
      "geometry": {
        "type": "Point",
        "coordinates": [-6.4893, 40.6216]
      },
      "properties": {
        "cluster_id": "ALERT-20260921-037",
        "alerta_operativa": "media",
        "score": 10.2,
        "n_focos": 2,
        "n_ultimas_6h": 0,
        "n_ultimas_24h": 2,
        "frp_total_mw": 7,
        "frp_max_mw": 4.2,
        "edad_min_h": 6.5,
        "ultima_deteccion_utc": "2026-09-21 13:27:00",
        "sensores": "VIIRS_SNPP_NRT",
        "satellites": "N",
        "instruments": "VIIRS",
        "popup_label": "<strong>ALERT-20260921-037<\/strong><br>Nivel: media<br>Focos: 2<br>Últimas 6 h: 0<br>FRP total: 7 MW<br>Última detección UTC: 2026-09-21 13:27:00"
      }
    },
    {
      "type": "Feature",
      "geometry": {
        "type": "Point",
        "coordinates": [-2.0637, 42.4193]
      },
      "properties": {
        "cluster_id": "ALERT-20260921-038",
        "alerta_operativa": "media",
        "score": 9.7,
        "n_focos": 2,
        "n_ultimas_6h": 0,
        "n_ultimas_24h": 2,
        "frp_total_mw": 5.5,
        "frp_max_mw": 2.8,
        "edad_min_h": 7.9,
        "ultima_deteccion_utc": "2026-09-21 12:08:00",
        "sensores": "VIIRS_NOAA20_NRT",
        "satellites": "N20",
        "instruments": "VIIRS",
        "popup_label": "<strong>ALERT-20260921-038<\/strong><br>Nivel: media<br>Focos: 2<br>Últimas 6 h: 0<br>FRP total: 5.5 MW<br>Última detección UTC: 2026-09-21 12:08:00"
      }
    },
    {
      "type": "Feature",
      "geometry": {
        "type": "Point",
        "coordinates": [-0.9377, 35.5667]
      },
      "properties": {
        "cluster_id": "ALERT-20260921-039",
        "alerta_operativa": "media",
        "score": 9.6,
        "n_focos": 3,
        "n_ultimas_6h": 0,
        "n_ultimas_24h": 2,
        "frp_total_mw": 2.7,
        "frp_max_mw": 1.1,
        "edad_min_h": 17.6,
        "ultima_deteccion_utc": "2026-09-21 02:26:00",
        "sensores": "VIIRS_NOAA20_NRT, VIIRS_SNPP_NRT",
        "satellites": "N, N20",
        "instruments": "VIIRS",
        "popup_label": "<strong>ALERT-20260921-039<\/strong><br>Nivel: media<br>Focos: 3<br>Últimas 6 h: 0<br>FRP total: 2.7 MW<br>Última detección UTC: 2026-09-21 02:26:00"
      }
    },
    {
      "type": "Feature",
      "geometry": {
        "type": "Point",
        "coordinates": [4.0025, 32.4023]
      },
      "properties": {
        "cluster_id": "ALERT-20260921-040",
        "alerta_operativa": "media",
        "score": 9.3,
        "n_focos": 3,
        "n_ultimas_6h": 0,
        "n_ultimas_24h": 2,
        "frp_total_mw": 2.2,
        "frp_max_mw": 0.8,
        "edad_min_h": 19.2,
        "ultima_deteccion_utc": "2026-09-21 00:45:00",
        "sensores": "VIIRS_NOAA20_NRT",
        "satellites": "N20",
        "instruments": "VIIRS",
        "popup_label": "<strong>ALERT-20260921-040<\/strong><br>Nivel: media<br>Focos: 3<br>Últimas 6 h: 0<br>FRP total: 2.2 MW<br>Última detección UTC: 2026-09-21 00:45:00"
      }
    },
    {
      "type": "Feature",
      "geometry": {
        "type": "Point",
        "coordinates": [0.9918, 43.1869]
      },
      "properties": {
        "cluster_id": "ALERT-20260921-041",
        "alerta_operativa": "media",
        "score": 9.1,
        "n_focos": 3,
        "n_ultimas_6h": 0,
        "n_ultimas_24h": 2,
        "frp_total_mw": 1.9,
        "frp_max_mw": 0.7,
        "edad_min_h": 17.6,
        "ultima_deteccion_utc": "2026-09-21 02:24:00",
        "sensores": "VIIRS_NOAA20_NRT, VIIRS_SNPP_NRT",
        "satellites": "N, N20",
        "instruments": "VIIRS",
        "popup_label": "<strong>ALERT-20260921-041<\/strong><br>Nivel: media<br>Focos: 3<br>Últimas 6 h: 0<br>FRP total: 1.9 MW<br>Última detección UTC: 2026-09-21 02:24:00"
      }
    },
    {
      "type": "Feature",
      "geometry": {
        "type": "Point",
        "coordinates": [-5.9619, 38.9637]
      },
      "properties": {
        "cluster_id": "ALERT-20260921-042",
        "alerta_operativa": "media",
        "score": 9,
        "n_focos": 2,
        "n_ultimas_6h": 0,
        "n_ultimas_24h": 2,
        "frp_total_mw": 3.4,
        "frp_max_mw": 1.7,
        "edad_min_h": 17.6,
        "ultima_deteccion_utc": "2026-09-21 02:26:00",
        "sensores": "VIIRS_NOAA20_NRT, VIIRS_SNPP_NRT",
        "satellites": "N, N20",
        "instruments": "VIIRS",
        "popup_label": "<strong>ALERT-20260921-042<\/strong><br>Nivel: media<br>Focos: 2<br>Últimas 6 h: 0<br>FRP total: 3.4 MW<br>Última detección UTC: 2026-09-21 02:26:00"
      }
    },
    {
      "type": "Feature",
      "geometry": {
        "type": "Point",
        "coordinates": [-0.3435, 33.474]
      },
      "properties": {
        "cluster_id": "ALERT-20260921-043",
        "alerta_operativa": "media",
        "score": 8.1,
        "n_focos": 2,
        "n_ultimas_6h": 0,
        "n_ultimas_24h": 2,
        "frp_total_mw": 1.9,
        "frp_max_mw": 1.1,
        "edad_min_h": 17.6,
        "ultima_deteccion_utc": "2026-09-21 02:26:00",
        "sensores": "VIIRS_NOAA20_NRT, VIIRS_SNPP_NRT",
        "satellites": "N, N20",
        "instruments": "VIIRS",
        "popup_label": "<strong>ALERT-20260921-043<\/strong><br>Nivel: media<br>Focos: 2<br>Últimas 6 h: 0<br>FRP total: 1.9 MW<br>Última detección UTC: 2026-09-21 02:26:00"
      }
    },
    {
      "type": "Feature",
      "geometry": {
        "type": "Point",
        "coordinates": [-5.2709, 35.1838]
      },
      "properties": {
        "cluster_id": "ALERT-20260921-044",
        "alerta_operativa": "media",
        "score": 8.1,
        "n_focos": 2,
        "n_ultimas_6h": 0,
        "n_ultimas_24h": 2,
        "frp_total_mw": 1.8,
        "frp_max_mw": 1.1,
        "edad_min_h": 17.6,
        "ultima_deteccion_utc": "2026-09-21 02:26:00",
        "sensores": "VIIRS_NOAA20_NRT, VIIRS_SNPP_NRT",
        "satellites": "N, N20",
        "instruments": "VIIRS",
        "popup_label": "<strong>ALERT-20260921-044<\/strong><br>Nivel: media<br>Focos: 2<br>Últimas 6 h: 0<br>FRP total: 1.8 MW<br>Última detección UTC: 2026-09-21 02:26:00"
      }
    },
    {
      "type": "Feature",
      "geometry": {
        "type": "Point",
        "coordinates": [-4.5569, 37.8349]
      },
      "properties": {
        "cluster_id": "ALERT-20260921-045",
        "alerta_operativa": "media",
        "score": 7.9,
        "n_focos": 2,
        "n_ultimas_6h": 0,
        "n_ultimas_24h": 2,
        "frp_total_mw": 1.6,
        "frp_max_mw": 0.9,
        "edad_min_h": 17.6,
        "ultima_deteccion_utc": "2026-09-21 02:26:00",
        "sensores": "VIIRS_NOAA20_NRT, VIIRS_SNPP_NRT",
        "satellites": "N, N20",
        "instruments": "VIIRS",
        "popup_label": "<strong>ALERT-20260921-045<\/strong><br>Nivel: media<br>Focos: 2<br>Últimas 6 h: 0<br>FRP total: 1.6 MW<br>Última detección UTC: 2026-09-21 02:26:00"
      }
    },
    {
      "type": "Feature",
      "geometry": {
        "type": "Point",
        "coordinates": [2.8779, 36.5962]
      },
      "properties": {
        "cluster_id": "ALERT-20260921-046",
        "alerta_operativa": "media",
        "score": 7.8,
        "n_focos": 2,
        "n_ultimas_6h": 0,
        "n_ultimas_24h": 2,
        "frp_total_mw": 1.4,
        "frp_max_mw": 0.7,
        "edad_min_h": 17.6,
        "ultima_deteccion_utc": "2026-09-21 02:26:00",
        "sensores": "VIIRS_NOAA20_NRT, VIIRS_SNPP_NRT",
        "satellites": "N, N20",
        "instruments": "VIIRS",
        "popup_label": "<strong>ALERT-20260921-046<\/strong><br>Nivel: media<br>Focos: 2<br>Últimas 6 h: 0<br>FRP total: 1.4 MW<br>Última detección UTC: 2026-09-21 02:26:00"
      }
    },
    {
      "type": "Feature",
      "geometry": {
        "type": "Point",
        "coordinates": [-3.0956, 39.1186]
      },
      "properties": {
        "cluster_id": "ALERT-20260921-047",
        "alerta_operativa": "media",
        "score": 7.8,
        "n_focos": 2,
        "n_ultimas_6h": 0,
        "n_ultimas_24h": 2,
        "frp_total_mw": 1.4,
        "frp_max_mw": 0.9,
        "edad_min_h": 17.6,
        "ultima_deteccion_utc": "2026-09-21 02:26:00",
        "sensores": "VIIRS_NOAA20_NRT, VIIRS_SNPP_NRT",
        "satellites": "N, N20",
        "instruments": "VIIRS",
        "popup_label": "<strong>ALERT-20260921-047<\/strong><br>Nivel: media<br>Focos: 2<br>Últimas 6 h: 0<br>FRP total: 1.4 MW<br>Última detección UTC: 2026-09-21 02:26:00"
      }
    },
    {
      "type": "Feature",
      "geometry": {
        "type": "Point",
        "coordinates": [4.4765, 35.7096]
      },
      "properties": {
        "cluster_id": "ALERT-20260921-048",
        "alerta_operativa": "media",
        "score": 7.6,
        "n_focos": 2,
        "n_ultimas_6h": 0,
        "n_ultimas_24h": 2,
        "frp_total_mw": 1.2,
        "frp_max_mw": 0.6,
        "edad_min_h": 17.6,
        "ultima_deteccion_utc": "2026-09-21 02:26:00",
        "sensores": "VIIRS_NOAA20_NRT, VIIRS_SNPP_NRT",
        "satellites": "N, N20",
        "instruments": "VIIRS",
        "popup_label": "<strong>ALERT-20260921-048<\/strong><br>Nivel: media<br>Focos: 2<br>Últimas 6 h: 0<br>FRP total: 1.2 MW<br>Última detección UTC: 2026-09-21 02:26:00"
      }
    },
    {
      "type": "Feature",
      "geometry": {
        "type": "Point",
        "coordinates": [0.9563, 36.161]
      },
      "properties": {
        "cluster_id": "ALERT-20260921-049",
        "alerta_operativa": "media",
        "score": 7.6,
        "n_focos": 2,
        "n_ultimas_6h": 0,
        "n_ultimas_24h": 2,
        "frp_total_mw": 1.2,
        "frp_max_mw": 0.7,
        "edad_min_h": 17.6,
        "ultima_deteccion_utc": "2026-09-21 02:26:00",
        "sensores": "VIIRS_NOAA20_NRT",
        "satellites": "N20",
        "instruments": "VIIRS",
        "popup_label": "<strong>ALERT-20260921-049<\/strong><br>Nivel: media<br>Focos: 2<br>Últimas 6 h: 0<br>FRP total: 1.2 MW<br>Última detección UTC: 2026-09-21 02:26:00"
      }
    },
    {
      "type": "Feature",
      "geometry": {
        "type": "Point",
        "coordinates": [2.057, 34.4383]
      },
      "properties": {
        "cluster_id": "ALERT-20260921-050",
        "alerta_operativa": "media",
        "score": 7.5,
        "n_focos": 2,
        "n_ultimas_6h": 0,
        "n_ultimas_24h": 2,
        "frp_total_mw": 1.1,
        "frp_max_mw": 0.6,
        "edad_min_h": 17.6,
        "ultima_deteccion_utc": "2026-09-21 02:26:00",
        "sensores": "VIIRS_NOAA20_NRT, VIIRS_SNPP_NRT",
        "satellites": "N, N20",
        "instruments": "VIIRS",
        "popup_label": "<strong>ALERT-20260921-050<\/strong><br>Nivel: media<br>Focos: 2<br>Últimas 6 h: 0<br>FRP total: 1.1 MW<br>Última detección UTC: 2026-09-21 02:26:00"
      }
    },
    {
      "type": "Feature",
      "geometry": {
        "type": "Point",
        "coordinates": [2.6579, 33.8735]
      },
      "properties": {
        "cluster_id": "ALERT-20260921-051",
        "alerta_operativa": "media",
        "score": 7.1,
        "n_focos": 2,
        "n_ultimas_6h": 0,
        "n_ultimas_24h": 2,
        "frp_total_mw": 0.7,
        "frp_max_mw": 0.4,
        "edad_min_h": 17.6,
        "ultima_deteccion_utc": "2026-09-21 02:26:00",
        "sensores": "VIIRS_NOAA20_NRT, VIIRS_SNPP_NRT",
        "satellites": "N, N20",
        "instruments": "VIIRS",
        "popup_label": "<strong>ALERT-20260921-051<\/strong><br>Nivel: media<br>Focos: 2<br>Últimas 6 h: 0<br>FRP total: 0.7 MW<br>Última detección UTC: 2026-09-21 02:26:00"
      }
    },
    {
      "type": "Feature",
      "geometry": {
        "type": "Point",
        "coordinates": [3.1667, 32.556]
      },
      "properties": {
        "cluster_id": "ALERT-20260921-052",
        "alerta_operativa": "seguimiento",
        "score": 12.1,
        "n_focos": 5,
        "n_ultimas_6h": 0,
        "n_ultimas_24h": 1,
        "frp_total_mw": 11.7,
        "frp_max_mw": 4.3,
        "edad_min_h": 6.6,
        "ultima_deteccion_utc": "2026-09-21 13:25:00",
        "sensores": "VIIRS_NOAA20_NRT, VIIRS_SNPP_NRT",
        "satellites": "N, N20",
        "instruments": "VIIRS",
        "popup_label": "<strong>ALERT-20260921-052<\/strong><br>Nivel: seguimiento<br>Focos: 5<br>Últimas 6 h: 0<br>FRP total: 11.7 MW<br>Última detección UTC: 2026-09-21 13:25:00"
      }
    },
    {
      "type": "Feature",
      "geometry": {
        "type": "Point",
        "coordinates": [-6.9441, 32.8467]
      },
      "properties": {
        "cluster_id": "ALERT-20260921-053",
        "alerta_operativa": "seguimiento",
        "score": 10.5,
        "n_focos": 3,
        "n_ultimas_6h": 0,
        "n_ultimas_24h": 1,
        "frp_total_mw": 15,
        "frp_max_mw": 13.2,
        "edad_min_h": 6.2,
        "ultima_deteccion_utc": "2026-09-21 13:46:00",
        "sensores": "VIIRS_NOAA20_NRT, VIIRS_SNPP_NRT",
        "satellites": "N, N20",
        "instruments": "VIIRS",
        "popup_label": "<strong>ALERT-20260921-053<\/strong><br>Nivel: seguimiento<br>Focos: 3<br>Últimas 6 h: 0<br>FRP total: 15 MW<br>Última detección UTC: 2026-09-21 13:46:00"
      }
    },
    {
      "type": "Feature",
      "geometry": {
        "type": "Point",
        "coordinates": [-7.7619, 33.3685]
      },
      "properties": {
        "cluster_id": "ALERT-20260921-054",
        "alerta_operativa": "seguimiento",
        "score": 9.4,
        "n_focos": 4,
        "n_ultimas_6h": 0,
        "n_ultimas_24h": 1,
        "frp_total_mw": 4.4,
        "frp_max_mw": 1.6,
        "edad_min_h": 17.5,
        "ultima_deteccion_utc": "2026-09-21 02:28:00",
        "sensores": "VIIRS_NOAA20_NRT, VIIRS_SNPP_NRT",
        "satellites": "N, N20",
        "instruments": "VIIRS",
        "popup_label": "<strong>ALERT-20260921-054<\/strong><br>Nivel: seguimiento<br>Focos: 4<br>Últimas 6 h: 0<br>FRP total: 4.4 MW<br>Última detección UTC: 2026-09-21 02:28:00"
      }
    },
    {
      "type": "Feature",
      "geometry": {
        "type": "Point",
        "coordinates": [-5.33, 40.1751]
      },
      "properties": {
        "cluster_id": "ALERT-20260921-055",
        "alerta_operativa": "seguimiento",
        "score": 8.8,
        "n_focos": 1,
        "n_ultimas_6h": 0,
        "n_ultimas_24h": 1,
        "frp_total_mw": 16.8,
        "frp_max_mw": 16.8,
        "edad_min_h": 6.2,
        "ultima_deteccion_utc": "2026-09-21 13:48:00",
        "sensores": "VIIRS_NOAA20_NRT",
        "satellites": "N20",
        "instruments": "VIIRS",
        "popup_label": "<strong>ALERT-20260921-055<\/strong><br>Nivel: seguimiento<br>Focos: 1<br>Últimas 6 h: 0<br>FRP total: 16.8 MW<br>Última detección UTC: 2026-09-21 13:48:00"
      }
    },
    {
      "type": "Feature",
      "geometry": {
        "type": "Point",
        "coordinates": [4.4457, 35.8808]
      },
      "properties": {
        "cluster_id": "ALERT-20260921-056",
        "alerta_operativa": "seguimiento",
        "score": 8.4,
        "n_focos": 3,
        "n_ultimas_6h": 0,
        "n_ultimas_24h": 1,
        "frp_total_mw": 4.4,
        "frp_max_mw": 1.6,
        "edad_min_h": 17.6,
        "ultima_deteccion_utc": "2026-09-21 02:26:00",
        "sensores": "VIIRS_NOAA20_NRT, VIIRS_SNPP_NRT",
        "satellites": "N, N20",
        "instruments": "VIIRS",
        "popup_label": "<strong>ALERT-20260921-056<\/strong><br>Nivel: seguimiento<br>Focos: 3<br>Últimas 6 h: 0<br>FRP total: 4.4 MW<br>Última detección UTC: 2026-09-21 02:26:00"
      }
    },
    {
      "type": "Feature",
      "geometry": {
        "type": "Point",
        "coordinates": [-6.7825, 38.6398]
      },
      "properties": {
        "cluster_id": "ALERT-20260921-057",
        "alerta_operativa": "seguimiento",
        "score": 8.2,
        "n_focos": 1,
        "n_ultimas_6h": 0,
        "n_ultimas_24h": 1,
        "frp_total_mw": 12.8,
        "frp_max_mw": 12.8,
        "edad_min_h": 6.2,
        "ultima_deteccion_utc": "2026-09-21 13:48:00",
        "sensores": "VIIRS_NOAA20_NRT",
        "satellites": "N20",
        "instruments": "VIIRS",
        "popup_label": "<strong>ALERT-20260921-057<\/strong><br>Nivel: seguimiento<br>Focos: 1<br>Últimas 6 h: 0<br>FRP total: 12.8 MW<br>Última detección UTC: 2026-09-21 13:48:00"
      }
    },
    {
      "type": "Feature",
      "geometry": {
        "type": "Point",
        "coordinates": [1.7695, 42.6983]
      },
      "properties": {
        "cluster_id": "ALERT-20260921-058",
        "alerta_operativa": "seguimiento",
        "score": 7.7,
        "n_focos": 1,
        "n_ultimas_6h": 0,
        "n_ultimas_24h": 1,
        "frp_total_mw": 9.6,
        "frp_max_mw": 9.6,
        "edad_min_h": 7.9,
        "ultima_deteccion_utc": "2026-09-21 12:08:00",
        "sensores": "VIIRS_NOAA20_NRT",
        "satellites": "N20",
        "instruments": "VIIRS",
        "popup_label": "<strong>ALERT-20260921-058<\/strong><br>Nivel: seguimiento<br>Focos: 1<br>Últimas 6 h: 0<br>FRP total: 9.6 MW<br>Última detección UTC: 2026-09-21 12:08:00"
      }
    },
    {
      "type": "Feature",
      "geometry": {
        "type": "Point",
        "coordinates": [-3.786, 41.46]
      },
      "properties": {
        "cluster_id": "ALERT-20260921-059",
        "alerta_operativa": "seguimiento",
        "score": 7.7,
        "n_focos": 1,
        "n_ultimas_6h": 0,
        "n_ultimas_24h": 1,
        "frp_total_mw": 9.3,
        "frp_max_mw": 9.3,
        "edad_min_h": 6.2,
        "ultima_deteccion_utc": "2026-09-21 13:48:00",
        "sensores": "VIIRS_NOAA20_NRT",
        "satellites": "N20",
        "instruments": "VIIRS",
        "popup_label": "<strong>ALERT-20260921-059<\/strong><br>Nivel: seguimiento<br>Focos: 1<br>Últimas 6 h: 0<br>FRP total: 9.3 MW<br>Última detección UTC: 2026-09-21 13:48:00"
      }
    },
    {
      "type": "Feature",
      "geometry": {
        "type": "Point",
        "coordinates": [-0.1579, 28.2128]
      },
      "properties": {
        "cluster_id": "ALERT-20260921-060",
        "alerta_operativa": "seguimiento",
        "score": 7.3,
        "n_focos": 1,
        "n_ultimas_6h": 0,
        "n_ultimas_24h": 1,
        "frp_total_mw": 7.5,
        "frp_max_mw": 7.5,
        "edad_min_h": 6.6,
        "ultima_deteccion_utc": "2026-09-21 13:23:00",
        "sensores": "VIIRS_SNPP_NRT",
        "satellites": "N",
        "instruments": "VIIRS",
        "popup_label": "<strong>ALERT-20260921-060<\/strong><br>Nivel: seguimiento<br>Focos: 1<br>Últimas 6 h: 0<br>FRP total: 7.5 MW<br>Última detección UTC: 2026-09-21 13:23:00"
      }
    },
    {
      "type": "Feature",
      "geometry": {
        "type": "Point",
        "coordinates": [-1.7167, 39.4027]
      },
      "properties": {
        "cluster_id": "ALERT-20260921-061",
        "alerta_operativa": "seguimiento",
        "score": 7.3,
        "n_focos": 2,
        "n_ultimas_6h": 0,
        "n_ultimas_24h": 1,
        "frp_total_mw": 4.3,
        "frp_max_mw": 2.7,
        "edad_min_h": 6.5,
        "ultima_deteccion_utc": "2026-09-21 13:27:00",
        "sensores": "VIIRS_NOAA20_NRT, VIIRS_SNPP_NRT",
        "satellites": "N, N20",
        "instruments": "VIIRS",
        "popup_label": "<strong>ALERT-20260921-061<\/strong><br>Nivel: seguimiento<br>Focos: 2<br>Últimas 6 h: 0<br>FRP total: 4.3 MW<br>Última detección UTC: 2026-09-21 13:27:00"
      }
    },
    {
      "type": "Feature",
      "geometry": {
        "type": "Point",
        "coordinates": [-8.9373, 38.5022]
      },
      "properties": {
        "cluster_id": "ALERT-20260921-062",
        "alerta_operativa": "seguimiento",
        "score": 7.3,
        "n_focos": 3,
        "n_ultimas_6h": 0,
        "n_ultimas_24h": 1,
        "frp_total_mw": 2.1,
        "frp_max_mw": 0.8,
        "edad_min_h": 17.6,
        "ultima_deteccion_utc": "2026-09-21 02:26:00",
        "sensores": "VIIRS_NOAA20_NRT, VIIRS_SNPP_NRT",
        "satellites": "N, N20",
        "instruments": "VIIRS",
        "popup_label": "<strong>ALERT-20260921-062<\/strong><br>Nivel: seguimiento<br>Focos: 3<br>Últimas 6 h: 0<br>FRP total: 2.1 MW<br>Última detección UTC: 2026-09-21 02:26:00"
      }
    },
    {
      "type": "Feature",
      "geometry": {
        "type": "Point",
        "coordinates": [-1.9043, 36.9657]
      },
      "properties": {
        "cluster_id": "ALERT-20260921-063",
        "alerta_operativa": "seguimiento",
        "score": 7.1,
        "n_focos": 2,
        "n_ultimas_6h": 0,
        "n_ultimas_24h": 1,
        "frp_total_mw": 3.7,
        "frp_max_mw": 1.9,
        "edad_min_h": 17.9,
        "ultima_deteccion_utc": "2026-09-21 02:06:00",
        "sensores": "VIIRS_SNPP_NRT",
        "satellites": "N",
        "instruments": "VIIRS",
        "popup_label": "<strong>ALERT-20260921-063<\/strong><br>Nivel: seguimiento<br>Focos: 2<br>Últimas 6 h: 0<br>FRP total: 3.7 MW<br>Última detección UTC: 2026-09-21 02:06:00"
      }
    },
    {
      "type": "Feature",
      "geometry": {
        "type": "Point",
        "coordinates": [-6.3144, 34.496]
      },
      "properties": {
        "cluster_id": "ALERT-20260921-064",
        "alerta_operativa": "seguimiento",
        "score": 6.9,
        "n_focos": 1,
        "n_ultimas_6h": 0,
        "n_ultimas_24h": 1,
        "frp_total_mw": 6.1,
        "frp_max_mw": 6.1,
        "edad_min_h": 6.2,
        "ultima_deteccion_utc": "2026-09-21 13:46:00",
        "sensores": "VIIRS_NOAA20_NRT",
        "satellites": "N20",
        "instruments": "VIIRS",
        "popup_label": "<strong>ALERT-20260921-064<\/strong><br>Nivel: seguimiento<br>Focos: 1<br>Últimas 6 h: 0<br>FRP total: 6.1 MW<br>Última detección UTC: 2026-09-21 13:46:00"
      }
    },
    {
      "type": "Feature",
      "geometry": {
        "type": "Point",
        "coordinates": [1.0426, 35.5174]
      },
      "properties": {
        "cluster_id": "ALERT-20260921-065",
        "alerta_operativa": "seguimiento",
        "score": 6.8,
        "n_focos": 1,
        "n_ultimas_6h": 0,
        "n_ultimas_24h": 1,
        "frp_total_mw": 5.7,
        "frp_max_mw": 5.7,
        "edad_min_h": 6.2,
        "ultima_deteccion_utc": "2026-09-21 13:46:00",
        "sensores": "VIIRS_NOAA20_NRT",
        "satellites": "N20",
        "instruments": "VIIRS",
        "popup_label": "<strong>ALERT-20260921-065<\/strong><br>Nivel: seguimiento<br>Focos: 1<br>Últimas 6 h: 0<br>FRP total: 5.7 MW<br>Última detección UTC: 2026-09-21 13:46:00"
      }
    },
    {
      "type": "Feature",
      "geometry": {
        "type": "Point",
        "coordinates": [-4.0264, 34.297]
      },
      "properties": {
        "cluster_id": "ALERT-20260921-066",
        "alerta_operativa": "seguimiento",
        "score": 6.4,
        "n_focos": 1,
        "n_ultimas_6h": 0,
        "n_ultimas_24h": 1,
        "frp_total_mw": 4.5,
        "frp_max_mw": 4.5,
        "edad_min_h": 6.2,
        "ultima_deteccion_utc": "2026-09-21 13:46:00",
        "sensores": "VIIRS_NOAA20_NRT",
        "satellites": "N20",
        "instruments": "VIIRS",
        "popup_label": "<strong>ALERT-20260921-066<\/strong><br>Nivel: seguimiento<br>Focos: 1<br>Últimas 6 h: 0<br>FRP total: 4.5 MW<br>Última detección UTC: 2026-09-21 13:46:00"
      }
    },
    {
      "type": "Feature",
      "geometry": {
        "type": "Point",
        "coordinates": [-3.4964, 40.3856]
      },
      "properties": {
        "cluster_id": "ALERT-20260921-067",
        "alerta_operativa": "seguimiento",
        "score": 6.3,
        "n_focos": 1,
        "n_ultimas_6h": 0,
        "n_ultimas_24h": 1,
        "frp_total_mw": 4.2,
        "frp_max_mw": 4.2,
        "edad_min_h": 7.9,
        "ultima_deteccion_utc": "2026-09-21 12:08:00",
        "sensores": "VIIRS_NOAA20_NRT",
        "satellites": "N20",
        "instruments": "VIIRS",
        "popup_label": "<strong>ALERT-20260921-067<\/strong><br>Nivel: seguimiento<br>Focos: 1<br>Últimas 6 h: 0<br>FRP total: 4.2 MW<br>Última detección UTC: 2026-09-21 12:08:00"
      }
    },
    {
      "type": "Feature",
      "geometry": {
        "type": "Point",
        "coordinates": [-6.9794, 33.8773]
      },
      "properties": {
        "cluster_id": "ALERT-20260921-068",
        "alerta_operativa": "seguimiento",
        "score": 6.2,
        "n_focos": 2,
        "n_ultimas_6h": 0,
        "n_ultimas_24h": 1,
        "frp_total_mw": 2,
        "frp_max_mw": 1.4,
        "edad_min_h": 6.2,
        "ultima_deteccion_utc": "2026-09-21 13:46:00",
        "sensores": "VIIRS_NOAA20_NRT, VIIRS_SNPP_NRT",
        "satellites": "N, N20",
        "instruments": "VIIRS",
        "popup_label": "<strong>ALERT-20260921-068<\/strong><br>Nivel: seguimiento<br>Focos: 2<br>Últimas 6 h: 0<br>FRP total: 2 MW<br>Última detección UTC: 2026-09-21 13:46:00"
      }
    },
    {
      "type": "Feature",
      "geometry": {
        "type": "Point",
        "coordinates": [-7.6939, 37.3797]
      },
      "properties": {
        "cluster_id": "ALERT-20260921-069",
        "alerta_operativa": "seguimiento",
        "score": 6.1,
        "n_focos": 1,
        "n_ultimas_6h": 0,
        "n_ultimas_24h": 1,
        "frp_total_mw": 3.8,
        "frp_max_mw": 3.8,
        "edad_min_h": 6.5,
        "ultima_deteccion_utc": "2026-09-21 13:27:00",
        "sensores": "VIIRS_SNPP_NRT",
        "satellites": "N",
        "instruments": "VIIRS",
        "popup_label": "<strong>ALERT-20260921-069<\/strong><br>Nivel: seguimiento<br>Focos: 1<br>Últimas 6 h: 0<br>FRP total: 3.8 MW<br>Última detección UTC: 2026-09-21 13:27:00"
      }
    },
    {
      "type": "Feature",
      "geometry": {
        "type": "Point",
        "coordinates": [-4.7005, 37.836]
      },
      "properties": {
        "cluster_id": "ALERT-20260921-070",
        "alerta_operativa": "seguimiento",
        "score": 6.1,
        "n_focos": 1,
        "n_ultimas_6h": 0,
        "n_ultimas_24h": 1,
        "frp_total_mw": 3.8,
        "frp_max_mw": 3.8,
        "edad_min_h": 6.2,
        "ultima_deteccion_utc": "2026-09-21 13:46:00",
        "sensores": "VIIRS_NOAA20_NRT",
        "satellites": "N20",
        "instruments": "VIIRS",
        "popup_label": "<strong>ALERT-20260921-070<\/strong><br>Nivel: seguimiento<br>Focos: 1<br>Últimas 6 h: 0<br>FRP total: 3.8 MW<br>Última detección UTC: 2026-09-21 13:46:00"
      }
    },
    {
      "type": "Feature",
      "geometry": {
        "type": "Point",
        "coordinates": [-5.1296, 37.4246]
      },
      "properties": {
        "cluster_id": "ALERT-20260921-071",
        "alerta_operativa": "seguimiento",
        "score": 6.1,
        "n_focos": 1,
        "n_ultimas_6h": 0,
        "n_ultimas_24h": 1,
        "frp_total_mw": 3.7,
        "frp_max_mw": 3.7,
        "edad_min_h": 6.5,
        "ultima_deteccion_utc": "2026-09-21 13:27:00",
        "sensores": "VIIRS_SNPP_NRT",
        "satellites": "N",
        "instruments": "VIIRS",
        "popup_label": "<strong>ALERT-20260921-071<\/strong><br>Nivel: seguimiento<br>Focos: 1<br>Últimas 6 h: 0<br>FRP total: 3.7 MW<br>Última detección UTC: 2026-09-21 13:27:00"
      }
    },
    {
      "type": "Feature",
      "geometry": {
        "type": "Point",
        "coordinates": [-1.3909, 29.4221]
      },
      "properties": {
        "cluster_id": "ALERT-20260921-072",
        "alerta_operativa": "seguimiento",
        "score": 6.1,
        "n_focos": 1,
        "n_ultimas_6h": 0,
        "n_ultimas_24h": 1,
        "frp_total_mw": 3.6,
        "frp_max_mw": 3.6,
        "edad_min_h": 6.6,
        "ultima_deteccion_utc": "2026-09-21 13:25:00",
        "sensores": "VIIRS_SNPP_NRT",
        "satellites": "N",
        "instruments": "VIIRS",
        "popup_label": "<strong>ALERT-20260921-072<\/strong><br>Nivel: seguimiento<br>Focos: 1<br>Últimas 6 h: 0<br>FRP total: 3.6 MW<br>Última detección UTC: 2026-09-21 13:25:00"
      }
    },
    {
      "type": "Feature",
      "geometry": {
        "type": "Point",
        "coordinates": [-0.5445, 38.3774]
      },
      "properties": {
        "cluster_id": "ALERT-20260921-073",
        "alerta_operativa": "seguimiento",
        "score": 6.1,
        "n_focos": 2,
        "n_ultimas_6h": 0,
        "n_ultimas_24h": 1,
        "frp_total_mw": 1.8,
        "frp_max_mw": 1,
        "edad_min_h": 17.9,
        "ultima_deteccion_utc": "2026-09-21 02:06:00",
        "sensores": "VIIRS_NOAA20_NRT, VIIRS_SNPP_NRT",
        "satellites": "N, N20",
        "instruments": "VIIRS",
        "popup_label": "<strong>ALERT-20260921-073<\/strong><br>Nivel: seguimiento<br>Focos: 2<br>Últimas 6 h: 0<br>FRP total: 1.8 MW<br>Última detección UTC: 2026-09-21 02:06:00"
      }
    },
    {
      "type": "Feature",
      "geometry": {
        "type": "Point",
        "coordinates": [-1.2559, 38.4488]
      },
      "properties": {
        "cluster_id": "ALERT-20260921-074",
        "alerta_operativa": "seguimiento",
        "score": 6,
        "n_focos": 1,
        "n_ultimas_6h": 0,
        "n_ultimas_24h": 1,
        "frp_total_mw": 3.5,
        "frp_max_mw": 3.5,
        "edad_min_h": 6.5,
        "ultima_deteccion_utc": "2026-09-21 13:27:00",
        "sensores": "VIIRS_SNPP_NRT",
        "satellites": "N",
        "instruments": "VIIRS",
        "popup_label": "<strong>ALERT-20260921-074<\/strong><br>Nivel: seguimiento<br>Focos: 1<br>Últimas 6 h: 0<br>FRP total: 3.5 MW<br>Última detección UTC: 2026-09-21 13:27:00"
      }
    },
    {
      "type": "Feature",
      "geometry": {
        "type": "Point",
        "coordinates": [-5.4233, 36.178]
      },
      "properties": {
        "cluster_id": "ALERT-20260921-075",
        "alerta_operativa": "seguimiento",
        "score": 6,
        "n_focos": 2,
        "n_ultimas_6h": 0,
        "n_ultimas_24h": 1,
        "frp_total_mw": 1.7,
        "frp_max_mw": 1,
        "edad_min_h": 17.6,
        "ultima_deteccion_utc": "2026-09-21 02:26:00",
        "sensores": "VIIRS_NOAA20_NRT",
        "satellites": "N20",
        "instruments": "VIIRS",
        "popup_label": "<strong>ALERT-20260921-075<\/strong><br>Nivel: seguimiento<br>Focos: 2<br>Últimas 6 h: 0<br>FRP total: 1.7 MW<br>Última detección UTC: 2026-09-21 02:26:00"
      }
    },
    {
      "type": "Feature",
      "geometry": {
        "type": "Point",
        "coordinates": [-7.4738, 41.0196]
      },
      "properties": {
        "cluster_id": "ALERT-20260921-076",
        "alerta_operativa": "seguimiento",
        "score": 5.9,
        "n_focos": 1,
        "n_ultimas_6h": 0,
        "n_ultimas_24h": 1,
        "frp_total_mw": 3.3,
        "frp_max_mw": 3.3,
        "edad_min_h": 6.5,
        "ultima_deteccion_utc": "2026-09-21 13:27:00",
        "sensores": "VIIRS_SNPP_NRT",
        "satellites": "N",
        "instruments": "VIIRS",
        "popup_label": "<strong>ALERT-20260921-076<\/strong><br>Nivel: seguimiento<br>Focos: 1<br>Últimas 6 h: 0<br>FRP total: 3.3 MW<br>Última detección UTC: 2026-09-21 13:27:00"
      }
    },
    {
      "type": "Feature",
      "geometry": {
        "type": "Point",
        "coordinates": [-1.4873, 41.4752]
      },
      "properties": {
        "cluster_id": "ALERT-20260921-077",
        "alerta_operativa": "seguimiento",
        "score": 5.8,
        "n_focos": 2,
        "n_ultimas_6h": 0,
        "n_ultimas_24h": 1,
        "frp_total_mw": 1.4,
        "frp_max_mw": 0.8,
        "edad_min_h": 17.9,
        "ultima_deteccion_utc": "2026-09-21 02:06:00",
        "sensores": "VIIRS_SNPP_NRT",
        "satellites": "N",
        "instruments": "VIIRS",
        "popup_label": "<strong>ALERT-20260921-077<\/strong><br>Nivel: seguimiento<br>Focos: 2<br>Últimas 6 h: 0<br>FRP total: 1.4 MW<br>Última detección UTC: 2026-09-21 02:06:00"
      }
    },
    {
      "type": "Feature",
      "geometry": {
        "type": "Point",
        "coordinates": [-6.4846, 38.3784]
      },
      "properties": {
        "cluster_id": "ALERT-20260921-078",
        "alerta_operativa": "seguimiento",
        "score": 5.6,
        "n_focos": 2,
        "n_ultimas_6h": 0,
        "n_ultimas_24h": 1,
        "frp_total_mw": 1.2,
        "frp_max_mw": 0.6,
        "edad_min_h": 17.9,
        "ultima_deteccion_utc": "2026-09-21 02:06:00",
        "sensores": "VIIRS_SNPP_NRT",
        "satellites": "N",
        "instruments": "VIIRS",
        "popup_label": "<strong>ALERT-20260921-078<\/strong><br>Nivel: seguimiento<br>Focos: 2<br>Últimas 6 h: 0<br>FRP total: 1.2 MW<br>Última detección UTC: 2026-09-21 02:06:00"
      }
    },
    {
      "type": "Feature",
      "geometry": {
        "type": "Point",
        "coordinates": [-1.622, 41.9112]
      },
      "properties": {
        "cluster_id": "ALERT-20260921-079",
        "alerta_operativa": "seguimiento",
        "score": 5.3,
        "n_focos": 1,
        "n_ultimas_6h": 0,
        "n_ultimas_24h": 1,
        "frp_total_mw": 2.2,
        "frp_max_mw": 2.2,
        "edad_min_h": 6.5,
        "ultima_deteccion_utc": "2026-09-21 13:27:00",
        "sensores": "VIIRS_SNPP_NRT",
        "satellites": "N",
        "instruments": "VIIRS",
        "popup_label": "<strong>ALERT-20260921-079<\/strong><br>Nivel: seguimiento<br>Focos: 1<br>Últimas 6 h: 0<br>FRP total: 2.2 MW<br>Última detección UTC: 2026-09-21 13:27:00"
      }
    },
    {
      "type": "Feature",
      "geometry": {
        "type": "Point",
        "coordinates": [-6.7727, 34.0917]
      },
      "properties": {
        "cluster_id": "ALERT-20260921-080",
        "alerta_operativa": "seguimiento",
        "score": 5.3,
        "n_focos": 1,
        "n_ultimas_6h": 0,
        "n_ultimas_24h": 1,
        "frp_total_mw": 2.2,
        "frp_max_mw": 2.2,
        "edad_min_h": 6.2,
        "ultima_deteccion_utc": "2026-09-21 13:46:00",
        "sensores": "VIIRS_NOAA20_NRT",
        "satellites": "N20",
        "instruments": "VIIRS",
        "popup_label": "<strong>ALERT-20260921-080<\/strong><br>Nivel: seguimiento<br>Focos: 1<br>Últimas 6 h: 0<br>FRP total: 2.2 MW<br>Última detección UTC: 2026-09-21 13:46:00"
      }
    },
    {
      "type": "Feature",
      "geometry": {
        "type": "Point",
        "coordinates": [3.2526, 36.2276]
      },
      "properties": {
        "cluster_id": "ALERT-20260921-081",
        "alerta_operativa": "seguimiento",
        "score": 5.3,
        "n_focos": 1,
        "n_ultimas_6h": 0,
        "n_ultimas_24h": 1,
        "frp_total_mw": 2.2,
        "frp_max_mw": 2.2,
        "edad_min_h": 7.9,
        "ultima_deteccion_utc": "2026-09-21 12:06:00",
        "sensores": "VIIRS_NOAA20_NRT",
        "satellites": "N20",
        "instruments": "VIIRS",
        "popup_label": "<strong>ALERT-20260921-081<\/strong><br>Nivel: seguimiento<br>Focos: 1<br>Últimas 6 h: 0<br>FRP total: 2.2 MW<br>Última detección UTC: 2026-09-21 12:06:00"
      }
    },
    {
      "type": "Feature",
      "geometry": {
        "type": "Point",
        "coordinates": [-8.4506, 42.4318]
      },
      "properties": {
        "cluster_id": "ALERT-20260921-082",
        "alerta_operativa": "seguimiento",
        "score": 5.2,
        "n_focos": 1,
        "n_ultimas_6h": 0,
        "n_ultimas_24h": 1,
        "frp_total_mw": 2,
        "frp_max_mw": 2,
        "edad_min_h": 17.6,
        "ultima_deteccion_utc": "2026-09-21 02:24:00",
        "sensores": "VIIRS_NOAA20_NRT",
        "satellites": "N20",
        "instruments": "VIIRS",
        "popup_label": "<strong>ALERT-20260921-082<\/strong><br>Nivel: seguimiento<br>Focos: 1<br>Últimas 6 h: 0<br>FRP total: 2 MW<br>Última detección UTC: 2026-09-21 02:24:00"
      }
    },
    {
      "type": "Feature",
      "geometry": {
        "type": "Point",
        "coordinates": [-5.6037, 37.1224]
      },
      "properties": {
        "cluster_id": "ALERT-20260921-083",
        "alerta_operativa": "seguimiento",
        "score": 5.1,
        "n_focos": 1,
        "n_ultimas_6h": 0,
        "n_ultimas_24h": 1,
        "frp_total_mw": 1.8,
        "frp_max_mw": 1.8,
        "edad_min_h": 6.5,
        "ultima_deteccion_utc": "2026-09-21 13:27:00",
        "sensores": "VIIRS_SNPP_NRT",
        "satellites": "N",
        "instruments": "VIIRS",
        "popup_label": "<strong>ALERT-20260921-083<\/strong><br>Nivel: seguimiento<br>Focos: 1<br>Últimas 6 h: 0<br>FRP total: 1.8 MW<br>Última detección UTC: 2026-09-21 13:27:00"
      }
    },
    {
      "type": "Feature",
      "geometry": {
        "type": "Point",
        "coordinates": [-3.2382, 33.9794]
      },
      "properties": {
        "cluster_id": "ALERT-20260921-084",
        "alerta_operativa": "seguimiento",
        "score": 5.1,
        "n_focos": 1,
        "n_ultimas_6h": 0,
        "n_ultimas_24h": 1,
        "frp_total_mw": 1.8,
        "frp_max_mw": 1.8,
        "edad_min_h": 6.6,
        "ultima_deteccion_utc": "2026-09-21 13:25:00",
        "sensores": "VIIRS_SNPP_NRT",
        "satellites": "N",
        "instruments": "VIIRS",
        "popup_label": "<strong>ALERT-20260921-084<\/strong><br>Nivel: seguimiento<br>Focos: 1<br>Últimas 6 h: 0<br>FRP total: 1.8 MW<br>Última detección UTC: 2026-09-21 13:25:00"
      }
    },
    {
      "type": "Feature",
      "geometry": {
        "type": "Point",
        "coordinates": [-7.4585, 39.6238]
      },
      "properties": {
        "cluster_id": "ALERT-20260921-085",
        "alerta_operativa": "seguimiento",
        "score": 4.8,
        "n_focos": 1,
        "n_ultimas_6h": 0,
        "n_ultimas_24h": 1,
        "frp_total_mw": 1.4,
        "frp_max_mw": 1.4,
        "edad_min_h": 6.5,
        "ultima_deteccion_utc": "2026-09-21 13:27:00",
        "sensores": "VIIRS_SNPP_NRT",
        "satellites": "N",
        "instruments": "VIIRS",
        "popup_label": "<strong>ALERT-20260921-085<\/strong><br>Nivel: seguimiento<br>Focos: 1<br>Últimas 6 h: 0<br>FRP total: 1.4 MW<br>Última detección UTC: 2026-09-21 13:27:00"
      }
    },
    {
      "type": "Feature",
      "geometry": {
        "type": "Point",
        "coordinates": [-0.0035, 39.9514]
      },
      "properties": {
        "cluster_id": "ALERT-20260921-086",
        "alerta_operativa": "seguimiento",
        "score": 4.7,
        "n_focos": 1,
        "n_ultimas_6h": 0,
        "n_ultimas_24h": 1,
        "frp_total_mw": 1.3,
        "frp_max_mw": 1.3,
        "edad_min_h": 17.9,
        "ultima_deteccion_utc": "2026-09-21 02:06:00",
        "sensores": "VIIRS_SNPP_NRT",
        "satellites": "N",
        "instruments": "VIIRS",
        "popup_label": "<strong>ALERT-20260921-086<\/strong><br>Nivel: seguimiento<br>Focos: 1<br>Últimas 6 h: 0<br>FRP total: 1.3 MW<br>Última detección UTC: 2026-09-21 02:06:00"
      }
    },
    {
      "type": "Feature",
      "geometry": {
        "type": "Point",
        "coordinates": [4.4774, 44.1341]
      },
      "properties": {
        "cluster_id": "ALERT-20260921-087",
        "alerta_operativa": "seguimiento",
        "score": 4.6,
        "n_focos": 1,
        "n_ultimas_6h": 0,
        "n_ultimas_24h": 1,
        "frp_total_mw": 1.2,
        "frp_max_mw": 1.2,
        "edad_min_h": 17.6,
        "ultima_deteccion_utc": "2026-09-21 02:24:00",
        "sensores": "VIIRS_NOAA20_NRT",
        "satellites": "N20",
        "instruments": "VIIRS",
        "popup_label": "<strong>ALERT-20260921-087<\/strong><br>Nivel: seguimiento<br>Focos: 1<br>Últimas 6 h: 0<br>FRP total: 1.2 MW<br>Última detección UTC: 2026-09-21 02:24:00"
      }
    },
    {
      "type": "Feature",
      "geometry": {
        "type": "Point",
        "coordinates": [-5.6053, 37.261]
      },
      "properties": {
        "cluster_id": "ALERT-20260921-088",
        "alerta_operativa": "seguimiento",
        "score": 4.3,
        "n_focos": 1,
        "n_ultimas_6h": 0,
        "n_ultimas_24h": 1,
        "frp_total_mw": 0.9,
        "frp_max_mw": 0.9,
        "edad_min_h": 17.6,
        "ultima_deteccion_utc": "2026-09-21 02:26:00",
        "sensores": "VIIRS_NOAA20_NRT",
        "satellites": "N20",
        "instruments": "VIIRS",
        "popup_label": "<strong>ALERT-20260921-088<\/strong><br>Nivel: seguimiento<br>Focos: 1<br>Últimas 6 h: 0<br>FRP total: 0.9 MW<br>Última detección UTC: 2026-09-21 02:26:00"
      }
    },
    {
      "type": "Feature",
      "geometry": {
        "type": "Point",
        "coordinates": [1.6608, 41.312]
      },
      "properties": {
        "cluster_id": "ALERT-20260921-089",
        "alerta_operativa": "seguimiento",
        "score": 4.2,
        "n_focos": 1,
        "n_ultimas_6h": 0,
        "n_ultimas_24h": 1,
        "frp_total_mw": 0.8,
        "frp_max_mw": 0.8,
        "edad_min_h": 17.6,
        "ultima_deteccion_utc": "2026-09-21 02:24:00",
        "sensores": "VIIRS_NOAA20_NRT",
        "satellites": "N20",
        "instruments": "VIIRS",
        "popup_label": "<strong>ALERT-20260921-089<\/strong><br>Nivel: seguimiento<br>Focos: 1<br>Últimas 6 h: 0<br>FRP total: 0.8 MW<br>Última detección UTC: 2026-09-21 02:24:00"
      }
    },
    {
      "type": "Feature",
      "geometry": {
        "type": "Point",
        "coordinates": [-8.5908, 33.1667]
      },
      "properties": {
        "cluster_id": "ALERT-20260921-090",
        "alerta_operativa": "seguimiento",
        "score": 4.1,
        "n_focos": 1,
        "n_ultimas_6h": 0,
        "n_ultimas_24h": 1,
        "frp_total_mw": 0.7,
        "frp_max_mw": 0.7,
        "edad_min_h": 17.8,
        "ultima_deteccion_utc": "2026-09-21 02:09:00",
        "sensores": "VIIRS_SNPP_NRT",
        "satellites": "N",
        "instruments": "VIIRS",
        "popup_label": "<strong>ALERT-20260921-090<\/strong><br>Nivel: seguimiento<br>Focos: 1<br>Últimas 6 h: 0<br>FRP total: 0.7 MW<br>Última detección UTC: 2026-09-21 02:09:00"
      }
    },
    {
      "type": "Feature",
      "geometry": {
        "type": "Point",
        "coordinates": [-6.1371, 32.569]
      },
      "properties": {
        "cluster_id": "ALERT-20260921-091",
        "alerta_operativa": "seguimiento",
        "score": 4.1,
        "n_focos": 1,
        "n_ultimas_6h": 0,
        "n_ultimas_24h": 1,
        "frp_total_mw": 0.7,
        "frp_max_mw": 0.7,
        "edad_min_h": 17.5,
        "ultima_deteccion_utc": "2026-09-21 02:28:00",
        "sensores": "VIIRS_NOAA20_NRT",
        "satellites": "N20",
        "instruments": "VIIRS",
        "popup_label": "<strong>ALERT-20260921-091<\/strong><br>Nivel: seguimiento<br>Focos: 1<br>Últimas 6 h: 0<br>FRP total: 0.7 MW<br>Última detección UTC: 2026-09-21 02:28:00"
      }
    },
    {
      "type": "Feature",
      "geometry": {
        "type": "Point",
        "coordinates": [0.5416, 35.7837]
      },
      "properties": {
        "cluster_id": "ALERT-20260921-092",
        "alerta_operativa": "seguimiento",
        "score": 3.9,
        "n_focos": 1,
        "n_ultimas_6h": 0,
        "n_ultimas_24h": 1,
        "frp_total_mw": 0.6,
        "frp_max_mw": 0.6,
        "edad_min_h": 17.9,
        "ultima_deteccion_utc": "2026-09-21 02:06:00",
        "sensores": "VIIRS_SNPP_NRT",
        "satellites": "N",
        "instruments": "VIIRS",
        "popup_label": "<strong>ALERT-20260921-092<\/strong><br>Nivel: seguimiento<br>Focos: 1<br>Últimas 6 h: 0<br>FRP total: 0.6 MW<br>Última detección UTC: 2026-09-21 02:06:00"
      }
    },
    {
      "type": "Feature",
      "geometry": {
        "type": "Point",
        "coordinates": [2.9291, 36.1401]
      },
      "properties": {
        "cluster_id": "ALERT-20260921-093",
        "alerta_operativa": "seguimiento",
        "score": 3.9,
        "n_focos": 1,
        "n_ultimas_6h": 0,
        "n_ultimas_24h": 1,
        "frp_total_mw": 0.6,
        "frp_max_mw": 0.6,
        "edad_min_h": 17.9,
        "ultima_deteccion_utc": "2026-09-21 02:06:00",
        "sensores": "VIIRS_SNPP_NRT",
        "satellites": "N",
        "instruments": "VIIRS",
        "popup_label": "<strong>ALERT-20260921-093<\/strong><br>Nivel: seguimiento<br>Focos: 1<br>Últimas 6 h: 0<br>FRP total: 0.6 MW<br>Última detección UTC: 2026-09-21 02:06:00"
      }
    },
    {
      "type": "Feature",
      "geometry": {
        "type": "Point",
        "coordinates": [-0.2476, 39.6633]
      },
      "properties": {
        "cluster_id": "ALERT-20260921-094",
        "alerta_operativa": "seguimiento",
        "score": 3.9,
        "n_focos": 1,
        "n_ultimas_6h": 0,
        "n_ultimas_24h": 1,
        "frp_total_mw": 0.6,
        "frp_max_mw": 0.6,
        "edad_min_h": 17.9,
        "ultima_deteccion_utc": "2026-09-21 02:06:00",
        "sensores": "VIIRS_SNPP_NRT",
        "satellites": "N",
        "instruments": "VIIRS",
        "popup_label": "<strong>ALERT-20260921-094<\/strong><br>Nivel: seguimiento<br>Focos: 1<br>Últimas 6 h: 0<br>FRP total: 0.6 MW<br>Última detección UTC: 2026-09-21 02:06:00"
      }
    },
    {
      "type": "Feature",
      "geometry": {
        "type": "Point",
        "coordinates": [-9.1535, 30.222]
      },
      "properties": {
        "cluster_id": "ALERT-20260921-095",
        "alerta_operativa": "seguimiento",
        "score": 3.8,
        "n_focos": 1,
        "n_ultimas_6h": 0,
        "n_ultimas_24h": 1,
        "frp_total_mw": 0.5,
        "frp_max_mw": 0.5,
        "edad_min_h": 17.5,
        "ultima_deteccion_utc": "2026-09-21 02:28:00",
        "sensores": "VIIRS_NOAA20_NRT",
        "satellites": "N20",
        "instruments": "VIIRS",
        "popup_label": "<strong>ALERT-20260921-095<\/strong><br>Nivel: seguimiento<br>Focos: 1<br>Últimas 6 h: 0<br>FRP total: 0.5 MW<br>Última detección UTC: 2026-09-21 02:28:00"
      }
    },
    {
      "type": "Feature",
      "geometry": {
        "type": "Point",
        "coordinates": [-5.8644, 37.3594]
      },
      "properties": {
        "cluster_id": "ALERT-20260921-096",
        "alerta_operativa": "seguimiento",
        "score": 3.8,
        "n_focos": 1,
        "n_ultimas_6h": 0,
        "n_ultimas_24h": 1,
        "frp_total_mw": 0.5,
        "frp_max_mw": 0.5,
        "edad_min_h": 17.6,
        "ultima_deteccion_utc": "2026-09-21 02:26:00",
        "sensores": "VIIRS_NOAA20_NRT",
        "satellites": "N20",
        "instruments": "VIIRS",
        "popup_label": "<strong>ALERT-20260921-096<\/strong><br>Nivel: seguimiento<br>Focos: 1<br>Últimas 6 h: 0<br>FRP total: 0.5 MW<br>Última detección UTC: 2026-09-21 02:26:00"
      }
    },
    {
      "type": "Feature",
      "geometry": {
        "type": "Point",
        "coordinates": [-0.5918, 35.5105]
      },
      "properties": {
        "cluster_id": "ALERT-20260921-097",
        "alerta_operativa": "seguimiento",
        "score": 3.5,
        "n_focos": 1,
        "n_ultimas_6h": 0,
        "n_ultimas_24h": 1,
        "frp_total_mw": 0.3,
        "frp_max_mw": 0.3,
        "edad_min_h": 17.9,
        "ultima_deteccion_utc": "2026-09-21 02:06:00",
        "sensores": "VIIRS_SNPP_NRT",
        "satellites": "N",
        "instruments": "VIIRS",
        "popup_label": "<strong>ALERT-20260921-097<\/strong><br>Nivel: seguimiento<br>Focos: 1<br>Últimas 6 h: 0<br>FRP total: 0.3 MW<br>Última detección UTC: 2026-09-21 02:06:00"
      }
    },
    {
      "type": "Feature",
      "geometry": {
        "type": "Point",
        "coordinates": [0.3169, 41.0878]
      },
      "properties": {
        "cluster_id": "ALERT-20260921-098",
        "alerta_operativa": "seguimiento",
        "score": 3.5,
        "n_focos": 1,
        "n_ultimas_6h": 0,
        "n_ultimas_24h": 1,
        "frp_total_mw": 0.3,
        "frp_max_mw": 0.3,
        "edad_min_h": 17.9,
        "ultima_deteccion_utc": "2026-09-21 02:06:00",
        "sensores": "VIIRS_SNPP_NRT",
        "satellites": "N",
        "instruments": "VIIRS",
        "popup_label": "<strong>ALERT-20260921-098<\/strong><br>Nivel: seguimiento<br>Focos: 1<br>Últimas 6 h: 0<br>FRP total: 0.3 MW<br>Última detección UTC: 2026-09-21 02:06:00"
      }
    },
    {
      "type": "Feature",
      "geometry": {
        "type": "Point",
        "coordinates": [-6.8191, 37.3327]
      },
      "properties": {
        "cluster_id": "ALERT-20260921-099",
        "alerta_operativa": "informativa",
        "score": 7.9,
        "n_focos": 2,
        "n_ultimas_6h": 0,
        "n_ultimas_24h": 0,
        "frp_total_mw": 18,
        "frp_max_mw": 9,
        "edad_min_h": 31.6,
        "ultima_deteccion_utc": "2026-09-20 12:25:00",
        "sensores": "VIIRS_NOAA20_NRT",
        "satellites": "N20",
        "instruments": "VIIRS",
        "popup_label": "<strong>ALERT-20260921-099<\/strong><br>Nivel: informativa<br>Focos: 2<br>Últimas 6 h: 0<br>FRP total: 18 MW<br>Última detección UTC: 2026-09-20 12:25:00"
      }
    },
    {
      "type": "Feature",
      "geometry": {
        "type": "Point",
        "coordinates": [-5.9296, 37.0186]
      },
      "properties": {
        "cluster_id": "ALERT-20260921-100",
        "alerta_operativa": "informativa",
        "score": 7.5,
        "n_focos": 2,
        "n_ultimas_6h": 0,
        "n_ultimas_24h": 0,
        "frp_total_mw": 14.5,
        "frp_max_mw": 11.2,
        "edad_min_h": 29.9,
        "ultima_deteccion_utc": "2026-09-20 14:05:00",
        "sensores": "VIIRS_NOAA20_NRT, VIIRS_SNPP_NRT",
        "satellites": "N, N20",
        "instruments": "VIIRS",
        "popup_label": "<strong>ALERT-20260921-100<\/strong><br>Nivel: informativa<br>Focos: 2<br>Últimas 6 h: 0<br>FRP total: 14.5 MW<br>Última detección UTC: 2026-09-20 14:05:00"
      }
    },
    {
      "type": "Feature",
      "geometry": {
        "type": "Point",
        "coordinates": [-4.4854, 39.9495]
      },
      "properties": {
        "cluster_id": "ALERT-20260921-101",
        "alerta_operativa": "informativa",
        "score": 7.4,
        "n_focos": 3,
        "n_ultimas_6h": 0,
        "n_ultimas_24h": 0,
        "frp_total_mw": 8,
        "frp_max_mw": 5.9,
        "edad_min_h": 41.3,
        "ultima_deteccion_utc": "2026-09-20 02:43:00",
        "sensores": "VIIRS_NOAA20_NRT, VIIRS_SNPP_NRT",
        "satellites": "N, N20",
        "instruments": "VIIRS",
        "popup_label": "<strong>ALERT-20260921-101<\/strong><br>Nivel: informativa<br>Focos: 3<br>Últimas 6 h: 0<br>FRP total: 8 MW<br>Última detección UTC: 2026-09-20 02:43:00"
      }
    },
    {
      "type": "Feature",
      "geometry": {
        "type": "Point",
        "coordinates": [-5.5614, 33.9768]
      },
      "properties": {
        "cluster_id": "ALERT-20260921-102",
        "alerta_operativa": "informativa",
        "score": 7.3,
        "n_focos": 2,
        "n_ultimas_6h": 0,
        "n_ultimas_24h": 0,
        "frp_total_mw": 12.9,
        "frp_max_mw": 9.2,
        "edad_min_h": 30.2,
        "ultima_deteccion_utc": "2026-09-20 13:46:00",
        "sensores": "VIIRS_SNPP_NRT",
        "satellites": "N",
        "instruments": "VIIRS",
        "popup_label": "<strong>ALERT-20260921-102<\/strong><br>Nivel: informativa<br>Focos: 2<br>Últimas 6 h: 0<br>FRP total: 12.9 MW<br>Última detección UTC: 2026-09-20 13:46:00"
      }
    },
    {
      "type": "Feature",
      "geometry": {
        "type": "Point",
        "coordinates": [3.3163, 33.1278]
      },
      "properties": {
        "cluster_id": "ALERT-20260921-103",
        "alerta_operativa": "informativa",
        "score": 7.3,
        "n_focos": 3,
        "n_ultimas_6h": 0,
        "n_ultimas_24h": 0,
        "frp_total_mw": 7.6,
        "frp_max_mw": 4.4,
        "edad_min_h": 43.2,
        "ultima_deteccion_utc": "2026-09-20 00:45:00",
        "sensores": "VIIRS_SNPP_NRT",
        "satellites": "N",
        "instruments": "VIIRS",
        "popup_label": "<strong>ALERT-20260921-103<\/strong><br>Nivel: informativa<br>Focos: 3<br>Últimas 6 h: 0<br>FRP total: 7.6 MW<br>Última detección UTC: 2026-09-20 00:45:00"
      }
    },
    {
      "type": "Feature",
      "geometry": {
        "type": "Point",
        "coordinates": [4.369, 44.5451]
      },
      "properties": {
        "cluster_id": "ALERT-20260921-104",
        "alerta_operativa": "informativa",
        "score": 7.1,
        "n_focos": 1,
        "n_ultimas_6h": 0,
        "n_ultimas_24h": 0,
        "frp_total_mw": 19.8,
        "frp_max_mw": 19.8,
        "edad_min_h": 31.6,
        "ultima_deteccion_utc": "2026-09-20 12:25:00",
        "sensores": "VIIRS_NOAA20_NRT",
        "satellites": "N20",
        "instruments": "VIIRS",
        "popup_label": "<strong>ALERT-20260921-104<\/strong><br>Nivel: informativa<br>Focos: 1<br>Últimas 6 h: 0<br>FRP total: 19.8 MW<br>Última detección UTC: 2026-09-20 12:25:00"
      }
    },
    {
      "type": "Feature",
      "geometry": {
        "type": "Point",
        "coordinates": [-0.4005, 42.9428]
      },
      "properties": {
        "cluster_id": "ALERT-20260921-105",
        "alerta_operativa": "informativa",
        "score": 6.3,
        "n_focos": 2,
        "n_ultimas_6h": 0,
        "n_ultimas_24h": 0,
        "frp_total_mw": 7.6,
        "frp_max_mw": 4,
        "edad_min_h": 31.6,
        "ultima_deteccion_utc": "2026-09-20 12:25:00",
        "sensores": "VIIRS_NOAA20_NRT, VIIRS_SNPP_NRT",
        "satellites": "N, N20",
        "instruments": "VIIRS",
        "popup_label": "<strong>ALERT-20260921-105<\/strong><br>Nivel: informativa<br>Focos: 2<br>Últimas 6 h: 0<br>FRP total: 7.6 MW<br>Última detección UTC: 2026-09-20 12:25:00"
      }
    },
    {
      "type": "Feature",
      "geometry": {
        "type": "Point",
        "coordinates": [4.9627, 43.5896]
      },
      "properties": {
        "cluster_id": "ALERT-20260921-106",
        "alerta_operativa": "informativa",
        "score": 6.3,
        "n_focos": 2,
        "n_ultimas_6h": 0,
        "n_ultimas_24h": 0,
        "frp_total_mw": 7.4,
        "frp_max_mw": 3.9,
        "edad_min_h": 31.6,
        "ultima_deteccion_utc": "2026-09-20 12:25:00",
        "sensores": "VIIRS_NOAA20_NRT",
        "satellites": "N20",
        "instruments": "VIIRS",
        "popup_label": "<strong>ALERT-20260921-106<\/strong><br>Nivel: informativa<br>Focos: 2<br>Últimas 6 h: 0<br>FRP total: 7.4 MW<br>Última detección UTC: 2026-09-20 12:25:00"
      }
    },
    {
      "type": "Feature",
      "geometry": {
        "type": "Point",
        "coordinates": [-5.3323, 37.3717]
      },
      "properties": {
        "cluster_id": "ALERT-20260921-107",
        "alerta_operativa": "informativa",
        "score": 5.9,
        "n_focos": 2,
        "n_ultimas_6h": 0,
        "n_ultimas_24h": 0,
        "frp_total_mw": 6.1,
        "frp_max_mw": 3.3,
        "edad_min_h": 31.6,
        "ultima_deteccion_utc": "2026-09-20 12:25:00",
        "sensores": "VIIRS_NOAA20_NRT",
        "satellites": "N20",
        "instruments": "VIIRS",
        "popup_label": "<strong>ALERT-20260921-107<\/strong><br>Nivel: informativa<br>Focos: 2<br>Últimas 6 h: 0<br>FRP total: 6.1 MW<br>Última detección UTC: 2026-09-20 12:25:00"
      }
    },
    {
      "type": "Feature",
      "geometry": {
        "type": "Point",
        "coordinates": [-3.8396, 43.4115]
      },
      "properties": {
        "cluster_id": "ALERT-20260921-108",
        "alerta_operativa": "informativa",
        "score": 5.8,
        "n_focos": 2,
        "n_ultimas_6h": 0,
        "n_ultimas_24h": 0,
        "frp_total_mw": 5.7,
        "frp_max_mw": 4.8,
        "edad_min_h": 41.3,
        "ultima_deteccion_utc": "2026-09-20 02:43:00",
        "sensores": "VIIRS_NOAA20_NRT, VIIRS_SNPP_NRT",
        "satellites": "N, N20",
        "instruments": "VIIRS",
        "popup_label": "<strong>ALERT-20260921-108<\/strong><br>Nivel: informativa<br>Focos: 2<br>Últimas 6 h: 0<br>FRP total: 5.7 MW<br>Última detección UTC: 2026-09-20 02:43:00"
      }
    },
    {
      "type": "Feature",
      "geometry": {
        "type": "Point",
        "coordinates": [-0.8213, 38.9757]
      },
      "properties": {
        "cluster_id": "ALERT-20260921-109",
        "alerta_operativa": "informativa",
        "score": 4.7,
        "n_focos": 1,
        "n_ultimas_6h": 0,
        "n_ultimas_24h": 0,
        "frp_total_mw": 5.3,
        "frp_max_mw": 5.3,
        "edad_min_h": 30.2,
        "ultima_deteccion_utc": "2026-09-20 13:46:00",
        "sensores": "VIIRS_SNPP_NRT",
        "satellites": "N",
        "instruments": "VIIRS",
        "popup_label": "<strong>ALERT-20260921-109<\/strong><br>Nivel: informativa<br>Focos: 1<br>Últimas 6 h: 0<br>FRP total: 5.3 MW<br>Última detección UTC: 2026-09-20 13:46:00"
      }
    },
    {
      "type": "Feature",
      "geometry": {
        "type": "Point",
        "coordinates": [2.3416, 43.3196]
      },
      "properties": {
        "cluster_id": "ALERT-20260921-110",
        "alerta_operativa": "informativa",
        "score": 4.6,
        "n_focos": 1,
        "n_ultimas_6h": 0,
        "n_ultimas_24h": 0,
        "frp_total_mw": 5.2,
        "frp_max_mw": 5.2,
        "edad_min_h": 31.6,
        "ultima_deteccion_utc": "2026-09-20 12:25:00",
        "sensores": "VIIRS_NOAA20_NRT",
        "satellites": "N20",
        "instruments": "VIIRS",
        "popup_label": "<strong>ALERT-20260921-110<\/strong><br>Nivel: informativa<br>Focos: 1<br>Últimas 6 h: 0<br>FRP total: 5.2 MW<br>Última detección UTC: 2026-09-20 12:25:00"
      }
    },
    {
      "type": "Feature",
      "geometry": {
        "type": "Point",
        "coordinates": [-6.5418, 38.8834]
      },
      "properties": {
        "cluster_id": "ALERT-20260921-111",
        "alerta_operativa": "informativa",
        "score": 4.5,
        "n_focos": 1,
        "n_ultimas_6h": 0,
        "n_ultimas_24h": 0,
        "frp_total_mw": 4.8,
        "frp_max_mw": 4.8,
        "edad_min_h": 30.2,
        "ultima_deteccion_utc": "2026-09-20 13:46:00",
        "sensores": "VIIRS_SNPP_NRT",
        "satellites": "N",
        "instruments": "VIIRS",
        "popup_label": "<strong>ALERT-20260921-111<\/strong><br>Nivel: informativa<br>Focos: 1<br>Últimas 6 h: 0<br>FRP total: 4.8 MW<br>Última detección UTC: 2026-09-20 13:46:00"
      }
    },
    {
      "type": "Feature",
      "geometry": {
        "type": "Point",
        "coordinates": [-5.6498, 38.7624]
      },
      "properties": {
        "cluster_id": "ALERT-20260921-112",
        "alerta_operativa": "informativa",
        "score": 4.5,
        "n_focos": 1,
        "n_ultimas_6h": 0,
        "n_ultimas_24h": 0,
        "frp_total_mw": 4.8,
        "frp_max_mw": 4.8,
        "edad_min_h": 31.6,
        "ultima_deteccion_utc": "2026-09-20 12:25:00",
        "sensores": "VIIRS_NOAA20_NRT",
        "satellites": "N20",
        "instruments": "VIIRS",
        "popup_label": "<strong>ALERT-20260921-112<\/strong><br>Nivel: informativa<br>Focos: 1<br>Últimas 6 h: 0<br>FRP total: 4.8 MW<br>Última detección UTC: 2026-09-20 12:25:00"
      }
    },
    {
      "type": "Feature",
      "geometry": {
        "type": "Point",
        "coordinates": [-5.8147, 38.9163]
      },
      "properties": {
        "cluster_id": "ALERT-20260921-113",
        "alerta_operativa": "informativa",
        "score": 4.3,
        "n_focos": 2,
        "n_ultimas_6h": 0,
        "n_ultimas_24h": 0,
        "frp_total_mw": 2.2,
        "frp_max_mw": 1.5,
        "edad_min_h": 41.3,
        "ultima_deteccion_utc": "2026-09-20 02:43:00",
        "sensores": "VIIRS_NOAA20_NRT, VIIRS_SNPP_NRT",
        "satellites": "N, N20",
        "instruments": "VIIRS",
        "popup_label": "<strong>ALERT-20260921-113<\/strong><br>Nivel: informativa<br>Focos: 2<br>Últimas 6 h: 0<br>FRP total: 2.2 MW<br>Última detección UTC: 2026-09-20 02:43:00"
      }
    },
    {
      "type": "Feature",
      "geometry": {
        "type": "Point",
        "coordinates": [-4.2475, 40.7156]
      },
      "properties": {
        "cluster_id": "ALERT-20260921-114",
        "alerta_operativa": "informativa",
        "score": 4.3,
        "n_focos": 2,
        "n_ultimas_6h": 0,
        "n_ultimas_24h": 0,
        "frp_total_mw": 2.2,
        "frp_max_mw": 1.1,
        "edad_min_h": 41.3,
        "ultima_deteccion_utc": "2026-09-20 02:43:00",
        "sensores": "VIIRS_NOAA20_NRT, VIIRS_SNPP_NRT",
        "satellites": "N, N20",
        "instruments": "VIIRS",
        "popup_label": "<strong>ALERT-20260921-114<\/strong><br>Nivel: informativa<br>Focos: 2<br>Últimas 6 h: 0<br>FRP total: 2.2 MW<br>Última detección UTC: 2026-09-20 02:43:00"
      }
    },
    {
      "type": "Feature",
      "geometry": {
        "type": "Point",
        "coordinates": [0.1472, 34.8124]
      },
      "properties": {
        "cluster_id": "ALERT-20260921-115",
        "alerta_operativa": "informativa",
        "score": 4.2,
        "n_focos": 1,
        "n_ultimas_6h": 0,
        "n_ultimas_24h": 0,
        "frp_total_mw": 4,
        "frp_max_mw": 4,
        "edad_min_h": 31.6,
        "ultima_deteccion_utc": "2026-09-20 12:23:00",
        "sensores": "VIIRS_NOAA20_NRT",
        "satellites": "N20",
        "instruments": "VIIRS",
        "popup_label": "<strong>ALERT-20260921-115<\/strong><br>Nivel: informativa<br>Focos: 1<br>Últimas 6 h: 0<br>FRP total: 4 MW<br>Última detección UTC: 2026-09-20 12:23:00"
      }
    },
    {
      "type": "Feature",
      "geometry": {
        "type": "Point",
        "coordinates": [-8.9053, 39.6871]
      },
      "properties": {
        "cluster_id": "ALERT-20260921-116",
        "alerta_operativa": "informativa",
        "score": 4.1,
        "n_focos": 2,
        "n_ultimas_6h": 0,
        "n_ultimas_24h": 0,
        "frp_total_mw": 1.9,
        "frp_max_mw": 1,
        "edad_min_h": 41.3,
        "ultima_deteccion_utc": "2026-09-20 02:43:00",
        "sensores": "VIIRS_NOAA20_NRT, VIIRS_SNPP_NRT",
        "satellites": "N, N20",
        "instruments": "VIIRS",
        "popup_label": "<strong>ALERT-20260921-116<\/strong><br>Nivel: informativa<br>Focos: 2<br>Últimas 6 h: 0<br>FRP total: 1.9 MW<br>Última detección UTC: 2026-09-20 02:43:00"
      }
    },
    {
      "type": "Feature",
      "geometry": {
        "type": "Point",
        "coordinates": [-7.1376, 38.7215]
      },
      "properties": {
        "cluster_id": "ALERT-20260921-117",
        "alerta_operativa": "informativa",
        "score": 3.8,
        "n_focos": 1,
        "n_ultimas_6h": 0,
        "n_ultimas_24h": 0,
        "frp_total_mw": 3,
        "frp_max_mw": 3,
        "edad_min_h": 30.2,
        "ultima_deteccion_utc": "2026-09-20 13:46:00",
        "sensores": "VIIRS_SNPP_NRT",
        "satellites": "N",
        "instruments": "VIIRS",
        "popup_label": "<strong>ALERT-20260921-117<\/strong><br>Nivel: informativa<br>Focos: 1<br>Últimas 6 h: 0<br>FRP total: 3 MW<br>Última detección UTC: 2026-09-20 13:46:00"
      }
    },
    {
      "type": "Feature",
      "geometry": {
        "type": "Point",
        "coordinates": [4.6353, 43.9666]
      },
      "properties": {
        "cluster_id": "ALERT-20260921-118",
        "alerta_operativa": "informativa",
        "score": 3.3,
        "n_focos": 1,
        "n_ultimas_6h": 0,
        "n_ultimas_24h": 0,
        "frp_total_mw": 2.2,
        "frp_max_mw": 2.2,
        "edad_min_h": 31.6,
        "ultima_deteccion_utc": "2026-09-20 12:25:00",
        "sensores": "VIIRS_NOAA20_NRT",
        "satellites": "N20",
        "instruments": "VIIRS",
        "popup_label": "<strong>ALERT-20260921-118<\/strong><br>Nivel: informativa<br>Focos: 1<br>Últimas 6 h: 0<br>FRP total: 2.2 MW<br>Última detección UTC: 2026-09-20 12:25:00"
      }
    },
    {
      "type": "Feature",
      "geometry": {
        "type": "Point",
        "coordinates": [4.7088, 44.0903]
      },
      "properties": {
        "cluster_id": "ALERT-20260921-119",
        "alerta_operativa": "informativa",
        "score": 3.3,
        "n_focos": 1,
        "n_ultimas_6h": 0,
        "n_ultimas_24h": 0,
        "frp_total_mw": 2.2,
        "frp_max_mw": 2.2,
        "edad_min_h": 31.6,
        "ultima_deteccion_utc": "2026-09-20 12:25:00",
        "sensores": "VIIRS_NOAA20_NRT",
        "satellites": "N20",
        "instruments": "VIIRS",
        "popup_label": "<strong>ALERT-20260921-119<\/strong><br>Nivel: informativa<br>Focos: 1<br>Últimas 6 h: 0<br>FRP total: 2.2 MW<br>Última detección UTC: 2026-09-20 12:25:00"
      }
    },
    {
      "type": "Feature",
      "geometry": {
        "type": "Point",
        "coordinates": [-4.4886, 37.5365]
      },
      "properties": {
        "cluster_id": "ALERT-20260921-120",
        "alerta_operativa": "informativa",
        "score": 3.3,
        "n_focos": 1,
        "n_ultimas_6h": 0,
        "n_ultimas_24h": 0,
        "frp_total_mw": 2.1,
        "frp_max_mw": 2.1,
        "edad_min_h": 29.9,
        "ultima_deteccion_utc": "2026-09-20 14:05:00",
        "sensores": "VIIRS_NOAA20_NRT",
        "satellites": "N20",
        "instruments": "VIIRS",
        "popup_label": "<strong>ALERT-20260921-120<\/strong><br>Nivel: informativa<br>Focos: 1<br>Últimas 6 h: 0<br>FRP total: 2.1 MW<br>Última detección UTC: 2026-09-20 14:05:00"
      }
    },
    {
      "type": "Feature",
      "geometry": {
        "type": "Point",
        "coordinates": [-5.6704, 42.0166]
      },
      "properties": {
        "cluster_id": "ALERT-20260921-121",
        "alerta_operativa": "informativa",
        "score": 3.1,
        "n_focos": 1,
        "n_ultimas_6h": 0,
        "n_ultimas_24h": 0,
        "frp_total_mw": 1.9,
        "frp_max_mw": 1.9,
        "edad_min_h": 41.3,
        "ultima_deteccion_utc": "2026-09-20 02:43:00",
        "sensores": "VIIRS_NOAA20_NRT",
        "satellites": "N20",
        "instruments": "VIIRS",
        "popup_label": "<strong>ALERT-20260921-121<\/strong><br>Nivel: informativa<br>Focos: 1<br>Últimas 6 h: 0<br>FRP total: 1.9 MW<br>Última detección UTC: 2026-09-20 02:43:00"
      }
    },
    {
      "type": "Feature",
      "geometry": {
        "type": "Point",
        "coordinates": [-7.5379, 38.9012]
      },
      "properties": {
        "cluster_id": "ALERT-20260921-122",
        "alerta_operativa": "informativa",
        "score": 2.6,
        "n_focos": 1,
        "n_ultimas_6h": 0,
        "n_ultimas_24h": 0,
        "frp_total_mw": 1.2,
        "frp_max_mw": 1.2,
        "edad_min_h": 41.3,
        "ultima_deteccion_utc": "2026-09-20 02:43:00",
        "sensores": "VIIRS_NOAA20_NRT",
        "satellites": "N20",
        "instruments": "VIIRS",
        "popup_label": "<strong>ALERT-20260921-122<\/strong><br>Nivel: informativa<br>Focos: 1<br>Últimas 6 h: 0<br>FRP total: 1.2 MW<br>Última detección UTC: 2026-09-20 02:43:00"
      }
    },
    {
      "type": "Feature",
      "geometry": {
        "type": "Point",
        "coordinates": [-9.0783, 38.6297]
      },
      "properties": {
        "cluster_id": "ALERT-20260921-123",
        "alerta_operativa": "informativa",
        "score": 2.4,
        "n_focos": 1,
        "n_ultimas_6h": 0,
        "n_ultimas_24h": 0,
        "frp_total_mw": 1,
        "frp_max_mw": 1,
        "edad_min_h": 41.3,
        "ultima_deteccion_utc": "2026-09-20 02:43:00",
        "sensores": "VIIRS_NOAA20_NRT",
        "satellites": "N20",
        "instruments": "VIIRS",
        "popup_label": "<strong>ALERT-20260921-123<\/strong><br>Nivel: informativa<br>Focos: 1<br>Últimas 6 h: 0<br>FRP total: 1 MW<br>Última detección UTC: 2026-09-20 02:43:00"
      }
    },
    {
      "type": "Feature",
      "geometry": {
        "type": "Point",
        "coordinates": [-9.5252, 30.3372]
      },
      "properties": {
        "cluster_id": "ALERT-20260921-124",
        "alerta_operativa": "informativa",
        "score": 2.3,
        "n_focos": 1,
        "n_ultimas_6h": 0,
        "n_ultimas_24h": 0,
        "frp_total_mw": 0.9,
        "frp_max_mw": 0.9,
        "edad_min_h": 41.2,
        "ultima_deteccion_utc": "2026-09-20 02:45:00",
        "sensores": "VIIRS_NOAA20_NRT",
        "satellites": "N20",
        "instruments": "VIIRS",
        "popup_label": "<strong>ALERT-20260921-124<\/strong><br>Nivel: informativa<br>Focos: 1<br>Últimas 6 h: 0<br>FRP total: 0.9 MW<br>Última detección UTC: 2026-09-20 02:45:00"
      }
    },
    {
      "type": "Feature",
      "geometry": {
        "type": "Point",
        "coordinates": [-1.7446, 42.8159]
      },
      "properties": {
        "cluster_id": "ALERT-20260921-125",
        "alerta_operativa": "informativa",
        "score": 2.2,
        "n_focos": 1,
        "n_ultimas_6h": 0,
        "n_ultimas_24h": 0,
        "frp_total_mw": 0.8,
        "frp_max_mw": 0.8,
        "edad_min_h": 41.6,
        "ultima_deteccion_utc": "2026-09-20 02:24:00",
        "sensores": "VIIRS_SNPP_NRT",
        "satellites": "N",
        "instruments": "VIIRS",
        "popup_label": "<strong>ALERT-20260921-125<\/strong><br>Nivel: informativa<br>Focos: 1<br>Últimas 6 h: 0<br>FRP total: 0.8 MW<br>Última detección UTC: 2026-09-20 02:24:00"
      }
    },
    {
      "type": "Feature",
      "geometry": {
        "type": "Point",
        "coordinates": [-7.5366, 33.4355]
      },
      "properties": {
        "cluster_id": "ALERT-20260921-126",
        "alerta_operativa": "informativa",
        "score": 1.9,
        "n_focos": 1,
        "n_ultimas_6h": 0,
        "n_ultimas_24h": 0,
        "frp_total_mw": 0.6,
        "frp_max_mw": 0.6,
        "edad_min_h": 41.6,
        "ultima_deteccion_utc": "2026-09-20 02:26:00",
        "sensores": "VIIRS_SNPP_NRT",
        "satellites": "N",
        "instruments": "VIIRS",
        "popup_label": "<strong>ALERT-20260921-126<\/strong><br>Nivel: informativa<br>Focos: 1<br>Últimas 6 h: 0<br>FRP total: 0.6 MW<br>Última detección UTC: 2026-09-20 02:26:00"
      }
    },
    {
      "type": "Feature",
      "geometry": {
        "type": "Point",
        "coordinates": [-8.5558, 41.2536]
      },
      "properties": {
        "cluster_id": "ALERT-20260921-127",
        "alerta_operativa": "informativa",
        "score": 1.8,
        "n_focos": 1,
        "n_ultimas_6h": 0,
        "n_ultimas_24h": 0,
        "frp_total_mw": 0.5,
        "frp_max_mw": 0.5,
        "edad_min_h": 41.3,
        "ultima_deteccion_utc": "2026-09-20 02:43:00",
        "sensores": "VIIRS_NOAA20_NRT",
        "satellites": "N20",
        "instruments": "VIIRS",
        "popup_label": "<strong>ALERT-20260921-127<\/strong><br>Nivel: informativa<br>Focos: 1<br>Últimas 6 h: 0<br>FRP total: 0.5 MW<br>Última detección UTC: 2026-09-20 02:43:00"
      }
    },
    {
      "type": "Feature",
      "geometry": {
        "type": "Point",
        "coordinates": [-1.5112, 42.923]
      },
      "properties": {
        "cluster_id": "ALERT-20260921-128",
        "alerta_operativa": "informativa",
        "score": 1.7,
        "n_focos": 1,
        "n_ultimas_6h": 0,
        "n_ultimas_24h": 0,
        "frp_total_mw": 0.4,
        "frp_max_mw": 0.4,
        "edad_min_h": 41.6,
        "ultima_deteccion_utc": "2026-09-20 02:24:00",
        "sensores": "VIIRS_SNPP_NRT",
        "satellites": "N",
        "instruments": "VIIRS",
        "popup_label": "<strong>ALERT-20260921-128<\/strong><br>Nivel: informativa<br>Focos: 1<br>Últimas 6 h: 0<br>FRP total: 0.4 MW<br>Última detección UTC: 2026-09-20 02:24:00"
      }
    },
    {
      "type": "Feature",
      "geometry": {
        "type": "Point",
        "coordinates": [-2.7726, 43.2071]
      },
      "properties": {
        "cluster_id": "ALERT-20260921-129",
        "alerta_operativa": "informativa",
        "score": 1.5,
        "n_focos": 1,
        "n_ultimas_6h": 0,
        "n_ultimas_24h": 0,
        "frp_total_mw": 0.3,
        "frp_max_mw": 0.3,
        "edad_min_h": 41.3,
        "ultima_deteccion_utc": "2026-09-20 02:43:00",
        "sensores": "VIIRS_NOAA20_NRT",
        "satellites": "N20",
        "instruments": "VIIRS",
        "popup_label": "<strong>ALERT-20260921-129<\/strong><br>Nivel: informativa<br>Focos: 1<br>Últimas 6 h: 0<br>FRP total: 0.3 MW<br>Última detección UTC: 2026-09-20 02:43:00"
      }
    }
  ]
}
