{
  "type": "FeatureCollection",
  "features": [
    {
      "type": "Feature",
      "geometry": {
        "type": "Point",
        "coordinates": [-6.1024, 35.2334]
      },
      "properties": {
        "cluster_id": "ALERT-20260913-001",
        "alerta_operativa": "alta",
        "score": 41.8,
        "n_focos": 10,
        "n_ultimas_6h": 0,
        "n_ultimas_24h": 10,
        "frp_total_mw": 367.9,
        "frp_max_mw": 140.1,
        "edad_min_h": 22.3,
        "ultima_deteccion_utc": "2026-09-12 14:35:00",
        "sensores": "VIIRS_NOAA20_NRT, VIIRS_SNPP_NRT",
        "satellites": "N, N20",
        "instruments": "VIIRS",
        "popup_label": "<strong>ALERT-20260913-001<\/strong><br>Nivel: alta<br>Focos: 10<br>Últimas 6 h: 0<br>FRP total: 367.9 MW<br>Última detección UTC: 2026-09-12 14:35:00"
      }
    },
    {
      "type": "Feature",
      "geometry": {
        "type": "Point",
        "coordinates": [-0.2659, 35.8074]
      },
      "properties": {
        "cluster_id": "ALERT-20260913-002",
        "alerta_operativa": "media",
        "score": 111.2,
        "n_focos": 42,
        "n_ultimas_6h": 0,
        "n_ultimas_24h": 30,
        "frp_total_mw": 99.9,
        "frp_max_mw": 6.7,
        "edad_min_h": 9.9,
        "ultima_deteccion_utc": "2026-09-13 02:56:00",
        "sensores": "VIIRS_NOAA20_NRT, VIIRS_SNPP_NRT",
        "satellites": "N, N20",
        "instruments": "VIIRS",
        "popup_label": "<strong>ALERT-20260913-002<\/strong><br>Nivel: media<br>Focos: 42<br>Últimas 6 h: 0<br>FRP total: 99.9 MW<br>Última detección UTC: 2026-09-13 02:56:00"
      }
    },
    {
      "type": "Feature",
      "geometry": {
        "type": "Point",
        "coordinates": [4.8925, 43.441]
      },
      "properties": {
        "cluster_id": "ALERT-20260913-003",
        "alerta_operativa": "media",
        "score": 99.1,
        "n_focos": 33,
        "n_ultimas_6h": 0,
        "n_ultimas_24h": 29,
        "frp_total_mw": 55,
        "frp_max_mw": 5.8,
        "edad_min_h": 10,
        "ultima_deteccion_utc": "2026-09-13 02:53:00",
        "sensores": "VIIRS_NOAA20_NRT, VIIRS_SNPP_NRT",
        "satellites": "N, N20",
        "instruments": "VIIRS",
        "popup_label": "<strong>ALERT-20260913-003<\/strong><br>Nivel: media<br>Focos: 33<br>Últimas 6 h: 0<br>FRP total: 55 MW<br>Última detección UTC: 2026-09-13 02:53:00"
      }
    },
    {
      "type": "Feature",
      "geometry": {
        "type": "Point",
        "coordinates": [-5.7588, 43.5306]
      },
      "properties": {
        "cluster_id": "ALERT-20260913-004",
        "alerta_operativa": "media",
        "score": 84.7,
        "n_focos": 42,
        "n_ultimas_6h": 0,
        "n_ultimas_24h": 17,
        "frp_total_mw": 75.6,
        "frp_max_mw": 6.6,
        "edad_min_h": 9.6,
        "ultima_deteccion_utc": "2026-09-13 03:15:00",
        "sensores": "VIIRS_NOAA20_NRT, VIIRS_SNPP_NRT",
        "satellites": "N, N20",
        "instruments": "VIIRS",
        "popup_label": "<strong>ALERT-20260913-004<\/strong><br>Nivel: media<br>Focos: 42<br>Últimas 6 h: 0<br>FRP total: 75.6 MW<br>Última detección UTC: 2026-09-13 03:15:00"
      }
    },
    {
      "type": "Feature",
      "geometry": {
        "type": "Point",
        "coordinates": [3.2293, 32.943]
      },
      "properties": {
        "cluster_id": "ALERT-20260913-005",
        "alerta_operativa": "media",
        "score": 55.8,
        "n_focos": 23,
        "n_ultimas_6h": 0,
        "n_ultimas_24h": 13,
        "frp_total_mw": 28.4,
        "frp_max_mw": 5.7,
        "edad_min_h": 11.3,
        "ultima_deteccion_utc": "2026-09-13 01:34:00",
        "sensores": "VIIRS_NOAA20_NRT, VIIRS_SNPP_NRT",
        "satellites": "N, N20",
        "instruments": "VIIRS",
        "popup_label": "<strong>ALERT-20260913-005<\/strong><br>Nivel: media<br>Focos: 23<br>Últimas 6 h: 0<br>FRP total: 28.4 MW<br>Última detección UTC: 2026-09-13 01:34:00"
      }
    },
    {
      "type": "Feature",
      "geometry": {
        "type": "Point",
        "coordinates": [3.1408, 36.6736]
      },
      "properties": {
        "cluster_id": "ALERT-20260913-006",
        "alerta_operativa": "media",
        "score": 46.1,
        "n_focos": 18,
        "n_ultimas_6h": 0,
        "n_ultimas_24h": 11,
        "frp_total_mw": 19.8,
        "frp_max_mw": 1.9,
        "edad_min_h": 9.9,
        "ultima_deteccion_utc": "2026-09-13 02:56:00",
        "sensores": "VIIRS_NOAA20_NRT, VIIRS_SNPP_NRT",
        "satellites": "N, N20",
        "instruments": "VIIRS",
        "popup_label": "<strong>ALERT-20260913-006<\/strong><br>Nivel: media<br>Focos: 18<br>Últimas 6 h: 0<br>FRP total: 19.8 MW<br>Última detección UTC: 2026-09-13 02:56:00"
      }
    },
    {
      "type": "Feature",
      "geometry": {
        "type": "Point",
        "coordinates": [3.3362, 33.1242]
      },
      "properties": {
        "cluster_id": "ALERT-20260913-007",
        "alerta_operativa": "media",
        "score": 41,
        "n_focos": 18,
        "n_ultimas_6h": 0,
        "n_ultimas_24h": 8,
        "frp_total_mw": 31.5,
        "frp_max_mw": 10.9,
        "edad_min_h": 11.3,
        "ultima_deteccion_utc": "2026-09-13 01:34:00",
        "sensores": "VIIRS_NOAA20_NRT, VIIRS_SNPP_NRT",
        "satellites": "N, N20",
        "instruments": "VIIRS",
        "popup_label": "<strong>ALERT-20260913-007<\/strong><br>Nivel: media<br>Focos: 18<br>Últimas 6 h: 0<br>FRP total: 31.5 MW<br>Última detección UTC: 2026-09-13 01:34:00"
      }
    },
    {
      "type": "Feature",
      "geometry": {
        "type": "Point",
        "coordinates": [-6.1565, 38.2816]
      },
      "properties": {
        "cluster_id": "ALERT-20260913-008",
        "alerta_operativa": "media",
        "score": 37.6,
        "n_focos": 10,
        "n_ultimas_6h": 0,
        "n_ultimas_24h": 10,
        "frp_total_mw": 44,
        "frp_max_mw": 6.1,
        "edad_min_h": 23.6,
        "ultima_deteccion_utc": "2026-09-12 13:16:00",
        "sensores": "VIIRS_NOAA20_NRT",
        "satellites": "N20",
        "instruments": "VIIRS",
        "popup_label": "<strong>ALERT-20260913-008<\/strong><br>Nivel: media<br>Focos: 10<br>Últimas 6 h: 0<br>FRP total: 44 MW<br>Última detección UTC: 2026-09-12 13:16:00"
      }
    },
    {
      "type": "Feature",
      "geometry": {
        "type": "Point",
        "coordinates": [-0.5175, 28.2002]
      },
      "properties": {
        "cluster_id": "ALERT-20260913-009",
        "alerta_operativa": "media",
        "score": 26.2,
        "n_focos": 7,
        "n_ultimas_6h": 0,
        "n_ultimas_24h": 7,
        "frp_total_mw": 12.2,
        "frp_max_mw": 3,
        "edad_min_h": 9.9,
        "ultima_deteccion_utc": "2026-09-13 02:58:00",
        "sensores": "VIIRS_NOAA20_NRT, VIIRS_SNPP_NRT",
        "satellites": "N, N20",
        "instruments": "VIIRS",
        "popup_label": "<strong>ALERT-20260913-009<\/strong><br>Nivel: media<br>Focos: 7<br>Últimas 6 h: 0<br>FRP total: 12.2 MW<br>Última detección UTC: 2026-09-13 02:58:00"
      }
    },
    {
      "type": "Feature",
      "geometry": {
        "type": "Point",
        "coordinates": [-4.7304, 37.545]
      },
      "properties": {
        "cluster_id": "ALERT-20260913-010",
        "alerta_operativa": "media",
        "score": 22.8,
        "n_focos": 6,
        "n_ultimas_6h": 0,
        "n_ultimas_24h": 6,
        "frp_total_mw": 10.3,
        "frp_max_mw": 3.1,
        "edad_min_h": 9.6,
        "ultima_deteccion_utc": "2026-09-13 03:17:00",
        "sensores": "VIIRS_NOAA20_NRT, VIIRS_SNPP_NRT",
        "satellites": "N, N20",
        "instruments": "VIIRS",
        "popup_label": "<strong>ALERT-20260913-010<\/strong><br>Nivel: media<br>Focos: 6<br>Últimas 6 h: 0<br>FRP total: 10.3 MW<br>Última detección UTC: 2026-09-13 03:17:00"
      }
    },
    {
      "type": "Feature",
      "geometry": {
        "type": "Point",
        "coordinates": [-2.2204, 43.0377]
      },
      "properties": {
        "cluster_id": "ALERT-20260913-011",
        "alerta_operativa": "media",
        "score": 21.9,
        "n_focos": 6,
        "n_ultimas_6h": 0,
        "n_ultimas_24h": 6,
        "frp_total_mw": 6,
        "frp_max_mw": 1.2,
        "edad_min_h": 11.3,
        "ultima_deteccion_utc": "2026-09-13 01:34:00",
        "sensores": "VIIRS_NOAA20_NRT, VIIRS_SNPP_NRT",
        "satellites": "N, N20",
        "instruments": "VIIRS",
        "popup_label": "<strong>ALERT-20260913-011<\/strong><br>Nivel: media<br>Focos: 6<br>Últimas 6 h: 0<br>FRP total: 6 MW<br>Última detección UTC: 2026-09-13 01:34:00"
      }
    },
    {
      "type": "Feature",
      "geometry": {
        "type": "Point",
        "coordinates": [-1.0022, 43.8327]
      },
      "properties": {
        "cluster_id": "ALERT-20260913-012",
        "alerta_operativa": "media",
        "score": 21.7,
        "n_focos": 5,
        "n_ultimas_6h": 0,
        "n_ultimas_24h": 5,
        "frp_total_mw": 27,
        "frp_max_mw": 6.7,
        "edad_min_h": 23.9,
        "ultima_deteccion_utc": "2026-09-12 12:57:00",
        "sensores": "VIIRS_SNPP_NRT",
        "satellites": "N",
        "instruments": "VIIRS",
        "popup_label": "<strong>ALERT-20260913-012<\/strong><br>Nivel: media<br>Focos: 5<br>Últimas 6 h: 0<br>FRP total: 27 MW<br>Última detección UTC: 2026-09-12 12:57:00"
      }
    },
    {
      "type": "Feature",
      "geometry": {
        "type": "Point",
        "coordinates": [1.2315, 36.1306]
      },
      "properties": {
        "cluster_id": "ALERT-20260913-013",
        "alerta_operativa": "media",
        "score": 21.6,
        "n_focos": 8,
        "n_ultimas_6h": 0,
        "n_ultimas_24h": 4,
        "frp_total_mw": 15.3,
        "frp_max_mw": 2.5,
        "edad_min_h": 11.2,
        "ultima_deteccion_utc": "2026-09-13 01:37:00",
        "sensores": "VIIRS_NOAA20_NRT, VIIRS_SNPP_NRT",
        "satellites": "N, N20",
        "instruments": "VIIRS",
        "popup_label": "<strong>ALERT-20260913-013<\/strong><br>Nivel: media<br>Focos: 8<br>Últimas 6 h: 0<br>FRP total: 15.3 MW<br>Última detección UTC: 2026-09-13 01:37:00"
      }
    },
    {
      "type": "Feature",
      "geometry": {
        "type": "Point",
        "coordinates": [3.9874, 32.2764]
      },
      "properties": {
        "cluster_id": "ALERT-20260913-014",
        "alerta_operativa": "media",
        "score": 21.3,
        "n_focos": 7,
        "n_ultimas_6h": 0,
        "n_ultimas_24h": 3,
        "frp_total_mw": 60.9,
        "frp_max_mw": 16.6,
        "edad_min_h": 23.6,
        "ultima_deteccion_utc": "2026-09-12 13:14:00",
        "sensores": "VIIRS_NOAA20_NRT, VIIRS_SNPP_NRT",
        "satellites": "N, N20",
        "instruments": "VIIRS",
        "popup_label": "<strong>ALERT-20260913-014<\/strong><br>Nivel: media<br>Focos: 7<br>Últimas 6 h: 0<br>FRP total: 60.9 MW<br>Última detección UTC: 2026-09-12 13:14:00"
      }
    },
    {
      "type": "Feature",
      "geometry": {
        "type": "Point",
        "coordinates": [4.0069, 32.4018]
      },
      "properties": {
        "cluster_id": "ALERT-20260913-015",
        "alerta_operativa": "media",
        "score": 20.5,
        "n_focos": 6,
        "n_ultimas_6h": 0,
        "n_ultimas_24h": 4,
        "frp_total_mw": 24.9,
        "frp_max_mw": 9.4,
        "edad_min_h": 11.3,
        "ultima_deteccion_utc": "2026-09-13 01:34:00",
        "sensores": "VIIRS_NOAA20_NRT, VIIRS_SNPP_NRT",
        "satellites": "N, N20",
        "instruments": "VIIRS",
        "popup_label": "<strong>ALERT-20260913-015<\/strong><br>Nivel: media<br>Focos: 6<br>Últimas 6 h: 0<br>FRP total: 24.9 MW<br>Última detección UTC: 2026-09-13 01:34:00"
      }
    },
    {
      "type": "Feature",
      "geometry": {
        "type": "Point",
        "coordinates": [0.1799, 41.9259]
      },
      "properties": {
        "cluster_id": "ALERT-20260913-016",
        "alerta_operativa": "media",
        "score": 20.5,
        "n_focos": 7,
        "n_ultimas_6h": 0,
        "n_ultimas_24h": 4,
        "frp_total_mw": 14.6,
        "frp_max_mw": 7.2,
        "edad_min_h": 9.6,
        "ultima_deteccion_utc": "2026-09-13 03:15:00",
        "sensores": "VIIRS_NOAA20_NRT, VIIRS_SNPP_NRT",
        "satellites": "N, N20",
        "instruments": "VIIRS",
        "popup_label": "<strong>ALERT-20260913-016<\/strong><br>Nivel: media<br>Focos: 7<br>Últimas 6 h: 0<br>FRP total: 14.6 MW<br>Última detección UTC: 2026-09-13 03:15:00"
      }
    },
    {
      "type": "Feature",
      "geometry": {
        "type": "Point",
        "coordinates": [-7.02, 31.7702]
      },
      "properties": {
        "cluster_id": "ALERT-20260913-017",
        "alerta_operativa": "media",
        "score": 19.8,
        "n_focos": 4,
        "n_ultimas_6h": 0,
        "n_ultimas_24h": 4,
        "frp_total_mw": 47.9,
        "frp_max_mw": 15.6,
        "edad_min_h": 23.6,
        "ultima_deteccion_utc": "2026-09-12 13:14:00",
        "sensores": "VIIRS_NOAA20_NRT, VIIRS_SNPP_NRT",
        "satellites": "N, N20",
        "instruments": "VIIRS",
        "popup_label": "<strong>ALERT-20260913-017<\/strong><br>Nivel: media<br>Focos: 4<br>Últimas 6 h: 0<br>FRP total: 47.9 MW<br>Última detección UTC: 2026-09-12 13:14:00"
      }
    },
    {
      "type": "Feature",
      "geometry": {
        "type": "Point",
        "coordinates": [-3.005, 43.306]
      },
      "properties": {
        "cluster_id": "ALERT-20260913-018",
        "alerta_operativa": "media",
        "score": 18.1,
        "n_focos": 5,
        "n_ultimas_6h": 0,
        "n_ultimas_24h": 5,
        "frp_total_mw": 3.6,
        "frp_max_mw": 1.3,
        "edad_min_h": 9.6,
        "ultima_deteccion_utc": "2026-09-13 03:15:00",
        "sensores": "VIIRS_NOAA20_NRT, VIIRS_SNPP_NRT",
        "satellites": "N, N20",
        "instruments": "VIIRS",
        "popup_label": "<strong>ALERT-20260913-018<\/strong><br>Nivel: media<br>Focos: 5<br>Últimas 6 h: 0<br>FRP total: 3.6 MW<br>Última detección UTC: 2026-09-13 03:15:00"
      }
    },
    {
      "type": "Feature",
      "geometry": {
        "type": "Point",
        "coordinates": [-3.8424, 43.4247]
      },
      "properties": {
        "cluster_id": "ALERT-20260913-019",
        "alerta_operativa": "media",
        "score": 17.4,
        "n_focos": 9,
        "n_ultimas_6h": 0,
        "n_ultimas_24h": 2,
        "frp_total_mw": 8.1,
        "frp_max_mw": 1.7,
        "edad_min_h": 11.3,
        "ultima_deteccion_utc": "2026-09-13 01:34:00",
        "sensores": "VIIRS_NOAA20_NRT, VIIRS_SNPP_NRT",
        "satellites": "N, N20",
        "instruments": "VIIRS",
        "popup_label": "<strong>ALERT-20260913-019<\/strong><br>Nivel: media<br>Focos: 9<br>Últimas 6 h: 0<br>FRP total: 8.1 MW<br>Última detección UTC: 2026-09-13 01:34:00"
      }
    },
    {
      "type": "Feature",
      "geometry": {
        "type": "Point",
        "coordinates": [-2.6729, 42.8651]
      },
      "properties": {
        "cluster_id": "ALERT-20260913-020",
        "alerta_operativa": "media",
        "score": 16.8,
        "n_focos": 4,
        "n_ultimas_6h": 0,
        "n_ultimas_24h": 4,
        "frp_total_mw": 10.2,
        "frp_max_mw": 3.3,
        "edad_min_h": 23.9,
        "ultima_deteccion_utc": "2026-09-12 12:57:00",
        "sensores": "VIIRS_SNPP_NRT",
        "satellites": "N",
        "instruments": "VIIRS",
        "popup_label": "<strong>ALERT-20260913-020<\/strong><br>Nivel: media<br>Focos: 4<br>Últimas 6 h: 0<br>FRP total: 10.2 MW<br>Última detección UTC: 2026-09-12 12:57:00"
      }
    },
    {
      "type": "Feature",
      "geometry": {
        "type": "Point",
        "coordinates": [-9.419, 30.2842]
      },
      "properties": {
        "cluster_id": "ALERT-20260913-021",
        "alerta_operativa": "media",
        "score": 16.4,
        "n_focos": 3,
        "n_ultimas_6h": 0,
        "n_ultimas_24h": 3,
        "frp_total_mw": 38.7,
        "frp_max_mw": 18.9,
        "edad_min_h": 22.3,
        "ultima_deteccion_utc": "2026-09-12 14:33:00",
        "sensores": "VIIRS_NOAA20_NRT, VIIRS_SNPP_NRT",
        "satellites": "N, N20",
        "instruments": "VIIRS",
        "popup_label": "<strong>ALERT-20260913-021<\/strong><br>Nivel: media<br>Focos: 3<br>Últimas 6 h: 0<br>FRP total: 38.7 MW<br>Última detección UTC: 2026-09-12 14:33:00"
      }
    },
    {
      "type": "Feature",
      "geometry": {
        "type": "Point",
        "coordinates": [-9.0568, 38.6091]
      },
      "properties": {
        "cluster_id": "ALERT-20260913-022",
        "alerta_operativa": "media",
        "score": 16.3,
        "n_focos": 5,
        "n_ultimas_6h": 0,
        "n_ultimas_24h": 3,
        "frp_total_mw": 13.5,
        "frp_max_mw": 7.9,
        "edad_min_h": 23.9,
        "ultima_deteccion_utc": "2026-09-12 12:55:00",
        "sensores": "VIIRS_SNPP_NRT",
        "satellites": "N",
        "instruments": "VIIRS",
        "popup_label": "<strong>ALERT-20260913-022<\/strong><br>Nivel: media<br>Focos: 5<br>Últimas 6 h: 0<br>FRP total: 13.5 MW<br>Última detección UTC: 2026-09-12 12:55:00"
      }
    },
    {
      "type": "Feature",
      "geometry": {
        "type": "Point",
        "coordinates": [-7.6647, 37.8642]
      },
      "properties": {
        "cluster_id": "ALERT-20260913-023",
        "alerta_operativa": "media",
        "score": 16.1,
        "n_focos": 4,
        "n_ultimas_6h": 0,
        "n_ultimas_24h": 4,
        "frp_total_mw": 6.6,
        "frp_max_mw": 2.8,
        "edad_min_h": 9.9,
        "ultima_deteccion_utc": "2026-09-13 02:56:00",
        "sensores": "VIIRS_NOAA20_NRT, VIIRS_SNPP_NRT",
        "satellites": "N, N20",
        "instruments": "VIIRS",
        "popup_label": "<strong>ALERT-20260913-023<\/strong><br>Nivel: media<br>Focos: 4<br>Últimas 6 h: 0<br>FRP total: 6.6 MW<br>Última detección UTC: 2026-09-13 02:56:00"
      }
    },
    {
      "type": "Feature",
      "geometry": {
        "type": "Point",
        "coordinates": [1.9861, 41.4387]
      },
      "properties": {
        "cluster_id": "ALERT-20260913-024",
        "alerta_operativa": "media",
        "score": 15.9,
        "n_focos": 6,
        "n_ultimas_6h": 0,
        "n_ultimas_24h": 3,
        "frp_total_mw": 6.2,
        "frp_max_mw": 2.1,
        "edad_min_h": 9.9,
        "ultima_deteccion_utc": "2026-09-13 02:56:00",
        "sensores": "VIIRS_NOAA20_NRT, VIIRS_SNPP_NRT",
        "satellites": "N, N20",
        "instruments": "VIIRS",
        "popup_label": "<strong>ALERT-20260913-024<\/strong><br>Nivel: media<br>Focos: 6<br>Últimas 6 h: 0<br>FRP total: 6.2 MW<br>Última detección UTC: 2026-09-13 02:56:00"
      }
    },
    {
      "type": "Feature",
      "geometry": {
        "type": "Point",
        "coordinates": [2.8782, 36.5962]
      },
      "properties": {
        "cluster_id": "ALERT-20260913-025",
        "alerta_operativa": "media",
        "score": 15.1,
        "n_focos": 5,
        "n_ultimas_6h": 0,
        "n_ultimas_24h": 3,
        "frp_total_mw": 6.7,
        "frp_max_mw": 1.9,
        "edad_min_h": 11.2,
        "ultima_deteccion_utc": "2026-09-13 01:37:00",
        "sensores": "VIIRS_NOAA20_NRT, VIIRS_SNPP_NRT",
        "satellites": "N, N20",
        "instruments": "VIIRS",
        "popup_label": "<strong>ALERT-20260913-025<\/strong><br>Nivel: media<br>Focos: 5<br>Últimas 6 h: 0<br>FRP total: 6.7 MW<br>Última detección UTC: 2026-09-13 01:37:00"
      }
    },
    {
      "type": "Feature",
      "geometry": {
        "type": "Point",
        "coordinates": [-7.5081, 33.5878]
      },
      "properties": {
        "cluster_id": "ALERT-20260913-026",
        "alerta_operativa": "media",
        "score": 14.7,
        "n_focos": 4,
        "n_ultimas_6h": 0,
        "n_ultimas_24h": 4,
        "frp_total_mw": 2.9,
        "frp_max_mw": 1,
        "edad_min_h": 9.9,
        "ultima_deteccion_utc": "2026-09-13 02:58:00",
        "sensores": "VIIRS_NOAA20_NRT, VIIRS_SNPP_NRT",
        "satellites": "N, N20",
        "instruments": "VIIRS",
        "popup_label": "<strong>ALERT-20260913-026<\/strong><br>Nivel: media<br>Focos: 4<br>Últimas 6 h: 0<br>FRP total: 2.9 MW<br>Última detección UTC: 2026-09-13 02:58:00"
      }
    },
    {
      "type": "Feature",
      "geometry": {
        "type": "Point",
        "coordinates": [4.477, 35.7086]
      },
      "properties": {
        "cluster_id": "ALERT-20260913-027",
        "alerta_operativa": "media",
        "score": 13.4,
        "n_focos": 3,
        "n_ultimas_6h": 0,
        "n_ultimas_24h": 3,
        "frp_total_mw": 8,
        "frp_max_mw": 6,
        "edad_min_h": 11.2,
        "ultima_deteccion_utc": "2026-09-13 01:37:00",
        "sensores": "VIIRS_NOAA20_NRT, VIIRS_SNPP_NRT",
        "satellites": "N, N20",
        "instruments": "VIIRS",
        "popup_label": "<strong>ALERT-20260913-027<\/strong><br>Nivel: media<br>Focos: 3<br>Últimas 6 h: 0<br>FRP total: 8 MW<br>Última detección UTC: 2026-09-13 01:37:00"
      }
    },
    {
      "type": "Feature",
      "geometry": {
        "type": "Point",
        "coordinates": [3.7471, 36.1783]
      },
      "properties": {
        "cluster_id": "ALERT-20260913-028",
        "alerta_operativa": "media",
        "score": 13,
        "n_focos": 4,
        "n_ultimas_6h": 0,
        "n_ultimas_24h": 2,
        "frp_total_mw": 10.9,
        "frp_max_mw": 3,
        "edad_min_h": 11.2,
        "ultima_deteccion_utc": "2026-09-13 01:37:00",
        "sensores": "VIIRS_NOAA20_NRT, VIIRS_SNPP_NRT",
        "satellites": "N, N20",
        "instruments": "VIIRS",
        "popup_label": "<strong>ALERT-20260913-028<\/strong><br>Nivel: media<br>Focos: 4<br>Últimas 6 h: 0<br>FRP total: 10.9 MW<br>Última detección UTC: 2026-09-13 01:37:00"
      }
    },
    {
      "type": "Feature",
      "geometry": {
        "type": "Point",
        "coordinates": [1.2296, 41.1785]
      },
      "properties": {
        "cluster_id": "ALERT-20260913-029",
        "alerta_operativa": "media",
        "score": 12.6,
        "n_focos": 3,
        "n_ultimas_6h": 0,
        "n_ultimas_24h": 3,
        "frp_total_mw": 5.2,
        "frp_max_mw": 3.2,
        "edad_min_h": 9.9,
        "ultima_deteccion_utc": "2026-09-13 02:56:00",
        "sensores": "VIIRS_NOAA20_NRT, VIIRS_SNPP_NRT",
        "satellites": "N, N20",
        "instruments": "VIIRS",
        "popup_label": "<strong>ALERT-20260913-029<\/strong><br>Nivel: media<br>Focos: 3<br>Últimas 6 h: 0<br>FRP total: 5.2 MW<br>Última detección UTC: 2026-09-13 02:56:00"
      }
    },
    {
      "type": "Feature",
      "geometry": {
        "type": "Point",
        "coordinates": [-6.6974, 37.3153]
      },
      "properties": {
        "cluster_id": "ALERT-20260913-030",
        "alerta_operativa": "media",
        "score": 12.2,
        "n_focos": 3,
        "n_ultimas_6h": 0,
        "n_ultimas_24h": 2,
        "frp_total_mw": 12.5,
        "frp_max_mw": 6,
        "edad_min_h": 11.2,
        "ultima_deteccion_utc": "2026-09-13 01:37:00",
        "sensores": "VIIRS_NOAA20_NRT",
        "satellites": "N20",
        "instruments": "VIIRS",
        "popup_label": "<strong>ALERT-20260913-030<\/strong><br>Nivel: media<br>Focos: 3<br>Últimas 6 h: 0<br>FRP total: 12.5 MW<br>Última detección UTC: 2026-09-13 01:37:00"
      }
    },
    {
      "type": "Feature",
      "geometry": {
        "type": "Point",
        "coordinates": [-0.7413, 41.6476]
      },
      "properties": {
        "cluster_id": "ALERT-20260913-031",
        "alerta_operativa": "media",
        "score": 12.2,
        "n_focos": 5,
        "n_ultimas_6h": 0,
        "n_ultimas_24h": 2,
        "frp_total_mw": 3.9,
        "frp_max_mw": 1.4,
        "edad_min_h": 11.3,
        "ultima_deteccion_utc": "2026-09-13 01:34:00",
        "sensores": "VIIRS_NOAA20_NRT, VIIRS_SNPP_NRT",
        "satellites": "N, N20",
        "instruments": "VIIRS",
        "popup_label": "<strong>ALERT-20260913-031<\/strong><br>Nivel: media<br>Focos: 5<br>Últimas 6 h: 0<br>FRP total: 3.9 MW<br>Última detección UTC: 2026-09-13 01:34:00"
      }
    },
    {
      "type": "Feature",
      "geometry": {
        "type": "Point",
        "coordinates": [-1.9045, 36.9663]
      },
      "properties": {
        "cluster_id": "ALERT-20260913-032",
        "alerta_operativa": "media",
        "score": 12,
        "n_focos": 4,
        "n_ultimas_6h": 0,
        "n_ultimas_24h": 2,
        "frp_total_mw": 6.5,
        "frp_max_mw": 2.2,
        "edad_min_h": 11.2,
        "ultima_deteccion_utc": "2026-09-13 01:37:00",
        "sensores": "VIIRS_NOAA20_NRT, VIIRS_SNPP_NRT",
        "satellites": "N, N20",
        "instruments": "VIIRS",
        "popup_label": "<strong>ALERT-20260913-032<\/strong><br>Nivel: media<br>Focos: 4<br>Últimas 6 h: 0<br>FRP total: 6.5 MW<br>Última detección UTC: 2026-09-13 01:37:00"
      }
    },
    {
      "type": "Feature",
      "geometry": {
        "type": "Point",
        "coordinates": [-6.2759, 34.91]
      },
      "properties": {
        "cluster_id": "ALERT-20260913-033",
        "alerta_operativa": "media",
        "score": 11.7,
        "n_focos": 2,
        "n_ultimas_6h": 0,
        "n_ultimas_24h": 2,
        "frp_total_mw": 16.4,
        "frp_max_mw": 10.1,
        "edad_min_h": 23.9,
        "ultima_deteccion_utc": "2026-09-12 12:55:00",
        "sensores": "VIIRS_SNPP_NRT",
        "satellites": "N",
        "instruments": "VIIRS",
        "popup_label": "<strong>ALERT-20260913-033<\/strong><br>Nivel: media<br>Focos: 2<br>Últimas 6 h: 0<br>FRP total: 16.4 MW<br>Última detección UTC: 2026-09-12 12:55:00"
      }
    },
    {
      "type": "Feature",
      "geometry": {
        "type": "Point",
        "coordinates": [-8.0714, 31.7052]
      },
      "properties": {
        "cluster_id": "ALERT-20260913-034",
        "alerta_operativa": "media",
        "score": 11.7,
        "n_focos": 3,
        "n_ultimas_6h": 0,
        "n_ultimas_24h": 3,
        "frp_total_mw": 2.8,
        "frp_max_mw": 1,
        "edad_min_h": 9.9,
        "ultima_deteccion_utc": "2026-09-13 02:58:00",
        "sensores": "VIIRS_NOAA20_NRT, VIIRS_SNPP_NRT",
        "satellites": "N, N20",
        "instruments": "VIIRS",
        "popup_label": "<strong>ALERT-20260913-034<\/strong><br>Nivel: media<br>Focos: 3<br>Últimas 6 h: 0<br>FRP total: 2.8 MW<br>Última detección UTC: 2026-09-13 02:58:00"
      }
    },
    {
      "type": "Feature",
      "geometry": {
        "type": "Point",
        "coordinates": [-0.5748, 38.3543]
      },
      "properties": {
        "cluster_id": "ALERT-20260913-035",
        "alerta_operativa": "media",
        "score": 11.7,
        "n_focos": 3,
        "n_ultimas_6h": 0,
        "n_ultimas_24h": 3,
        "frp_total_mw": 2.8,
        "frp_max_mw": 1.5,
        "edad_min_h": 9.9,
        "ultima_deteccion_utc": "2026-09-13 02:56:00",
        "sensores": "VIIRS_NOAA20_NRT, VIIRS_SNPP_NRT",
        "satellites": "N, N20",
        "instruments": "VIIRS",
        "popup_label": "<strong>ALERT-20260913-035<\/strong><br>Nivel: media<br>Focos: 3<br>Últimas 6 h: 0<br>FRP total: 2.8 MW<br>Última detección UTC: 2026-09-13 02:56:00"
      }
    },
    {
      "type": "Feature",
      "geometry": {
        "type": "Point",
        "coordinates": [-8.2443, 41.322]
      },
      "properties": {
        "cluster_id": "ALERT-20260913-036",
        "alerta_operativa": "media",
        "score": 11.4,
        "n_focos": 2,
        "n_ultimas_6h": 0,
        "n_ultimas_24h": 2,
        "frp_total_mw": 13.9,
        "frp_max_mw": 11.7,
        "edad_min_h": 23.6,
        "ultima_deteccion_utc": "2026-09-12 13:16:00",
        "sensores": "VIIRS_NOAA20_NRT",
        "satellites": "N20",
        "instruments": "VIIRS",
        "popup_label": "<strong>ALERT-20260913-036<\/strong><br>Nivel: media<br>Focos: 2<br>Últimas 6 h: 0<br>FRP total: 13.9 MW<br>Última detección UTC: 2026-09-12 13:16:00"
      }
    },
    {
      "type": "Feature",
      "geometry": {
        "type": "Point",
        "coordinates": [-1.2283, 43.9108]
      },
      "properties": {
        "cluster_id": "ALERT-20260913-037",
        "alerta_operativa": "media",
        "score": 11.2,
        "n_focos": 2,
        "n_ultimas_6h": 0,
        "n_ultimas_24h": 2,
        "frp_total_mw": 12.6,
        "frp_max_mw": 6.7,
        "edad_min_h": 23.9,
        "ultima_deteccion_utc": "2026-09-12 12:57:00",
        "sensores": "VIIRS_SNPP_NRT",
        "satellites": "N",
        "instruments": "VIIRS",
        "popup_label": "<strong>ALERT-20260913-037<\/strong><br>Nivel: media<br>Focos: 2<br>Últimas 6 h: 0<br>FRP total: 12.6 MW<br>Última detección UTC: 2026-09-12 12:57:00"
      }
    },
    {
      "type": "Feature",
      "geometry": {
        "type": "Point",
        "coordinates": [2.0584, 34.4371]
      },
      "properties": {
        "cluster_id": "ALERT-20260913-038",
        "alerta_operativa": "media",
        "score": 11.2,
        "n_focos": 4,
        "n_ultimas_6h": 0,
        "n_ultimas_24h": 2,
        "frp_total_mw": 4,
        "frp_max_mw": 1.2,
        "edad_min_h": 11.3,
        "ultima_deteccion_utc": "2026-09-13 01:34:00",
        "sensores": "VIIRS_NOAA20_NRT, VIIRS_SNPP_NRT",
        "satellites": "N, N20",
        "instruments": "VIIRS",
        "popup_label": "<strong>ALERT-20260913-038<\/strong><br>Nivel: media<br>Focos: 4<br>Últimas 6 h: 0<br>FRP total: 4 MW<br>Última detección UTC: 2026-09-13 01:34:00"
      }
    },
    {
      "type": "Feature",
      "geometry": {
        "type": "Point",
        "coordinates": [-0.6068, 43.9999]
      },
      "properties": {
        "cluster_id": "ALERT-20260913-039",
        "alerta_operativa": "media",
        "score": 11.1,
        "n_focos": 2,
        "n_ultimas_6h": 0,
        "n_ultimas_24h": 2,
        "frp_total_mw": 11.7,
        "frp_max_mw": 7.2,
        "edad_min_h": 23.9,
        "ultima_deteccion_utc": "2026-09-12 12:57:00",
        "sensores": "VIIRS_SNPP_NRT",
        "satellites": "N",
        "instruments": "VIIRS",
        "popup_label": "<strong>ALERT-20260913-039<\/strong><br>Nivel: media<br>Focos: 2<br>Últimas 6 h: 0<br>FRP total: 11.7 MW<br>Última detección UTC: 2026-09-12 12:57:00"
      }
    },
    {
      "type": "Feature",
      "geometry": {
        "type": "Point",
        "coordinates": [-5.7958, 37.5565]
      },
      "properties": {
        "cluster_id": "ALERT-20260913-040",
        "alerta_operativa": "media",
        "score": 10.7,
        "n_focos": 4,
        "n_ultimas_6h": 0,
        "n_ultimas_24h": 2,
        "frp_total_mw": 2.8,
        "frp_max_mw": 0.9,
        "edad_min_h": 9.9,
        "ultima_deteccion_utc": "2026-09-13 02:56:00",
        "sensores": "VIIRS_NOAA20_NRT, VIIRS_SNPP_NRT",
        "satellites": "N, N20",
        "instruments": "VIIRS",
        "popup_label": "<strong>ALERT-20260913-040<\/strong><br>Nivel: media<br>Focos: 4<br>Últimas 6 h: 0<br>FRP total: 2.8 MW<br>Última detección UTC: 2026-09-13 02:56:00"
      }
    },
    {
      "type": "Feature",
      "geometry": {
        "type": "Point",
        "coordinates": [-8.5475, 38.2948]
      },
      "properties": {
        "cluster_id": "ALERT-20260913-041",
        "alerta_operativa": "media",
        "score": 10.6,
        "n_focos": 2,
        "n_ultimas_6h": 0,
        "n_ultimas_24h": 2,
        "frp_total_mw": 9.2,
        "frp_max_mw": 6.8,
        "edad_min_h": 22.2,
        "ultima_deteccion_utc": "2026-09-12 14:37:00",
        "sensores": "VIIRS_SNPP_NRT",
        "satellites": "N",
        "instruments": "VIIRS",
        "popup_label": "<strong>ALERT-20260913-041<\/strong><br>Nivel: media<br>Focos: 2<br>Últimas 6 h: 0<br>FRP total: 9.2 MW<br>Última detección UTC: 2026-09-12 14:37:00"
      }
    },
    {
      "type": "Feature",
      "geometry": {
        "type": "Point",
        "coordinates": [-1.486, 41.4747]
      },
      "properties": {
        "cluster_id": "ALERT-20260913-042",
        "alerta_operativa": "media",
        "score": 10.5,
        "n_focos": 4,
        "n_ultimas_6h": 0,
        "n_ultimas_24h": 2,
        "frp_total_mw": 2.5,
        "frp_max_mw": 1.1,
        "edad_min_h": 11.3,
        "ultima_deteccion_utc": "2026-09-13 01:34:00",
        "sensores": "VIIRS_NOAA20_NRT, VIIRS_SNPP_NRT",
        "satellites": "N, N20",
        "instruments": "VIIRS",
        "popup_label": "<strong>ALERT-20260913-042<\/strong><br>Nivel: media<br>Focos: 4<br>Últimas 6 h: 0<br>FRP total: 2.5 MW<br>Última detección UTC: 2026-09-13 01:34:00"
      }
    },
    {
      "type": "Feature",
      "geometry": {
        "type": "Point",
        "coordinates": [-3.7914, 43.2062]
      },
      "properties": {
        "cluster_id": "ALERT-20260913-043",
        "alerta_operativa": "media",
        "score": 10.4,
        "n_focos": 2,
        "n_ultimas_6h": 0,
        "n_ultimas_24h": 2,
        "frp_total_mw": 8.1,
        "frp_max_mw": 4.2,
        "edad_min_h": 23.9,
        "ultima_deteccion_utc": "2026-09-12 12:57:00",
        "sensores": "VIIRS_SNPP_NRT",
        "satellites": "N",
        "instruments": "VIIRS",
        "popup_label": "<strong>ALERT-20260913-043<\/strong><br>Nivel: media<br>Focos: 2<br>Últimas 6 h: 0<br>FRP total: 8.1 MW<br>Última detección UTC: 2026-09-12 12:57:00"
      }
    },
    {
      "type": "Feature",
      "geometry": {
        "type": "Point",
        "coordinates": [-8.8903, 30.5076]
      },
      "properties": {
        "cluster_id": "ALERT-20260913-044",
        "alerta_operativa": "media",
        "score": 10.2,
        "n_focos": 2,
        "n_ultimas_6h": 0,
        "n_ultimas_24h": 2,
        "frp_total_mw": 7.2,
        "frp_max_mw": 5.4,
        "edad_min_h": 23.6,
        "ultima_deteccion_utc": "2026-09-12 13:14:00",
        "sensores": "VIIRS_NOAA20_NRT, VIIRS_SNPP_NRT",
        "satellites": "N, N20",
        "instruments": "VIIRS",
        "popup_label": "<strong>ALERT-20260913-044<\/strong><br>Nivel: media<br>Focos: 2<br>Últimas 6 h: 0<br>FRP total: 7.2 MW<br>Última detección UTC: 2026-09-12 13:14:00"
      }
    },
    {
      "type": "Feature",
      "geometry": {
        "type": "Point",
        "coordinates": [-5.0893, 37.261]
      },
      "properties": {
        "cluster_id": "ALERT-20260913-045",
        "alerta_operativa": "media",
        "score": 9.9,
        "n_focos": 2,
        "n_ultimas_6h": 0,
        "n_ultimas_24h": 2,
        "frp_total_mw": 5.9,
        "frp_max_mw": 3,
        "edad_min_h": 22.3,
        "ultima_deteccion_utc": "2026-09-12 14:35:00",
        "sensores": "VIIRS_SNPP_NRT",
        "satellites": "N",
        "instruments": "VIIRS",
        "popup_label": "<strong>ALERT-20260913-045<\/strong><br>Nivel: media<br>Focos: 2<br>Últimas 6 h: 0<br>FRP total: 5.9 MW<br>Última detección UTC: 2026-09-12 14:35:00"
      }
    },
    {
      "type": "Feature",
      "geometry": {
        "type": "Point",
        "coordinates": [-8.2327, 41.1951]
      },
      "properties": {
        "cluster_id": "ALERT-20260913-046",
        "alerta_operativa": "media",
        "score": 9.8,
        "n_focos": 2,
        "n_ultimas_6h": 0,
        "n_ultimas_24h": 2,
        "frp_total_mw": 5.8,
        "frp_max_mw": 2.9,
        "edad_min_h": 23.6,
        "ultima_deteccion_utc": "2026-09-12 13:16:00",
        "sensores": "VIIRS_NOAA20_NRT",
        "satellites": "N20",
        "instruments": "VIIRS",
        "popup_label": "<strong>ALERT-20260913-046<\/strong><br>Nivel: media<br>Focos: 2<br>Últimas 6 h: 0<br>FRP total: 5.8 MW<br>Última detección UTC: 2026-09-12 13:16:00"
      }
    },
    {
      "type": "Feature",
      "geometry": {
        "type": "Point",
        "coordinates": [-2.3468, 34.5959]
      },
      "properties": {
        "cluster_id": "ALERT-20260913-047",
        "alerta_operativa": "media",
        "score": 9.8,
        "n_focos": 3,
        "n_ultimas_6h": 0,
        "n_ultimas_24h": 2,
        "frp_total_mw": 3.1,
        "frp_max_mw": 1.4,
        "edad_min_h": 9.9,
        "ultima_deteccion_utc": "2026-09-13 02:58:00",
        "sensores": "VIIRS_NOAA20_NRT, VIIRS_SNPP_NRT",
        "satellites": "N, N20",
        "instruments": "VIIRS",
        "popup_label": "<strong>ALERT-20260913-047<\/strong><br>Nivel: media<br>Focos: 3<br>Últimas 6 h: 0<br>FRP total: 3.1 MW<br>Última detección UTC: 2026-09-13 02:58:00"
      }
    },
    {
      "type": "Feature",
      "geometry": {
        "type": "Point",
        "coordinates": [-4.9374, 37.6955]
      },
      "properties": {
        "cluster_id": "ALERT-20260913-048",
        "alerta_operativa": "media",
        "score": 9.6,
        "n_focos": 2,
        "n_ultimas_6h": 0,
        "n_ultimas_24h": 2,
        "frp_total_mw": 5.2,
        "frp_max_mw": 2.6,
        "edad_min_h": 11.2,
        "ultima_deteccion_utc": "2026-09-13 01:37:00",
        "sensores": "VIIRS_NOAA20_NRT",
        "satellites": "N20",
        "instruments": "VIIRS",
        "popup_label": "<strong>ALERT-20260913-048<\/strong><br>Nivel: media<br>Focos: 2<br>Últimas 6 h: 0<br>FRP total: 5.2 MW<br>Última detección UTC: 2026-09-13 01:37:00"
      }
    },
    {
      "type": "Feature",
      "geometry": {
        "type": "Point",
        "coordinates": [-5.9379, 34.9962]
      },
      "properties": {
        "cluster_id": "ALERT-20260913-049",
        "alerta_operativa": "media",
        "score": 9.5,
        "n_focos": 2,
        "n_ultimas_6h": 0,
        "n_ultimas_24h": 2,
        "frp_total_mw": 4.8,
        "frp_max_mw": 2.6,
        "edad_min_h": 9.6,
        "ultima_deteccion_utc": "2026-09-13 03:17:00",
        "sensores": "VIIRS_NOAA20_NRT, VIIRS_SNPP_NRT",
        "satellites": "N, N20",
        "instruments": "VIIRS",
        "popup_label": "<strong>ALERT-20260913-049<\/strong><br>Nivel: media<br>Focos: 2<br>Últimas 6 h: 0<br>FRP total: 4.8 MW<br>Última detección UTC: 2026-09-13 03:17:00"
      }
    },
    {
      "type": "Feature",
      "geometry": {
        "type": "Point",
        "coordinates": [-6.7698, 42.5525]
      },
      "properties": {
        "cluster_id": "ALERT-20260913-050",
        "alerta_operativa": "media",
        "score": 9.4,
        "n_focos": 3,
        "n_ultimas_6h": 0,
        "n_ultimas_24h": 2,
        "frp_total_mw": 2.4,
        "frp_max_mw": 0.9,
        "edad_min_h": 11.3,
        "ultima_deteccion_utc": "2026-09-13 01:34:00",
        "sensores": "VIIRS_NOAA20_NRT, VIIRS_SNPP_NRT",
        "satellites": "N, N20",
        "instruments": "VIIRS",
        "popup_label": "<strong>ALERT-20260913-050<\/strong><br>Nivel: media<br>Focos: 3<br>Últimas 6 h: 0<br>FRP total: 2.4 MW<br>Última detección UTC: 2026-09-13 01:34:00"
      }
    },
    {
      "type": "Feature",
      "geometry": {
        "type": "Point",
        "coordinates": [4.4476, 35.8791]
      },
      "properties": {
        "cluster_id": "ALERT-20260913-051",
        "alerta_operativa": "media",
        "score": 8.4,
        "n_focos": 2,
        "n_ultimas_6h": 0,
        "n_ultimas_24h": 2,
        "frp_total_mw": 2.3,
        "frp_max_mw": 1.2,
        "edad_min_h": 11.2,
        "ultima_deteccion_utc": "2026-09-13 01:37:00",
        "sensores": "VIIRS_NOAA20_NRT, VIIRS_SNPP_NRT",
        "satellites": "N, N20",
        "instruments": "VIIRS",
        "popup_label": "<strong>ALERT-20260913-051<\/strong><br>Nivel: media<br>Focos: 2<br>Últimas 6 h: 0<br>FRP total: 2.3 MW<br>Última detección UTC: 2026-09-13 01:37:00"
      }
    },
    {
      "type": "Feature",
      "geometry": {
        "type": "Point",
        "coordinates": [-1.3446, 35.3115]
      },
      "properties": {
        "cluster_id": "ALERT-20260913-052",
        "alerta_operativa": "media",
        "score": 7.6,
        "n_focos": 2,
        "n_ultimas_6h": 0,
        "n_ultimas_24h": 2,
        "frp_total_mw": 1.2,
        "frp_max_mw": 0.6,
        "edad_min_h": 9.9,
        "ultima_deteccion_utc": "2026-09-13 02:56:00",
        "sensores": "VIIRS_NOAA20_NRT, VIIRS_SNPP_NRT",
        "satellites": "N, N20",
        "instruments": "VIIRS",
        "popup_label": "<strong>ALERT-20260913-052<\/strong><br>Nivel: media<br>Focos: 2<br>Últimas 6 h: 0<br>FRP total: 1.2 MW<br>Última detección UTC: 2026-09-13 02:56:00"
      }
    },
    {
      "type": "Feature",
      "geometry": {
        "type": "Point",
        "coordinates": [3.1814, 32.7473]
      },
      "properties": {
        "cluster_id": "ALERT-20260913-053",
        "alerta_operativa": "seguimiento",
        "score": 11.5,
        "n_focos": 5,
        "n_ultimas_6h": 0,
        "n_ultimas_24h": 1,
        "frp_total_mw": 8.6,
        "frp_max_mw": 2,
        "edad_min_h": 24,
        "ultima_deteccion_utc": "2026-09-12 12:53:00",
        "sensores": "VIIRS_NOAA20_NRT, VIIRS_SNPP_NRT",
        "satellites": "N, N20",
        "instruments": "VIIRS",
        "popup_label": "<strong>ALERT-20260913-053<\/strong><br>Nivel: seguimiento<br>Focos: 5<br>Últimas 6 h: 0<br>FRP total: 8.6 MW<br>Última detección UTC: 2026-09-12 12:53:00"
      }
    },
    {
      "type": "Feature",
      "geometry": {
        "type": "Point",
        "coordinates": [3.1692, 32.556]
      },
      "properties": {
        "cluster_id": "ALERT-20260913-054",
        "alerta_operativa": "seguimiento",
        "score": 10.8,
        "n_focos": 4,
        "n_ultimas_6h": 0,
        "n_ultimas_24h": 1,
        "frp_total_mw": 10.3,
        "frp_max_mw": 6.4,
        "edad_min_h": 23.6,
        "ultima_deteccion_utc": "2026-09-12 13:14:00",
        "sensores": "VIIRS_NOAA20_NRT, VIIRS_SNPP_NRT",
        "satellites": "N, N20",
        "instruments": "VIIRS",
        "popup_label": "<strong>ALERT-20260913-054<\/strong><br>Nivel: seguimiento<br>Focos: 4<br>Últimas 6 h: 0<br>FRP total: 10.3 MW<br>Última detección UTC: 2026-09-12 13:14:00"
      }
    },
    {
      "type": "Feature",
      "geometry": {
        "type": "Point",
        "coordinates": [-0.3968, 35.4601]
      },
      "properties": {
        "cluster_id": "ALERT-20260913-055",
        "alerta_operativa": "seguimiento",
        "score": 8.2,
        "n_focos": 3,
        "n_ultimas_6h": 0,
        "n_ultimas_24h": 1,
        "frp_total_mw": 3.9,
        "frp_max_mw": 1.8,
        "edad_min_h": 11.3,
        "ultima_deteccion_utc": "2026-09-13 01:34:00",
        "sensores": "VIIRS_NOAA20_NRT, VIIRS_SNPP_NRT",
        "satellites": "N, N20",
        "instruments": "VIIRS",
        "popup_label": "<strong>ALERT-20260913-055<\/strong><br>Nivel: seguimiento<br>Focos: 3<br>Últimas 6 h: 0<br>FRP total: 3.9 MW<br>Última detección UTC: 2026-09-13 01:34:00"
      }
    },
    {
      "type": "Feature",
      "geometry": {
        "type": "Point",
        "coordinates": [-5.6106, 36.0278]
      },
      "properties": {
        "cluster_id": "ALERT-20260913-056",
        "alerta_operativa": "seguimiento",
        "score": 8.1,
        "n_focos": 1,
        "n_ultimas_6h": 0,
        "n_ultimas_24h": 1,
        "frp_total_mw": 11.7,
        "frp_max_mw": 11.7,
        "edad_min_h": 23.6,
        "ultima_deteccion_utc": "2026-09-12 13:14:00",
        "sensores": "VIIRS_NOAA20_NRT",
        "satellites": "N20",
        "instruments": "VIIRS",
        "popup_label": "<strong>ALERT-20260913-056<\/strong><br>Nivel: seguimiento<br>Focos: 1<br>Últimas 6 h: 0<br>FRP total: 11.7 MW<br>Última detección UTC: 2026-09-12 13:14:00"
      }
    },
    {
      "type": "Feature",
      "geometry": {
        "type": "Point",
        "coordinates": [-0.2764, 35.5299]
      },
      "properties": {
        "cluster_id": "ALERT-20260913-057",
        "alerta_operativa": "seguimiento",
        "score": 8.1,
        "n_focos": 3,
        "n_ultimas_6h": 0,
        "n_ultimas_24h": 1,
        "frp_total_mw": 3.6,
        "frp_max_mw": 1.4,
        "edad_min_h": 9.9,
        "ultima_deteccion_utc": "2026-09-13 02:56:00",
        "sensores": "VIIRS_NOAA20_NRT, VIIRS_SNPP_NRT",
        "satellites": "N, N20",
        "instruments": "VIIRS",
        "popup_label": "<strong>ALERT-20260913-057<\/strong><br>Nivel: seguimiento<br>Focos: 3<br>Últimas 6 h: 0<br>FRP total: 3.6 MW<br>Última detección UTC: 2026-09-13 02:56:00"
      }
    },
    {
      "type": "Feature",
      "geometry": {
        "type": "Point",
        "coordinates": [-5.2624, 37.4356]
      },
      "properties": {
        "cluster_id": "ALERT-20260913-058",
        "alerta_operativa": "seguimiento",
        "score": 8,
        "n_focos": 1,
        "n_ultimas_6h": 0,
        "n_ultimas_24h": 1,
        "frp_total_mw": 11,
        "frp_max_mw": 11,
        "edad_min_h": 23.6,
        "ultima_deteccion_utc": "2026-09-12 13:16:00",
        "sensores": "VIIRS_NOAA20_NRT",
        "satellites": "N20",
        "instruments": "VIIRS",
        "popup_label": "<strong>ALERT-20260913-058<\/strong><br>Nivel: seguimiento<br>Focos: 1<br>Últimas 6 h: 0<br>FRP total: 11 MW<br>Última detección UTC: 2026-09-12 13:16:00"
      }
    },
    {
      "type": "Feature",
      "geometry": {
        "type": "Point",
        "coordinates": [-5.866, 37.3587]
      },
      "properties": {
        "cluster_id": "ALERT-20260913-059",
        "alerta_operativa": "seguimiento",
        "score": 7.4,
        "n_focos": 3,
        "n_ultimas_6h": 0,
        "n_ultimas_24h": 1,
        "frp_total_mw": 2.3,
        "frp_max_mw": 0.8,
        "edad_min_h": 9.9,
        "ultima_deteccion_utc": "2026-09-13 02:56:00",
        "sensores": "VIIRS_SNPP_NRT",
        "satellites": "N",
        "instruments": "VIIRS",
        "popup_label": "<strong>ALERT-20260913-059<\/strong><br>Nivel: seguimiento<br>Focos: 3<br>Últimas 6 h: 0<br>FRP total: 2.3 MW<br>Última detección UTC: 2026-09-13 02:56:00"
      }
    },
    {
      "type": "Feature",
      "geometry": {
        "type": "Point",
        "coordinates": [0.9886, 43.1859]
      },
      "properties": {
        "cluster_id": "ALERT-20260913-060",
        "alerta_operativa": "seguimiento",
        "score": 7.3,
        "n_focos": 3,
        "n_ultimas_6h": 0,
        "n_ultimas_24h": 1,
        "frp_total_mw": 2.2,
        "frp_max_mw": 0.8,
        "edad_min_h": 10,
        "ultima_deteccion_utc": "2026-09-13 02:53:00",
        "sensores": "VIIRS_NOAA20_NRT, VIIRS_SNPP_NRT",
        "satellites": "N, N20",
        "instruments": "VIIRS",
        "popup_label": "<strong>ALERT-20260913-060<\/strong><br>Nivel: seguimiento<br>Focos: 3<br>Últimas 6 h: 0<br>FRP total: 2.2 MW<br>Última detección UTC: 2026-09-13 02:53:00"
      }
    },
    {
      "type": "Feature",
      "geometry": {
        "type": "Point",
        "coordinates": [-9.0118, 38.9214]
      },
      "properties": {
        "cluster_id": "ALERT-20260913-061",
        "alerta_operativa": "seguimiento",
        "score": 6.8,
        "n_focos": 2,
        "n_ultimas_6h": 0,
        "n_ultimas_24h": 1,
        "frp_total_mw": 3,
        "frp_max_mw": 1.7,
        "edad_min_h": 9.9,
        "ultima_deteccion_utc": "2026-09-13 02:56:00",
        "sensores": "VIIRS_NOAA20_NRT, VIIRS_SNPP_NRT",
        "satellites": "N, N20",
        "instruments": "VIIRS",
        "popup_label": "<strong>ALERT-20260913-061<\/strong><br>Nivel: seguimiento<br>Focos: 2<br>Últimas 6 h: 0<br>FRP total: 3 MW<br>Última detección UTC: 2026-09-13 02:56:00"
      }
    },
    {
      "type": "Feature",
      "geometry": {
        "type": "Point",
        "coordinates": [3.6266, 36.7727]
      },
      "properties": {
        "cluster_id": "ALERT-20260913-062",
        "alerta_operativa": "seguimiento",
        "score": 6.5,
        "n_focos": 1,
        "n_ultimas_6h": 0,
        "n_ultimas_24h": 1,
        "frp_total_mw": 4.8,
        "frp_max_mw": 4.8,
        "edad_min_h": 23.6,
        "ultima_deteccion_utc": "2026-09-12 13:14:00",
        "sensores": "VIIRS_NOAA20_NRT",
        "satellites": "N20",
        "instruments": "VIIRS",
        "popup_label": "<strong>ALERT-20260913-062<\/strong><br>Nivel: seguimiento<br>Focos: 1<br>Últimas 6 h: 0<br>FRP total: 4.8 MW<br>Última detección UTC: 2026-09-12 13:14:00"
      }
    },
    {
      "type": "Feature",
      "geometry": {
        "type": "Point",
        "coordinates": [-6.4313, 37.4125]
      },
      "properties": {
        "cluster_id": "ALERT-20260913-063",
        "alerta_operativa": "seguimiento",
        "score": 6.4,
        "n_focos": 1,
        "n_ultimas_6h": 0,
        "n_ultimas_24h": 1,
        "frp_total_mw": 4.4,
        "frp_max_mw": 4.4,
        "edad_min_h": 23.6,
        "ultima_deteccion_utc": "2026-09-12 13:16:00",
        "sensores": "VIIRS_NOAA20_NRT",
        "satellites": "N20",
        "instruments": "VIIRS",
        "popup_label": "<strong>ALERT-20260913-063<\/strong><br>Nivel: seguimiento<br>Focos: 1<br>Últimas 6 h: 0<br>FRP total: 4.4 MW<br>Última detección UTC: 2026-09-12 13:16:00"
      }
    },
    {
      "type": "Feature",
      "geometry": {
        "type": "Point",
        "coordinates": [0.54, 35.7823]
      },
      "properties": {
        "cluster_id": "ALERT-20260913-064",
        "alerta_operativa": "seguimiento",
        "score": 6.4,
        "n_focos": 2,
        "n_ultimas_6h": 0,
        "n_ultimas_24h": 1,
        "frp_total_mw": 2.4,
        "frp_max_mw": 1.3,
        "edad_min_h": 11.2,
        "ultima_deteccion_utc": "2026-09-13 01:37:00",
        "sensores": "VIIRS_NOAA20_NRT",
        "satellites": "N20",
        "instruments": "VIIRS",
        "popup_label": "<strong>ALERT-20260913-064<\/strong><br>Nivel: seguimiento<br>Focos: 2<br>Últimas 6 h: 0<br>FRP total: 2.4 MW<br>Última detección UTC: 2026-09-13 01:37:00"
      }
    },
    {
      "type": "Feature",
      "geometry": {
        "type": "Point",
        "coordinates": [0.329, 34.7998]
      },
      "properties": {
        "cluster_id": "ALERT-20260913-065",
        "alerta_operativa": "seguimiento",
        "score": 6.4,
        "n_focos": 2,
        "n_ultimas_6h": 0,
        "n_ultimas_24h": 1,
        "frp_total_mw": 2.3,
        "frp_max_mw": 1.3,
        "edad_min_h": 11.3,
        "ultima_deteccion_utc": "2026-09-13 01:34:00",
        "sensores": "VIIRS_NOAA20_NRT",
        "satellites": "N20",
        "instruments": "VIIRS",
        "popup_label": "<strong>ALERT-20260913-065<\/strong><br>Nivel: seguimiento<br>Focos: 2<br>Últimas 6 h: 0<br>FRP total: 2.3 MW<br>Última detección UTC: 2026-09-13 01:34:00"
      }
    },
    {
      "type": "Feature",
      "geometry": {
        "type": "Point",
        "coordinates": [-0.901, 44.1772]
      },
      "properties": {
        "cluster_id": "ALERT-20260913-066",
        "alerta_operativa": "seguimiento",
        "score": 5.9,
        "n_focos": 1,
        "n_ultimas_6h": 0,
        "n_ultimas_24h": 1,
        "frp_total_mw": 3.3,
        "frp_max_mw": 3.3,
        "edad_min_h": 23.9,
        "ultima_deteccion_utc": "2026-09-12 12:57:00",
        "sensores": "VIIRS_SNPP_NRT",
        "satellites": "N",
        "instruments": "VIIRS",
        "popup_label": "<strong>ALERT-20260913-066<\/strong><br>Nivel: seguimiento<br>Focos: 1<br>Últimas 6 h: 0<br>FRP total: 3.3 MW<br>Última detección UTC: 2026-09-12 12:57:00"
      }
    },
    {
      "type": "Feature",
      "geometry": {
        "type": "Point",
        "coordinates": [-4.0183, 37.7102]
      },
      "properties": {
        "cluster_id": "ALERT-20260913-067",
        "alerta_operativa": "seguimiento",
        "score": 5.9,
        "n_focos": 1,
        "n_ultimas_6h": 0,
        "n_ultimas_24h": 1,
        "frp_total_mw": 3.2,
        "frp_max_mw": 3.2,
        "edad_min_h": 23.6,
        "ultima_deteccion_utc": "2026-09-12 13:16:00",
        "sensores": "VIIRS_NOAA20_NRT",
        "satellites": "N20",
        "instruments": "VIIRS",
        "popup_label": "<strong>ALERT-20260913-067<\/strong><br>Nivel: seguimiento<br>Focos: 1<br>Últimas 6 h: 0<br>FRP total: 3.2 MW<br>Última detección UTC: 2026-09-12 13:16:00"
      }
    },
    {
      "type": "Feature",
      "geometry": {
        "type": "Point",
        "coordinates": [-7.8141, 42.2908]
      },
      "properties": {
        "cluster_id": "ALERT-20260913-068",
        "alerta_operativa": "seguimiento",
        "score": 5.9,
        "n_focos": 1,
        "n_ultimas_6h": 0,
        "n_ultimas_24h": 1,
        "frp_total_mw": 3.2,
        "frp_max_mw": 3.2,
        "edad_min_h": 23.6,
        "ultima_deteccion_utc": "2026-09-12 13:16:00",
        "sensores": "VIIRS_NOAA20_NRT",
        "satellites": "N20",
        "instruments": "VIIRS",
        "popup_label": "<strong>ALERT-20260913-068<\/strong><br>Nivel: seguimiento<br>Focos: 1<br>Últimas 6 h: 0<br>FRP total: 3.2 MW<br>Última detección UTC: 2026-09-12 13:16:00"
      }
    },
    {
      "type": "Feature",
      "geometry": {
        "type": "Point",
        "coordinates": [1.4954, 35.3764]
      },
      "properties": {
        "cluster_id": "ALERT-20260913-069",
        "alerta_operativa": "seguimiento",
        "score": 5.8,
        "n_focos": 1,
        "n_ultimas_6h": 0,
        "n_ultimas_24h": 1,
        "frp_total_mw": 3.1,
        "frp_max_mw": 3.1,
        "edad_min_h": 23.9,
        "ultima_deteccion_utc": "2026-09-12 12:55:00",
        "sensores": "VIIRS_SNPP_NRT",
        "satellites": "N",
        "instruments": "VIIRS",
        "popup_label": "<strong>ALERT-20260913-069<\/strong><br>Nivel: seguimiento<br>Focos: 1<br>Últimas 6 h: 0<br>FRP total: 3.1 MW<br>Última detección UTC: 2026-09-12 12:55:00"
      }
    },
    {
      "type": "Feature",
      "geometry": {
        "type": "Point",
        "coordinates": [2.7339, 42.6477]
      },
      "properties": {
        "cluster_id": "ALERT-20260913-070",
        "alerta_operativa": "seguimiento",
        "score": 5.8,
        "n_focos": 1,
        "n_ultimas_6h": 0,
        "n_ultimas_24h": 1,
        "frp_total_mw": 3,
        "frp_max_mw": 3,
        "edad_min_h": 23.9,
        "ultima_deteccion_utc": "2026-09-12 12:57:00",
        "sensores": "VIIRS_SNPP_NRT",
        "satellites": "N",
        "instruments": "VIIRS",
        "popup_label": "<strong>ALERT-20260913-070<\/strong><br>Nivel: seguimiento<br>Focos: 1<br>Últimas 6 h: 0<br>FRP total: 3 MW<br>Última detección UTC: 2026-09-12 12:57:00"
      }
    },
    {
      "type": "Feature",
      "geometry": {
        "type": "Point",
        "coordinates": [-0.8757, 34.9336]
      },
      "properties": {
        "cluster_id": "ALERT-20260913-071",
        "alerta_operativa": "seguimiento",
        "score": 5.7,
        "n_focos": 1,
        "n_ultimas_6h": 0,
        "n_ultimas_24h": 1,
        "frp_total_mw": 2.8,
        "frp_max_mw": 2.8,
        "edad_min_h": 23.6,
        "ultima_deteccion_utc": "2026-09-12 13:14:00",
        "sensores": "VIIRS_NOAA20_NRT",
        "satellites": "N20",
        "instruments": "VIIRS",
        "popup_label": "<strong>ALERT-20260913-071<\/strong><br>Nivel: seguimiento<br>Focos: 1<br>Últimas 6 h: 0<br>FRP total: 2.8 MW<br>Última detección UTC: 2026-09-12 13:14:00"
      }
    },
    {
      "type": "Feature",
      "geometry": {
        "type": "Point",
        "coordinates": [1.4182, 43.8943]
      },
      "properties": {
        "cluster_id": "ALERT-20260913-072",
        "alerta_operativa": "seguimiento",
        "score": 5.6,
        "n_focos": 1,
        "n_ultimas_6h": 0,
        "n_ultimas_24h": 1,
        "frp_total_mw": 2.6,
        "frp_max_mw": 2.6,
        "edad_min_h": 23.9,
        "ultima_deteccion_utc": "2026-09-12 12:57:00",
        "sensores": "VIIRS_SNPP_NRT",
        "satellites": "N",
        "instruments": "VIIRS",
        "popup_label": "<strong>ALERT-20260913-072<\/strong><br>Nivel: seguimiento<br>Focos: 1<br>Últimas 6 h: 0<br>FRP total: 2.6 MW<br>Última detección UTC: 2026-09-12 12:57:00"
      }
    },
    {
      "type": "Feature",
      "geometry": {
        "type": "Point",
        "coordinates": [-8.437, 43.3459]
      },
      "properties": {
        "cluster_id": "ALERT-20260913-073",
        "alerta_operativa": "seguimiento",
        "score": 5.6,
        "n_focos": 2,
        "n_ultimas_6h": 0,
        "n_ultimas_24h": 1,
        "frp_total_mw": 1.2,
        "frp_max_mw": 0.7,
        "edad_min_h": 9.9,
        "ultima_deteccion_utc": "2026-09-13 02:56:00",
        "sensores": "VIIRS_NOAA20_NRT, VIIRS_SNPP_NRT",
        "satellites": "N, N20",
        "instruments": "VIIRS",
        "popup_label": "<strong>ALERT-20260913-073<\/strong><br>Nivel: seguimiento<br>Focos: 2<br>Últimas 6 h: 0<br>FRP total: 1.2 MW<br>Última detección UTC: 2026-09-13 02:56:00"
      }
    },
    {
      "type": "Feature",
      "geometry": {
        "type": "Point",
        "coordinates": [-0.298, 43.8422]
      },
      "properties": {
        "cluster_id": "ALERT-20260913-074",
        "alerta_operativa": "seguimiento",
        "score": 5.5,
        "n_focos": 1,
        "n_ultimas_6h": 0,
        "n_ultimas_24h": 1,
        "frp_total_mw": 2.5,
        "frp_max_mw": 2.5,
        "edad_min_h": 23.9,
        "ultima_deteccion_utc": "2026-09-12 12:57:00",
        "sensores": "VIIRS_SNPP_NRT",
        "satellites": "N",
        "instruments": "VIIRS",
        "popup_label": "<strong>ALERT-20260913-074<\/strong><br>Nivel: seguimiento<br>Focos: 1<br>Últimas 6 h: 0<br>FRP total: 2.5 MW<br>Última detección UTC: 2026-09-12 12:57:00"
      }
    },
    {
      "type": "Feature",
      "geometry": {
        "type": "Point",
        "coordinates": [-6.5, 34.4372]
      },
      "properties": {
        "cluster_id": "ALERT-20260913-075",
        "alerta_operativa": "seguimiento",
        "score": 5.2,
        "n_focos": 1,
        "n_ultimas_6h": 0,
        "n_ultimas_24h": 1,
        "frp_total_mw": 2,
        "frp_max_mw": 2,
        "edad_min_h": 9.9,
        "ultima_deteccion_utc": "2026-09-13 02:58:00",
        "sensores": "VIIRS_SNPP_NRT",
        "satellites": "N",
        "instruments": "VIIRS",
        "popup_label": "<strong>ALERT-20260913-075<\/strong><br>Nivel: seguimiento<br>Focos: 1<br>Últimas 6 h: 0<br>FRP total: 2 MW<br>Última detección UTC: 2026-09-13 02:58:00"
      }
    },
    {
      "type": "Feature",
      "geometry": {
        "type": "Point",
        "coordinates": [-7.9648, 40.3601]
      },
      "properties": {
        "cluster_id": "ALERT-20260913-076",
        "alerta_operativa": "seguimiento",
        "score": 5.2,
        "n_focos": 1,
        "n_ultimas_6h": 0,
        "n_ultimas_24h": 1,
        "frp_total_mw": 2,
        "frp_max_mw": 2,
        "edad_min_h": 11.3,
        "ultima_deteccion_utc": "2026-09-13 01:34:00",
        "sensores": "VIIRS_NOAA20_NRT",
        "satellites": "N20",
        "instruments": "VIIRS",
        "popup_label": "<strong>ALERT-20260913-076<\/strong><br>Nivel: seguimiento<br>Focos: 1<br>Últimas 6 h: 0<br>FRP total: 2 MW<br>Última detección UTC: 2026-09-13 01:34:00"
      }
    },
    {
      "type": "Feature",
      "geometry": {
        "type": "Point",
        "coordinates": [-5.6575, 33.5762]
      },
      "properties": {
        "cluster_id": "ALERT-20260913-077",
        "alerta_operativa": "seguimiento",
        "score": 5.1,
        "n_focos": 1,
        "n_ultimas_6h": 0,
        "n_ultimas_24h": 1,
        "frp_total_mw": 1.8,
        "frp_max_mw": 1.8,
        "edad_min_h": 23.9,
        "ultima_deteccion_utc": "2026-09-12 12:55:00",
        "sensores": "VIIRS_SNPP_NRT",
        "satellites": "N",
        "instruments": "VIIRS",
        "popup_label": "<strong>ALERT-20260913-077<\/strong><br>Nivel: seguimiento<br>Focos: 1<br>Últimas 6 h: 0<br>FRP total: 1.8 MW<br>Última detección UTC: 2026-09-12 12:55:00"
      }
    },
    {
      "type": "Feature",
      "geometry": {
        "type": "Point",
        "coordinates": [-9.1513, 30.22]
      },
      "properties": {
        "cluster_id": "ALERT-20260913-078",
        "alerta_operativa": "seguimiento",
        "score": 4.9,
        "n_focos": 1,
        "n_ultimas_6h": 0,
        "n_ultimas_24h": 1,
        "frp_total_mw": 1.6,
        "frp_max_mw": 1.6,
        "edad_min_h": 9.9,
        "ultima_deteccion_utc": "2026-09-13 02:58:00",
        "sensores": "VIIRS_SNPP_NRT",
        "satellites": "N",
        "instruments": "VIIRS",
        "popup_label": "<strong>ALERT-20260913-078<\/strong><br>Nivel: seguimiento<br>Focos: 1<br>Últimas 6 h: 0<br>FRP total: 1.6 MW<br>Última detección UTC: 2026-09-13 02:58:00"
      }
    },
    {
      "type": "Feature",
      "geometry": {
        "type": "Point",
        "coordinates": [-3.756, 40.3048]
      },
      "properties": {
        "cluster_id": "ALERT-20260913-079",
        "alerta_operativa": "seguimiento",
        "score": 4.9,
        "n_focos": 1,
        "n_ultimas_6h": 0,
        "n_ultimas_24h": 1,
        "frp_total_mw": 1.6,
        "frp_max_mw": 1.6,
        "edad_min_h": 23.6,
        "ultima_deteccion_utc": "2026-09-12 13:16:00",
        "sensores": "VIIRS_NOAA20_NRT",
        "satellites": "N20",
        "instruments": "VIIRS",
        "popup_label": "<strong>ALERT-20260913-079<\/strong><br>Nivel: seguimiento<br>Focos: 1<br>Últimas 6 h: 0<br>FRP total: 1.6 MW<br>Última detección UTC: 2026-09-12 13:16:00"
      }
    },
    {
      "type": "Feature",
      "geometry": {
        "type": "Point",
        "coordinates": [-8.7697, 39.4449]
      },
      "properties": {
        "cluster_id": "ALERT-20260913-080",
        "alerta_operativa": "seguimiento",
        "score": 4.8,
        "n_focos": 1,
        "n_ultimas_6h": 0,
        "n_ultimas_24h": 1,
        "frp_total_mw": 1.5,
        "frp_max_mw": 1.5,
        "edad_min_h": 23.6,
        "ultima_deteccion_utc": "2026-09-12 13:16:00",
        "sensores": "VIIRS_NOAA20_NRT",
        "satellites": "N20",
        "instruments": "VIIRS",
        "popup_label": "<strong>ALERT-20260913-080<\/strong><br>Nivel: seguimiento<br>Focos: 1<br>Últimas 6 h: 0<br>FRP total: 1.5 MW<br>Última detección UTC: 2026-09-12 13:16:00"
      }
    },
    {
      "type": "Feature",
      "geometry": {
        "type": "Point",
        "coordinates": [0.303, 28.1171]
      },
      "properties": {
        "cluster_id": "ALERT-20260913-081",
        "alerta_operativa": "seguimiento",
        "score": 4.8,
        "n_focos": 1,
        "n_ultimas_6h": 0,
        "n_ultimas_24h": 1,
        "frp_total_mw": 1.4,
        "frp_max_mw": 1.4,
        "edad_min_h": 11.2,
        "ultima_deteccion_utc": "2026-09-13 01:37:00",
        "sensores": "VIIRS_NOAA20_NRT",
        "satellites": "N20",
        "instruments": "VIIRS",
        "popup_label": "<strong>ALERT-20260913-081<\/strong><br>Nivel: seguimiento<br>Focos: 1<br>Últimas 6 h: 0<br>FRP total: 1.4 MW<br>Última detección UTC: 2026-09-13 01:37:00"
      }
    },
    {
      "type": "Feature",
      "geometry": {
        "type": "Point",
        "coordinates": [-5.8038, 35.5094]
      },
      "properties": {
        "cluster_id": "ALERT-20260913-082",
        "alerta_operativa": "seguimiento",
        "score": 4.6,
        "n_focos": 1,
        "n_ultimas_6h": 0,
        "n_ultimas_24h": 1,
        "frp_total_mw": 1.2,
        "frp_max_mw": 1.2,
        "edad_min_h": 9.9,
        "ultima_deteccion_utc": "2026-09-13 02:58:00",
        "sensores": "VIIRS_SNPP_NRT",
        "satellites": "N",
        "instruments": "VIIRS",
        "popup_label": "<strong>ALERT-20260913-082<\/strong><br>Nivel: seguimiento<br>Focos: 1<br>Últimas 6 h: 0<br>FRP total: 1.2 MW<br>Última detección UTC: 2026-09-13 02:58:00"
      }
    },
    {
      "type": "Feature",
      "geometry": {
        "type": "Point",
        "coordinates": [-0.0033, 39.9517]
      },
      "properties": {
        "cluster_id": "ALERT-20260913-083",
        "alerta_operativa": "seguimiento",
        "score": 4.4,
        "n_focos": 1,
        "n_ultimas_6h": 0,
        "n_ultimas_24h": 1,
        "frp_total_mw": 1,
        "frp_max_mw": 1,
        "edad_min_h": 9.9,
        "ultima_deteccion_utc": "2026-09-13 02:56:00",
        "sensores": "VIIRS_SNPP_NRT",
        "satellites": "N",
        "instruments": "VIIRS",
        "popup_label": "<strong>ALERT-20260913-083<\/strong><br>Nivel: seguimiento<br>Focos: 1<br>Últimas 6 h: 0<br>FRP total: 1 MW<br>Última detección UTC: 2026-09-13 02:56:00"
      }
    },
    {
      "type": "Feature",
      "geometry": {
        "type": "Point",
        "coordinates": [-5.9468, 34.2749]
      },
      "properties": {
        "cluster_id": "ALERT-20260913-084",
        "alerta_operativa": "seguimiento",
        "score": 4.3,
        "n_focos": 1,
        "n_ultimas_6h": 0,
        "n_ultimas_24h": 1,
        "frp_total_mw": 0.9,
        "frp_max_mw": 0.9,
        "edad_min_h": 9.9,
        "ultima_deteccion_utc": "2026-09-13 02:58:00",
        "sensores": "VIIRS_SNPP_NRT",
        "satellites": "N",
        "instruments": "VIIRS",
        "popup_label": "<strong>ALERT-20260913-084<\/strong><br>Nivel: seguimiento<br>Focos: 1<br>Últimas 6 h: 0<br>FRP total: 0.9 MW<br>Última detección UTC: 2026-09-13 02:58:00"
      }
    },
    {
      "type": "Feature",
      "geometry": {
        "type": "Point",
        "coordinates": [-4.3322, 36.7144]
      },
      "properties": {
        "cluster_id": "ALERT-20260913-085",
        "alerta_operativa": "seguimiento",
        "score": 4.2,
        "n_focos": 1,
        "n_ultimas_6h": 0,
        "n_ultimas_24h": 1,
        "frp_total_mw": 0.8,
        "frp_max_mw": 0.8,
        "edad_min_h": 9.9,
        "ultima_deteccion_utc": "2026-09-13 02:56:00",
        "sensores": "VIIRS_SNPP_NRT",
        "satellites": "N",
        "instruments": "VIIRS",
        "popup_label": "<strong>ALERT-20260913-085<\/strong><br>Nivel: seguimiento<br>Focos: 1<br>Últimas 6 h: 0<br>FRP total: 0.8 MW<br>Última detección UTC: 2026-09-13 02:56:00"
      }
    },
    {
      "type": "Feature",
      "geometry": {
        "type": "Point",
        "coordinates": [-5.2319, 39.9616]
      },
      "properties": {
        "cluster_id": "ALERT-20260913-086",
        "alerta_operativa": "seguimiento",
        "score": 3.7,
        "n_focos": 1,
        "n_ultimas_6h": 0,
        "n_ultimas_24h": 1,
        "frp_total_mw": 0.4,
        "frp_max_mw": 0.4,
        "edad_min_h": 9.6,
        "ultima_deteccion_utc": "2026-09-13 03:17:00",
        "sensores": "VIIRS_NOAA20_NRT",
        "satellites": "N20",
        "instruments": "VIIRS",
        "popup_label": "<strong>ALERT-20260913-086<\/strong><br>Nivel: seguimiento<br>Focos: 1<br>Últimas 6 h: 0<br>FRP total: 0.4 MW<br>Última detección UTC: 2026-09-13 03:17:00"
      }
    },
    {
      "type": "Feature",
      "geometry": {
        "type": "Point",
        "coordinates": [-5.8159, 34.0552]
      },
      "properties": {
        "cluster_id": "ALERT-20260913-087",
        "alerta_operativa": "informativa",
        "score": 5.9,
        "n_focos": 3,
        "n_ultimas_6h": 0,
        "n_ultimas_24h": 0,
        "frp_total_mw": 3.2,
        "frp_max_mw": 1.8,
        "edad_min_h": 34.9,
        "ultima_deteccion_utc": "2026-09-12 01:56:00",
        "sensores": "VIIRS_NOAA20_NRT, VIIRS_SNPP_NRT",
        "satellites": "N, N20",
        "instruments": "VIIRS",
        "popup_label": "<strong>ALERT-20260913-087<\/strong><br>Nivel: informativa<br>Focos: 3<br>Últimas 6 h: 0<br>FRP total: 3.2 MW<br>Última detección UTC: 2026-09-12 01:56:00"
      }
    },
    {
      "type": "Feature",
      "geometry": {
        "type": "Point",
        "coordinates": [-0.9379, 35.5663]
      },
      "properties": {
        "cluster_id": "ALERT-20260913-088",
        "alerta_operativa": "informativa",
        "score": 5.7,
        "n_focos": 3,
        "n_ultimas_6h": 0,
        "n_ultimas_24h": 0,
        "frp_total_mw": 2.9,
        "frp_max_mw": 1.2,
        "edad_min_h": 35,
        "ultima_deteccion_utc": "2026-09-12 01:54:00",
        "sensores": "VIIRS_NOAA20_NRT, VIIRS_SNPP_NRT",
        "satellites": "N, N20",
        "instruments": "VIIRS",
        "popup_label": "<strong>ALERT-20260913-088<\/strong><br>Nivel: informativa<br>Focos: 3<br>Últimas 6 h: 0<br>FRP total: 2.9 MW<br>Última detección UTC: 2026-09-12 01:54:00"
      }
    },
    {
      "type": "Feature",
      "geometry": {
        "type": "Point",
        "coordinates": [2.3675, 43.4879]
      },
      "properties": {
        "cluster_id": "ALERT-20260913-089",
        "alerta_operativa": "informativa",
        "score": 5.3,
        "n_focos": 2,
        "n_ultimas_6h": 0,
        "n_ultimas_24h": 0,
        "frp_total_mw": 4.2,
        "frp_max_mw": 3.5,
        "edad_min_h": 35,
        "ultima_deteccion_utc": "2026-09-12 01:52:00",
        "sensores": "VIIRS_NOAA20_NRT, VIIRS_SNPP_NRT",
        "satellites": "N, N20",
        "instruments": "VIIRS",
        "popup_label": "<strong>ALERT-20260913-089<\/strong><br>Nivel: informativa<br>Focos: 2<br>Últimas 6 h: 0<br>FRP total: 4.2 MW<br>Última detección UTC: 2026-09-12 01:52:00"
      }
    },
    {
      "type": "Feature",
      "geometry": {
        "type": "Point",
        "coordinates": [2.5391, 42.7208]
      },
      "properties": {
        "cluster_id": "ALERT-20260913-090",
        "alerta_operativa": "informativa",
        "score": 5.2,
        "n_focos": 2,
        "n_ultimas_6h": 0,
        "n_ultimas_24h": 0,
        "frp_total_mw": 3.9,
        "frp_max_mw": 2.2,
        "edad_min_h": 35,
        "ultima_deteccion_utc": "2026-09-12 01:52:00",
        "sensores": "VIIRS_NOAA20_NRT, VIIRS_SNPP_NRT",
        "satellites": "N, N20",
        "instruments": "VIIRS",
        "popup_label": "<strong>ALERT-20260913-090<\/strong><br>Nivel: informativa<br>Focos: 2<br>Últimas 6 h: 0<br>FRP total: 3.9 MW<br>Última detección UTC: 2026-09-12 01:52:00"
      }
    },
    {
      "type": "Feature",
      "geometry": {
        "type": "Point",
        "coordinates": [-4.9841, 34.5643]
      },
      "properties": {
        "cluster_id": "ALERT-20260913-091",
        "alerta_operativa": "informativa",
        "score": 4.3,
        "n_focos": 2,
        "n_ultimas_6h": 0,
        "n_ultimas_24h": 0,
        "frp_total_mw": 2.2,
        "frp_max_mw": 1.2,
        "edad_min_h": 34.9,
        "ultima_deteccion_utc": "2026-09-12 01:56:00",
        "sensores": "VIIRS_NOAA20_NRT, VIIRS_SNPP_NRT",
        "satellites": "N, N20",
        "instruments": "VIIRS",
        "popup_label": "<strong>ALERT-20260913-091<\/strong><br>Nivel: informativa<br>Focos: 2<br>Últimas 6 h: 0<br>FRP total: 2.2 MW<br>Última detección UTC: 2026-09-12 01:56:00"
      }
    },
    {
      "type": "Feature",
      "geometry": {
        "type": "Point",
        "coordinates": [-6.5294, 38.1568]
      },
      "properties": {
        "cluster_id": "ALERT-20260913-092",
        "alerta_operativa": "informativa",
        "score": 4.1,
        "n_focos": 2,
        "n_ultimas_6h": 0,
        "n_ultimas_24h": 0,
        "frp_total_mw": 1.9,
        "frp_max_mw": 1,
        "edad_min_h": 35,
        "ultima_deteccion_utc": "2026-09-12 01:54:00",
        "sensores": "VIIRS_NOAA20_NRT, VIIRS_SNPP_NRT",
        "satellites": "N, N20",
        "instruments": "VIIRS",
        "popup_label": "<strong>ALERT-20260913-092<\/strong><br>Nivel: informativa<br>Focos: 2<br>Últimas 6 h: 0<br>FRP total: 1.9 MW<br>Última detección UTC: 2026-09-12 01:54:00"
      }
    },
    {
      "type": "Feature",
      "geometry": {
        "type": "Point",
        "coordinates": [-8.4216, 40.288]
      },
      "properties": {
        "cluster_id": "ALERT-20260913-093",
        "alerta_operativa": "informativa",
        "score": 4,
        "n_focos": 2,
        "n_ultimas_6h": 0,
        "n_ultimas_24h": 0,
        "frp_total_mw": 1.7,
        "frp_max_mw": 0.9,
        "edad_min_h": 33.3,
        "ultima_deteccion_utc": "2026-09-12 03:34:00",
        "sensores": "VIIRS_NOAA20_NRT",
        "satellites": "N20",
        "instruments": "VIIRS",
        "popup_label": "<strong>ALERT-20260913-093<\/strong><br>Nivel: informativa<br>Focos: 2<br>Últimas 6 h: 0<br>FRP total: 1.7 MW<br>Última detección UTC: 2026-09-12 03:34:00"
      }
    },
    {
      "type": "Feature",
      "geometry": {
        "type": "Point",
        "coordinates": [2.9289, 36.1394]
      },
      "properties": {
        "cluster_id": "ALERT-20260913-094",
        "alerta_operativa": "informativa",
        "score": 3.6,
        "n_focos": 2,
        "n_ultimas_6h": 0,
        "n_ultimas_24h": 0,
        "frp_total_mw": 1.2,
        "frp_max_mw": 0.7,
        "edad_min_h": 35,
        "ultima_deteccion_utc": "2026-09-12 01:54:00",
        "sensores": "VIIRS_NOAA20_NRT, VIIRS_SNPP_NRT",
        "satellites": "N, N20",
        "instruments": "VIIRS",
        "popup_label": "<strong>ALERT-20260913-094<\/strong><br>Nivel: informativa<br>Focos: 2<br>Últimas 6 h: 0<br>FRP total: 1.2 MW<br>Última detección UTC: 2026-09-12 01:54:00"
      }
    },
    {
      "type": "Feature",
      "geometry": {
        "type": "Point",
        "coordinates": [-16.3283, 28.5661]
      },
      "properties": {
        "cluster_id": "ALERT-20260913-095",
        "alerta_operativa": "informativa",
        "score": 2.6,
        "n_focos": 1,
        "n_ultimas_6h": 0,
        "n_ultimas_24h": 0,
        "frp_total_mw": 1.2,
        "frp_max_mw": 1.2,
        "edad_min_h": 33.6,
        "ultima_deteccion_utc": "2026-09-12 03:17:00",
        "sensores": "VIIRS_SNPP_NRT",
        "satellites": "N",
        "instruments": "VIIRS",
        "popup_label": "<strong>ALERT-20260913-095<\/strong><br>Nivel: informativa<br>Focos: 1<br>Últimas 6 h: 0<br>FRP total: 1.2 MW<br>Última detección UTC: 2026-09-12 03:17:00"
      }
    },
    {
      "type": "Feature",
      "geometry": {
        "type": "Point",
        "coordinates": [-4.0607, 38.6811]
      },
      "properties": {
        "cluster_id": "ALERT-20260913-096",
        "alerta_operativa": "informativa",
        "score": 2.6,
        "n_focos": 1,
        "n_ultimas_6h": 0,
        "n_ultimas_24h": 0,
        "frp_total_mw": 1.2,
        "frp_max_mw": 1.2,
        "edad_min_h": 35,
        "ultima_deteccion_utc": "2026-09-12 01:54:00",
        "sensores": "VIIRS_NOAA20_NRT",
        "satellites": "N20",
        "instruments": "VIIRS",
        "popup_label": "<strong>ALERT-20260913-096<\/strong><br>Nivel: informativa<br>Focos: 1<br>Últimas 6 h: 0<br>FRP total: 1.2 MW<br>Última detección UTC: 2026-09-12 01:54:00"
      }
    },
    {
      "type": "Feature",
      "geometry": {
        "type": "Point",
        "coordinates": [-0.8452, 37.831]
      },
      "properties": {
        "cluster_id": "ALERT-20260913-097",
        "alerta_operativa": "informativa",
        "score": 2.4,
        "n_focos": 1,
        "n_ultimas_6h": 0,
        "n_ultimas_24h": 0,
        "frp_total_mw": 1,
        "frp_max_mw": 1,
        "edad_min_h": 35.3,
        "ultima_deteccion_utc": "2026-09-12 01:34:00",
        "sensores": "VIIRS_SNPP_NRT",
        "satellites": "N",
        "instruments": "VIIRS",
        "popup_label": "<strong>ALERT-20260913-097<\/strong><br>Nivel: informativa<br>Focos: 1<br>Últimas 6 h: 0<br>FRP total: 1 MW<br>Última detección UTC: 2026-09-12 01:34:00"
      }
    },
    {
      "type": "Feature",
      "geometry": {
        "type": "Point",
        "coordinates": [-7.5322, 33.0562]
      },
      "properties": {
        "cluster_id": "ALERT-20260913-098",
        "alerta_operativa": "informativa",
        "score": 2.2,
        "n_focos": 1,
        "n_ultimas_6h": 0,
        "n_ultimas_24h": 0,
        "frp_total_mw": 0.8,
        "frp_max_mw": 0.8,
        "edad_min_h": 33.6,
        "ultima_deteccion_utc": "2026-09-12 03:15:00",
        "sensores": "VIIRS_SNPP_NRT",
        "satellites": "N",
        "instruments": "VIIRS",
        "popup_label": "<strong>ALERT-20260913-098<\/strong><br>Nivel: informativa<br>Focos: 1<br>Últimas 6 h: 0<br>FRP total: 0.8 MW<br>Última detección UTC: 2026-09-12 03:15:00"
      }
    },
    {
      "type": "Feature",
      "geometry": {
        "type": "Point",
        "coordinates": [-7.1502, 32.9898]
      },
      "properties": {
        "cluster_id": "ALERT-20260913-099",
        "alerta_operativa": "informativa",
        "score": 2.1,
        "n_focos": 1,
        "n_ultimas_6h": 0,
        "n_ultimas_24h": 0,
        "frp_total_mw": 0.7,
        "frp_max_mw": 0.7,
        "edad_min_h": 35.2,
        "ultima_deteccion_utc": "2026-09-12 01:37:00",
        "sensores": "VIIRS_SNPP_NRT",
        "satellites": "N",
        "instruments": "VIIRS",
        "popup_label": "<strong>ALERT-20260913-099<\/strong><br>Nivel: informativa<br>Focos: 1<br>Últimas 6 h: 0<br>FRP total: 0.7 MW<br>Última detección UTC: 2026-09-12 01:37:00"
      }
    },
    {
      "type": "Feature",
      "geometry": {
        "type": "Point",
        "coordinates": [-8.1254, 40.3062]
      },
      "properties": {
        "cluster_id": "ALERT-20260913-100",
        "alerta_operativa": "informativa",
        "score": 2.1,
        "n_focos": 1,
        "n_ultimas_6h": 0,
        "n_ultimas_24h": 0,
        "frp_total_mw": 0.7,
        "frp_max_mw": 0.7,
        "edad_min_h": 35,
        "ultima_deteccion_utc": "2026-09-12 01:54:00",
        "sensores": "VIIRS_NOAA20_NRT",
        "satellites": "N20",
        "instruments": "VIIRS",
        "popup_label": "<strong>ALERT-20260913-100<\/strong><br>Nivel: informativa<br>Focos: 1<br>Últimas 6 h: 0<br>FRP total: 0.7 MW<br>Última detección UTC: 2026-09-12 01:54:00"
      }
    },
    {
      "type": "Feature",
      "geometry": {
        "type": "Point",
        "coordinates": [2.1814, 41.4747]
      },
      "properties": {
        "cluster_id": "ALERT-20260913-101",
        "alerta_operativa": "informativa",
        "score": 1.9,
        "n_focos": 1,
        "n_ultimas_6h": 0,
        "n_ultimas_24h": 0,
        "frp_total_mw": 0.6,
        "frp_max_mw": 0.6,
        "edad_min_h": 35,
        "ultima_deteccion_utc": "2026-09-12 01:52:00",
        "sensores": "VIIRS_NOAA20_NRT",
        "satellites": "N20",
        "instruments": "VIIRS",
        "popup_label": "<strong>ALERT-20260913-101<\/strong><br>Nivel: informativa<br>Focos: 1<br>Últimas 6 h: 0<br>FRP total: 0.6 MW<br>Última detección UTC: 2026-09-12 01:52:00"
      }
    },
    {
      "type": "Feature",
      "geometry": {
        "type": "Point",
        "coordinates": [-7.5561, 33.4797]
      },
      "properties": {
        "cluster_id": "ALERT-20260913-102",
        "alerta_operativa": "informativa",
        "score": 1.8,
        "n_focos": 1,
        "n_ultimas_6h": 0,
        "n_ultimas_24h": 0,
        "frp_total_mw": 0.5,
        "frp_max_mw": 0.5,
        "edad_min_h": 34.9,
        "ultima_deteccion_utc": "2026-09-12 01:56:00",
        "sensores": "VIIRS_NOAA20_NRT",
        "satellites": "N20",
        "instruments": "VIIRS",
        "popup_label": "<strong>ALERT-20260913-102<\/strong><br>Nivel: informativa<br>Focos: 1<br>Últimas 6 h: 0<br>FRP total: 0.5 MW<br>Última detección UTC: 2026-09-12 01:56:00"
      }
    },
    {
      "type": "Feature",
      "geometry": {
        "type": "Point",
        "coordinates": [-6.3027, 37.1552]
      },
      "properties": {
        "cluster_id": "ALERT-20260913-103",
        "alerta_operativa": "informativa",
        "score": 1.7,
        "n_focos": 1,
        "n_ultimas_6h": 0,
        "n_ultimas_24h": 0,
        "frp_total_mw": 0.4,
        "frp_max_mw": 0.4,
        "edad_min_h": 33.6,
        "ultima_deteccion_utc": "2026-09-12 03:15:00",
        "sensores": "VIIRS_SNPP_NRT",
        "satellites": "N",
        "instruments": "VIIRS",
        "popup_label": "<strong>ALERT-20260913-103<\/strong><br>Nivel: informativa<br>Focos: 1<br>Últimas 6 h: 0<br>FRP total: 0.4 MW<br>Última detección UTC: 2026-09-12 03:15:00"
      }
    },
    {
      "type": "Feature",
      "geometry": {
        "type": "Point",
        "coordinates": [2.6878, 39.5689]
      },
      "properties": {
        "cluster_id": "ALERT-20260913-104",
        "alerta_operativa": "informativa",
        "score": 1.7,
        "n_focos": 1,
        "n_ultimas_6h": 0,
        "n_ultimas_24h": 0,
        "frp_total_mw": 0.4,
        "frp_max_mw": 0.4,
        "edad_min_h": 35,
        "ultima_deteccion_utc": "2026-09-12 01:54:00",
        "sensores": "VIIRS_NOAA20_NRT",
        "satellites": "N20",
        "instruments": "VIIRS",
        "popup_label": "<strong>ALERT-20260913-104<\/strong><br>Nivel: informativa<br>Focos: 1<br>Últimas 6 h: 0<br>FRP total: 0.4 MW<br>Última detección UTC: 2026-09-12 01:54:00"
      }
    },
    {
      "type": "Feature",
      "geometry": {
        "type": "Point",
        "coordinates": [2.6603, 33.8737]
      },
      "properties": {
        "cluster_id": "ALERT-20260913-105",
        "alerta_operativa": "informativa",
        "score": 1.4,
        "n_focos": 1,
        "n_ultimas_6h": 0,
        "n_ultimas_24h": 0,
        "frp_total_mw": 0.2,
        "frp_max_mw": 0.2,
        "edad_min_h": 34.9,
        "ultima_deteccion_utc": "2026-09-12 01:56:00",
        "sensores": "VIIRS_NOAA20_NRT",
        "satellites": "N20",
        "instruments": "VIIRS",
        "popup_label": "<strong>ALERT-20260913-105<\/strong><br>Nivel: informativa<br>Focos: 1<br>Últimas 6 h: 0<br>FRP total: 0.2 MW<br>Última detección UTC: 2026-09-12 01:56:00"
      }
    }
  ]
}
