{
  "type": "FeatureCollection",
  "features": [
    {
      "type": "Feature",
      "geometry": {
        "type": "Point",
        "coordinates": [4.8912, 43.44]
      },
      "properties": {
        "cluster_id": "ALERT-20260901-001",
        "alerta_operativa": "alta",
        "score": 125.4,
        "n_focos": 35,
        "n_ultimas_6h": 8,
        "n_ultimas_24h": 20,
        "frp_total_mw": 184.2,
        "frp_max_mw": 23.5,
        "edad_min_h": 5.8,
        "ultima_deteccion_utc": "2026-09-01 01:58:00",
        "sensores": "VIIRS_NOAA20_NRT, VIIRS_SNPP_NRT",
        "satellites": "N, N20",
        "instruments": "VIIRS",
        "popup_label": "<strong>ALERT-20260901-001<\/strong><br>Nivel: alta<br>Focos: 35<br>Últimas 6 h: 8<br>FRP total: 184.2 MW<br>Última detección UTC: 2026-09-01 01:58:00"
      }
    },
    {
      "type": "Feature",
      "geometry": {
        "type": "Point",
        "coordinates": [3.2184, 32.8881]
      },
      "properties": {
        "cluster_id": "ALERT-20260901-002",
        "alerta_operativa": "alta",
        "score": 94.5,
        "n_focos": 40,
        "n_ultimas_6h": 6,
        "n_ultimas_24h": 8,
        "frp_total_mw": 67.4,
        "frp_max_mw": 3.8,
        "edad_min_h": 5.7,
        "ultima_deteccion_utc": "2026-09-01 02:02:00",
        "sensores": "VIIRS_NOAA20_NRT, VIIRS_SNPP_NRT",
        "satellites": "N, N20",
        "instruments": "VIIRS",
        "popup_label": "<strong>ALERT-20260901-002<\/strong><br>Nivel: alta<br>Focos: 40<br>Últimas 6 h: 6<br>FRP total: 67.4 MW<br>Última detección UTC: 2026-09-01 02:02:00"
      }
    },
    {
      "type": "Feature",
      "geometry": {
        "type": "Point",
        "coordinates": [-5.7807, 43.5363]
      },
      "properties": {
        "cluster_id": "ALERT-20260901-003",
        "alerta_operativa": "alta",
        "score": 82.7,
        "n_focos": 20,
        "n_ultimas_6h": 7,
        "n_ultimas_24h": 10,
        "frp_total_mw": 46.5,
        "frp_max_mw": 7.1,
        "edad_min_h": 5.8,
        "ultima_deteccion_utc": "2026-09-01 01:58:00",
        "sensores": "VIIRS_NOAA20_NRT, VIIRS_SNPP_NRT",
        "satellites": "N, N20",
        "instruments": "VIIRS",
        "popup_label": "<strong>ALERT-20260901-003<\/strong><br>Nivel: alta<br>Focos: 20<br>Últimas 6 h: 7<br>FRP total: 46.5 MW<br>Última detección UTC: 2026-09-01 01:58:00"
      }
    },
    {
      "type": "Feature",
      "geometry": {
        "type": "Point",
        "coordinates": [3.3414, 33.1253]
      },
      "properties": {
        "cluster_id": "ALERT-20260901-004",
        "alerta_operativa": "alta",
        "score": 53.5,
        "n_focos": 19,
        "n_ultimas_6h": 3,
        "n_ultimas_24h": 6,
        "frp_total_mw": 41.4,
        "frp_max_mw": 5.4,
        "edad_min_h": 5.7,
        "ultima_deteccion_utc": "2026-09-01 02:02:00",
        "sensores": "VIIRS_NOAA20_NRT, VIIRS_SNPP_NRT",
        "satellites": "N, N20",
        "instruments": "VIIRS",
        "popup_label": "<strong>ALERT-20260901-004<\/strong><br>Nivel: alta<br>Focos: 19<br>Últimas 6 h: 3<br>FRP total: 41.4 MW<br>Última detección UTC: 2026-09-01 02:02:00"
      }
    },
    {
      "type": "Feature",
      "geometry": {
        "type": "Point",
        "coordinates": [3.1526, 36.6547]
      },
      "properties": {
        "cluster_id": "ALERT-20260901-005",
        "alerta_operativa": "alta",
        "score": 38.8,
        "n_focos": 10,
        "n_ultimas_6h": 3,
        "n_ultimas_24h": 4,
        "frp_total_mw": 17.1,
        "frp_max_mw": 3.4,
        "edad_min_h": 5.8,
        "ultima_deteccion_utc": "2026-09-01 02:00:00",
        "sensores": "VIIRS_NOAA20_NRT, VIIRS_SNPP_NRT",
        "satellites": "N, N20",
        "instruments": "VIIRS",
        "popup_label": "<strong>ALERT-20260901-005<\/strong><br>Nivel: alta<br>Focos: 10<br>Últimas 6 h: 3<br>FRP total: 17.1 MW<br>Última detección UTC: 2026-09-01 02:00:00"
      }
    },
    {
      "type": "Feature",
      "geometry": {
        "type": "Point",
        "coordinates": [3.9866, 32.2773]
      },
      "properties": {
        "cluster_id": "ALERT-20260901-006",
        "alerta_operativa": "alta",
        "score": 30.1,
        "n_focos": 7,
        "n_ultimas_6h": 2,
        "n_ultimas_24h": 3,
        "frp_total_mw": 33.1,
        "frp_max_mw": 10.1,
        "edad_min_h": 5.7,
        "ultima_deteccion_utc": "2026-09-01 02:02:00",
        "sensores": "VIIRS_NOAA20_NRT, VIIRS_SNPP_NRT",
        "satellites": "N, N20",
        "instruments": "VIIRS",
        "popup_label": "<strong>ALERT-20260901-006<\/strong><br>Nivel: alta<br>Focos: 7<br>Últimas 6 h: 2<br>FRP total: 33.1 MW<br>Última detección UTC: 2026-09-01 02:02:00"
      }
    },
    {
      "type": "Feature",
      "geometry": {
        "type": "Point",
        "coordinates": [-9.0639, 38.6023]
      },
      "properties": {
        "cluster_id": "ALERT-20260901-007",
        "alerta_operativa": "alta",
        "score": 26.5,
        "n_focos": 6,
        "n_ultimas_6h": 0,
        "n_ultimas_24h": 5,
        "frp_total_mw": 188.7,
        "frp_max_mw": 52.8,
        "edad_min_h": 18.1,
        "ultima_deteccion_utc": "2026-08-31 13:40:00",
        "sensores": "VIIRS_NOAA20_NRT, VIIRS_SNPP_NRT",
        "satellites": "N, N20",
        "instruments": "VIIRS",
        "popup_label": "<strong>ALERT-20260901-007<\/strong><br>Nivel: alta<br>Focos: 6<br>Últimas 6 h: 0<br>FRP total: 188.7 MW<br>Última detección UTC: 2026-08-31 13:40:00"
      }
    },
    {
      "type": "Feature",
      "geometry": {
        "type": "Point",
        "coordinates": [1.9955, 41.4197]
      },
      "properties": {
        "cluster_id": "ALERT-20260901-008",
        "alerta_operativa": "alta",
        "score": 21.2,
        "n_focos": 4,
        "n_ultimas_6h": 2,
        "n_ultimas_24h": 2,
        "frp_total_mw": 3.9,
        "frp_max_mw": 1.2,
        "edad_min_h": 5.8,
        "ultima_deteccion_utc": "2026-09-01 01:58:00",
        "sensores": "VIIRS_NOAA20_NRT, VIIRS_SNPP_NRT",
        "satellites": "N, N20",
        "instruments": "VIIRS",
        "popup_label": "<strong>ALERT-20260901-008<\/strong><br>Nivel: alta<br>Focos: 4<br>Últimas 6 h: 2<br>FRP total: 3.9 MW<br>Última detección UTC: 2026-09-01 01:58:00"
      }
    },
    {
      "type": "Feature",
      "geometry": {
        "type": "Point",
        "coordinates": [1.6636, 41.3129]
      },
      "properties": {
        "cluster_id": "ALERT-20260901-009",
        "alerta_operativa": "alta",
        "score": 20.1,
        "n_focos": 3,
        "n_ultimas_6h": 2,
        "n_ultimas_24h": 2,
        "frp_total_mw": 3.8,
        "frp_max_mw": 1.6,
        "edad_min_h": 5.8,
        "ultima_deteccion_utc": "2026-09-01 01:58:00",
        "sensores": "VIIRS_NOAA20_NRT, VIIRS_SNPP_NRT",
        "satellites": "N, N20",
        "instruments": "VIIRS",
        "popup_label": "<strong>ALERT-20260901-009<\/strong><br>Nivel: alta<br>Focos: 3<br>Últimas 6 h: 2<br>FRP total: 3.8 MW<br>Última detección UTC: 2026-09-01 01:58:00"
      }
    },
    {
      "type": "Feature",
      "geometry": {
        "type": "Point",
        "coordinates": [0.3281, 28.1009]
      },
      "properties": {
        "cluster_id": "ALERT-20260901-010",
        "alerta_operativa": "alta",
        "score": 18.6,
        "n_focos": 2,
        "n_ultimas_6h": 2,
        "n_ultimas_24h": 2,
        "frp_total_mw": 2.6,
        "frp_max_mw": 1.3,
        "edad_min_h": 5.7,
        "ultima_deteccion_utc": "2026-09-01 02:02:00",
        "sensores": "VIIRS_NOAA20_NRT",
        "satellites": "N20",
        "instruments": "VIIRS",
        "popup_label": "<strong>ALERT-20260901-010<\/strong><br>Nivel: alta<br>Focos: 2<br>Últimas 6 h: 2<br>FRP total: 2.6 MW<br>Última detección UTC: 2026-09-01 02:02:00"
      }
    },
    {
      "type": "Feature",
      "geometry": {
        "type": "Point",
        "coordinates": [-7.0697, 38.9549]
      },
      "properties": {
        "cluster_id": "ALERT-20260901-011",
        "alerta_operativa": "alta",
        "score": 18.4,
        "n_focos": 2,
        "n_ultimas_6h": 2,
        "n_ultimas_24h": 2,
        "frp_total_mw": 2.3,
        "frp_max_mw": 1.5,
        "edad_min_h": 4.1,
        "ultima_deteccion_utc": "2026-09-01 03:40:00",
        "sensores": "VIIRS_NOAA20_NRT",
        "satellites": "N20",
        "instruments": "VIIRS",
        "popup_label": "<strong>ALERT-20260901-011<\/strong><br>Nivel: alta<br>Focos: 2<br>Últimas 6 h: 2<br>FRP total: 2.3 MW<br>Última detección UTC: 2026-09-01 03:40:00"
      }
    },
    {
      "type": "Feature",
      "geometry": {
        "type": "Point",
        "coordinates": [2.9082, 36.5956]
      },
      "properties": {
        "cluster_id": "ALERT-20260901-012",
        "alerta_operativa": "media",
        "score": 33.2,
        "n_focos": 11,
        "n_ultimas_6h": 0,
        "n_ultimas_24h": 7,
        "frp_total_mw": 58.1,
        "frp_max_mw": 15.3,
        "edad_min_h": 18.1,
        "ultima_deteccion_utc": "2026-08-31 13:40:00",
        "sensores": "VIIRS_NOAA20_NRT, VIIRS_SNPP_NRT",
        "satellites": "N, N20",
        "instruments": "VIIRS",
        "popup_label": "<strong>ALERT-20260901-012<\/strong><br>Nivel: media<br>Focos: 11<br>Últimas 6 h: 0<br>FRP total: 58.1 MW<br>Última detección UTC: 2026-08-31 13:40:00"
      }
    },
    {
      "type": "Feature",
      "geometry": {
        "type": "Point",
        "coordinates": [3.1671, 32.5553]
      },
      "properties": {
        "cluster_id": "ALERT-20260901-013",
        "alerta_operativa": "media",
        "score": 26.9,
        "n_focos": 9,
        "n_ultimas_6h": 1,
        "n_ultimas_24h": 3,
        "frp_total_mw": 31.1,
        "frp_max_mw": 6.2,
        "edad_min_h": 5.7,
        "ultima_deteccion_utc": "2026-09-01 02:02:00",
        "sensores": "VIIRS_NOAA20_NRT, VIIRS_SNPP_NRT",
        "satellites": "N, N20",
        "instruments": "VIIRS",
        "popup_label": "<strong>ALERT-20260901-013<\/strong><br>Nivel: media<br>Focos: 9<br>Últimas 6 h: 1<br>FRP total: 31.1 MW<br>Última detección UTC: 2026-09-01 02:02:00"
      }
    },
    {
      "type": "Feature",
      "geometry": {
        "type": "Point",
        "coordinates": [-3.9738, 42.1922]
      },
      "properties": {
        "cluster_id": "ALERT-20260901-014",
        "alerta_operativa": "media",
        "score": 26.1,
        "n_focos": 7,
        "n_ultimas_6h": 1,
        "n_ultimas_24h": 3,
        "frp_total_mw": 57,
        "frp_max_mw": 16.9,
        "edad_min_h": 5.8,
        "ultima_deteccion_utc": "2026-09-01 01:58:00",
        "sensores": "VIIRS_NOAA20_NRT, VIIRS_SNPP_NRT",
        "satellites": "N, N20",
        "instruments": "VIIRS",
        "popup_label": "<strong>ALERT-20260901-014<\/strong><br>Nivel: media<br>Focos: 7<br>Últimas 6 h: 1<br>FRP total: 57 MW<br>Última detección UTC: 2026-09-01 01:58:00"
      }
    },
    {
      "type": "Feature",
      "geometry": {
        "type": "Point",
        "coordinates": [-0.5178, 28.2003]
      },
      "properties": {
        "cluster_id": "ALERT-20260901-015",
        "alerta_operativa": "media",
        "score": 17.3,
        "n_focos": 4,
        "n_ultimas_6h": 1,
        "n_ultimas_24h": 2,
        "frp_total_mw": 7.6,
        "frp_max_mw": 2.8,
        "edad_min_h": 5.7,
        "ultima_deteccion_utc": "2026-09-01 02:02:00",
        "sensores": "VIIRS_NOAA20_NRT, VIIRS_SNPP_NRT",
        "satellites": "N, N20",
        "instruments": "VIIRS",
        "popup_label": "<strong>ALERT-20260901-015<\/strong><br>Nivel: media<br>Focos: 4<br>Últimas 6 h: 1<br>FRP total: 7.6 MW<br>Última detección UTC: 2026-09-01 02:02:00"
      }
    },
    {
      "type": "Feature",
      "geometry": {
        "type": "Point",
        "coordinates": [3.7478, 36.1803]
      },
      "properties": {
        "cluster_id": "ALERT-20260901-016",
        "alerta_operativa": "media",
        "score": 16.6,
        "n_focos": 5,
        "n_ultimas_6h": 1,
        "n_ultimas_24h": 1,
        "frp_total_mw": 8.8,
        "frp_max_mw": 2.7,
        "edad_min_h": 5.8,
        "ultima_deteccion_utc": "2026-09-01 02:00:00",
        "sensores": "VIIRS_NOAA20_NRT, VIIRS_SNPP_NRT",
        "satellites": "N, N20",
        "instruments": "VIIRS",
        "popup_label": "<strong>ALERT-20260901-016<\/strong><br>Nivel: media<br>Focos: 5<br>Últimas 6 h: 1<br>FRP total: 8.8 MW<br>Última detección UTC: 2026-09-01 02:00:00"
      }
    },
    {
      "type": "Feature",
      "geometry": {
        "type": "Point",
        "coordinates": [4.4754, 35.7088]
      },
      "properties": {
        "cluster_id": "ALERT-20260901-017",
        "alerta_operativa": "media",
        "score": 14.8,
        "n_focos": 3,
        "n_ultimas_6h": 1,
        "n_ultimas_24h": 1,
        "frp_total_mw": 10.3,
        "frp_max_mw": 5.2,
        "edad_min_h": 5.8,
        "ultima_deteccion_utc": "2026-09-01 02:00:00",
        "sensores": "VIIRS_NOAA20_NRT, VIIRS_SNPP_NRT",
        "satellites": "N, N20",
        "instruments": "VIIRS",
        "popup_label": "<strong>ALERT-20260901-017<\/strong><br>Nivel: media<br>Focos: 3<br>Últimas 6 h: 1<br>FRP total: 10.3 MW<br>Última detección UTC: 2026-09-01 02:00:00"
      }
    },
    {
      "type": "Feature",
      "geometry": {
        "type": "Point",
        "coordinates": [-0.8694, 42.8295]
      },
      "properties": {
        "cluster_id": "ALERT-20260901-018",
        "alerta_operativa": "media",
        "score": 14.5,
        "n_focos": 5,
        "n_ultimas_6h": 0,
        "n_ultimas_24h": 2,
        "frp_total_mw": 14.7,
        "frp_max_mw": 6.8,
        "edad_min_h": 18.4,
        "ultima_deteccion_utc": "2026-08-31 13:23:00",
        "sensores": "VIIRS_NOAA20_NRT, VIIRS_SNPP_NRT",
        "satellites": "N, N20",
        "instruments": "VIIRS",
        "popup_label": "<strong>ALERT-20260901-018<\/strong><br>Nivel: media<br>Focos: 5<br>Últimas 6 h: 0<br>FRP total: 14.7 MW<br>Última detección UTC: 2026-08-31 13:23:00"
      }
    },
    {
      "type": "Feature",
      "geometry": {
        "type": "Point",
        "coordinates": [-1.907, 36.967]
      },
      "properties": {
        "cluster_id": "ALERT-20260901-019",
        "alerta_operativa": "media",
        "score": 14.1,
        "n_focos": 4,
        "n_ultimas_6h": 1,
        "n_ultimas_24h": 1,
        "frp_total_mw": 3.7,
        "frp_max_mw": 1.7,
        "edad_min_h": 5.8,
        "ultima_deteccion_utc": "2026-09-01 02:00:00",
        "sensores": "VIIRS_NOAA20_NRT, VIIRS_SNPP_NRT",
        "satellites": "N, N20",
        "instruments": "VIIRS",
        "popup_label": "<strong>ALERT-20260901-019<\/strong><br>Nivel: media<br>Focos: 4<br>Últimas 6 h: 1<br>FRP total: 3.7 MW<br>Última detección UTC: 2026-09-01 02:00:00"
      }
    },
    {
      "type": "Feature",
      "geometry": {
        "type": "Point",
        "coordinates": [-8.9349, 38.5021]
      },
      "properties": {
        "cluster_id": "ALERT-20260901-020",
        "alerta_operativa": "media",
        "score": 10.9,
        "n_focos": 2,
        "n_ultimas_6h": 1,
        "n_ultimas_24h": 1,
        "frp_total_mw": 1.6,
        "frp_max_mw": 0.8,
        "edad_min_h": 5.8,
        "ultima_deteccion_utc": "2026-09-01 02:00:00",
        "sensores": "VIIRS_NOAA20_NRT",
        "satellites": "N20",
        "instruments": "VIIRS",
        "popup_label": "<strong>ALERT-20260901-020<\/strong><br>Nivel: media<br>Focos: 2<br>Últimas 6 h: 1<br>FRP total: 1.6 MW<br>Última detección UTC: 2026-09-01 02:00:00"
      }
    },
    {
      "type": "Feature",
      "geometry": {
        "type": "Point",
        "coordinates": [0.1795, 41.9234]
      },
      "properties": {
        "cluster_id": "ALERT-20260901-021",
        "alerta_operativa": "media",
        "score": 10.8,
        "n_focos": 2,
        "n_ultimas_6h": 0,
        "n_ultimas_24h": 2,
        "frp_total_mw": 10,
        "frp_max_mw": 5.3,
        "edad_min_h": 18.1,
        "ultima_deteccion_utc": "2026-08-31 13:42:00",
        "sensores": "VIIRS_NOAA20_NRT",
        "satellites": "N20",
        "instruments": "VIIRS",
        "popup_label": "<strong>ALERT-20260901-021<\/strong><br>Nivel: media<br>Focos: 2<br>Últimas 6 h: 0<br>FRP total: 10 MW<br>Última detección UTC: 2026-08-31 13:42:00"
      }
    },
    {
      "type": "Feature",
      "geometry": {
        "type": "Point",
        "coordinates": [-0.3461, 33.4764]
      },
      "properties": {
        "cluster_id": "ALERT-20260901-022",
        "alerta_operativa": "media",
        "score": 10.2,
        "n_focos": 1,
        "n_ultimas_6h": 1,
        "n_ultimas_24h": 1,
        "frp_total_mw": 2,
        "frp_max_mw": 2,
        "edad_min_h": 5.7,
        "ultima_deteccion_utc": "2026-09-01 02:02:00",
        "sensores": "VIIRS_NOAA20_NRT",
        "satellites": "N20",
        "instruments": "VIIRS",
        "popup_label": "<strong>ALERT-20260901-022<\/strong><br>Nivel: media<br>Focos: 1<br>Últimas 6 h: 1<br>FRP total: 2 MW<br>Última detección UTC: 2026-09-01 02:02:00"
      }
    },
    {
      "type": "Feature",
      "geometry": {
        "type": "Point",
        "coordinates": [-3.2518, 40.6152]
      },
      "properties": {
        "cluster_id": "ALERT-20260901-023",
        "alerta_operativa": "media",
        "score": 10.1,
        "n_focos": 2,
        "n_ultimas_6h": 0,
        "n_ultimas_24h": 2,
        "frp_total_mw": 6.9,
        "frp_max_mw": 5.6,
        "edad_min_h": 18.4,
        "ultima_deteccion_utc": "2026-08-31 13:23:00",
        "sensores": "VIIRS_SNPP_NRT",
        "satellites": "N",
        "instruments": "VIIRS",
        "popup_label": "<strong>ALERT-20260901-023<\/strong><br>Nivel: media<br>Focos: 2<br>Últimas 6 h: 0<br>FRP total: 6.9 MW<br>Última detección UTC: 2026-08-31 13:23:00"
      }
    },
    {
      "type": "Feature",
      "geometry": {
        "type": "Point",
        "coordinates": [0.5396, 40.5784]
      },
      "properties": {
        "cluster_id": "ALERT-20260901-024",
        "alerta_operativa": "media",
        "score": 9.8,
        "n_focos": 1,
        "n_ultimas_6h": 1,
        "n_ultimas_24h": 1,
        "frp_total_mw": 1.5,
        "frp_max_mw": 1.5,
        "edad_min_h": 5.8,
        "ultima_deteccion_utc": "2026-09-01 02:00:00",
        "sensores": "VIIRS_NOAA20_NRT",
        "satellites": "N20",
        "instruments": "VIIRS",
        "popup_label": "<strong>ALERT-20260901-024<\/strong><br>Nivel: media<br>Focos: 1<br>Últimas 6 h: 1<br>FRP total: 1.5 MW<br>Última detección UTC: 2026-09-01 02:00:00"
      }
    },
    {
      "type": "Feature",
      "geometry": {
        "type": "Point",
        "coordinates": [-8.5889, 33.1658]
      },
      "properties": {
        "cluster_id": "ALERT-20260901-025",
        "alerta_operativa": "media",
        "score": 9.6,
        "n_focos": 1,
        "n_ultimas_6h": 1,
        "n_ultimas_24h": 1,
        "frp_total_mw": 1.2,
        "frp_max_mw": 1.2,
        "edad_min_h": 5.7,
        "ultima_deteccion_utc": "2026-09-01 02:02:00",
        "sensores": "VIIRS_NOAA20_NRT",
        "satellites": "N20",
        "instruments": "VIIRS",
        "popup_label": "<strong>ALERT-20260901-025<\/strong><br>Nivel: media<br>Focos: 1<br>Últimas 6 h: 1<br>FRP total: 1.2 MW<br>Última detección UTC: 2026-09-01 02:02:00"
      }
    },
    {
      "type": "Feature",
      "geometry": {
        "type": "Point",
        "coordinates": [-5.6341, 34.46]
      },
      "properties": {
        "cluster_id": "ALERT-20260901-026",
        "alerta_operativa": "media",
        "score": 8.9,
        "n_focos": 1,
        "n_ultimas_6h": 1,
        "n_ultimas_24h": 1,
        "frp_total_mw": 0.6,
        "frp_max_mw": 0.6,
        "edad_min_h": 5.7,
        "ultima_deteccion_utc": "2026-09-01 02:02:00",
        "sensores": "VIIRS_NOAA20_NRT",
        "satellites": "N20",
        "instruments": "VIIRS",
        "popup_label": "<strong>ALERT-20260901-026<\/strong><br>Nivel: media<br>Focos: 1<br>Últimas 6 h: 1<br>FRP total: 0.6 MW<br>Última detección UTC: 2026-09-01 02:02:00"
      }
    },
    {
      "type": "Feature",
      "geometry": {
        "type": "Point",
        "coordinates": [-2.2179, 34.2928]
      },
      "properties": {
        "cluster_id": "ALERT-20260901-027",
        "alerta_operativa": "media",
        "score": 8.7,
        "n_focos": 1,
        "n_ultimas_6h": 1,
        "n_ultimas_24h": 1,
        "frp_total_mw": 0.4,
        "frp_max_mw": 0.4,
        "edad_min_h": 5.7,
        "ultima_deteccion_utc": "2026-09-01 02:02:00",
        "sensores": "VIIRS_NOAA20_NRT",
        "satellites": "N20",
        "instruments": "VIIRS",
        "popup_label": "<strong>ALERT-20260901-027<\/strong><br>Nivel: media<br>Focos: 1<br>Últimas 6 h: 1<br>FRP total: 0.4 MW<br>Última detección UTC: 2026-09-01 02:02:00"
      }
    },
    {
      "type": "Feature",
      "geometry": {
        "type": "Point",
        "coordinates": [-0.2707, 35.8056]
      },
      "properties": {
        "cluster_id": "ALERT-20260901-028",
        "alerta_operativa": "seguimiento",
        "score": 19.3,
        "n_focos": 11,
        "n_ultimas_6h": 0,
        "n_ultimas_24h": 1,
        "frp_total_mw": 22.8,
        "frp_max_mw": 3.8,
        "edad_min_h": 18.1,
        "ultima_deteccion_utc": "2026-08-31 13:40:00",
        "sensores": "VIIRS_NOAA20_NRT, VIIRS_SNPP_NRT",
        "satellites": "N, N20",
        "instruments": "VIIRS",
        "popup_label": "<strong>ALERT-20260901-028<\/strong><br>Nivel: seguimiento<br>Focos: 11<br>Últimas 6 h: 0<br>FRP total: 22.8 MW<br>Última detección UTC: 2026-08-31 13:40:00"
      }
    },
    {
      "type": "Feature",
      "geometry": {
        "type": "Point",
        "coordinates": [-9.0323, 38.8969]
      },
      "properties": {
        "cluster_id": "ALERT-20260901-029",
        "alerta_operativa": "seguimiento",
        "score": 8.6,
        "n_focos": 3,
        "n_ultimas_6h": 0,
        "n_ultimas_24h": 1,
        "frp_total_mw": 5,
        "frp_max_mw": 2.8,
        "edad_min_h": 18.1,
        "ultima_deteccion_utc": "2026-08-31 13:40:00",
        "sensores": "VIIRS_NOAA20_NRT, VIIRS_SNPP_NRT",
        "satellites": "N, N20",
        "instruments": "VIIRS",
        "popup_label": "<strong>ALERT-20260901-029<\/strong><br>Nivel: seguimiento<br>Focos: 3<br>Últimas 6 h: 0<br>FRP total: 5 MW<br>Última detección UTC: 2026-08-31 13:40:00"
      }
    },
    {
      "type": "Feature",
      "geometry": {
        "type": "Point",
        "coordinates": [-0.9374, 35.567]
      },
      "properties": {
        "cluster_id": "ALERT-20260901-030",
        "alerta_operativa": "seguimiento",
        "score": 8.1,
        "n_focos": 3,
        "n_ultimas_6h": 0,
        "n_ultimas_24h": 1,
        "frp_total_mw": 3.7,
        "frp_max_mw": 1.6,
        "edad_min_h": 18.4,
        "ultima_deteccion_utc": "2026-08-31 13:21:00",
        "sensores": "VIIRS_NOAA20_NRT, VIIRS_SNPP_NRT",
        "satellites": "N, N20",
        "instruments": "VIIRS",
        "popup_label": "<strong>ALERT-20260901-030<\/strong><br>Nivel: seguimiento<br>Focos: 3<br>Últimas 6 h: 0<br>FRP total: 3.7 MW<br>Última detección UTC: 2026-08-31 13:21:00"
      }
    },
    {
      "type": "Feature",
      "geometry": {
        "type": "Point",
        "coordinates": [-7.8126, 42.2927]
      },
      "properties": {
        "cluster_id": "ALERT-20260901-031",
        "alerta_operativa": "seguimiento",
        "score": 6.4,
        "n_focos": 1,
        "n_ultimas_6h": 0,
        "n_ultimas_24h": 1,
        "frp_total_mw": 4.6,
        "frp_max_mw": 4.6,
        "edad_min_h": 18.4,
        "ultima_deteccion_utc": "2026-08-31 13:23:00",
        "sensores": "VIIRS_SNPP_NRT",
        "satellites": "N",
        "instruments": "VIIRS",
        "popup_label": "<strong>ALERT-20260901-031<\/strong><br>Nivel: seguimiento<br>Focos: 1<br>Últimas 6 h: 0<br>FRP total: 4.6 MW<br>Última detección UTC: 2026-08-31 13:23:00"
      }
    },
    {
      "type": "Feature",
      "geometry": {
        "type": "Point",
        "coordinates": [3.4524, 36.2684]
      },
      "properties": {
        "cluster_id": "ALERT-20260901-032",
        "alerta_operativa": "seguimiento",
        "score": 6.4,
        "n_focos": 1,
        "n_ultimas_6h": 0,
        "n_ultimas_24h": 1,
        "frp_total_mw": 4.5,
        "frp_max_mw": 4.5,
        "edad_min_h": 19.8,
        "ultima_deteccion_utc": "2026-08-31 12:00:00",
        "sensores": "VIIRS_NOAA20_NRT",
        "satellites": "N20",
        "instruments": "VIIRS",
        "popup_label": "<strong>ALERT-20260901-032<\/strong><br>Nivel: seguimiento<br>Focos: 1<br>Últimas 6 h: 0<br>FRP total: 4.5 MW<br>Última detección UTC: 2026-08-31 12:00:00"
      }
    },
    {
      "type": "Feature",
      "geometry": {
        "type": "Point",
        "coordinates": [-6.9648, 33.8933]
      },
      "properties": {
        "cluster_id": "ALERT-20260901-033",
        "alerta_operativa": "seguimiento",
        "score": 6.1,
        "n_focos": 2,
        "n_ultimas_6h": 0,
        "n_ultimas_24h": 1,
        "frp_total_mw": 1.9,
        "frp_max_mw": 1.2,
        "edad_min_h": 18.1,
        "ultima_deteccion_utc": "2026-08-31 13:40:00",
        "sensores": "VIIRS_NOAA20_NRT",
        "satellites": "N20",
        "instruments": "VIIRS",
        "popup_label": "<strong>ALERT-20260901-033<\/strong><br>Nivel: seguimiento<br>Focos: 2<br>Últimas 6 h: 0<br>FRP total: 1.9 MW<br>Última detección UTC: 2026-08-31 13:40:00"
      }
    },
    {
      "type": "Feature",
      "geometry": {
        "type": "Point",
        "coordinates": [-8.6157, 40.0257]
      },
      "properties": {
        "cluster_id": "ALERT-20260901-034",
        "alerta_operativa": "seguimiento",
        "score": 5.5,
        "n_focos": 1,
        "n_ultimas_6h": 0,
        "n_ultimas_24h": 1,
        "frp_total_mw": 2.5,
        "frp_max_mw": 2.5,
        "edad_min_h": 18.1,
        "ultima_deteccion_utc": "2026-08-31 13:40:00",
        "sensores": "VIIRS_NOAA20_NRT",
        "satellites": "N20",
        "instruments": "VIIRS",
        "popup_label": "<strong>ALERT-20260901-034<\/strong><br>Nivel: seguimiento<br>Focos: 1<br>Últimas 6 h: 0<br>FRP total: 2.5 MW<br>Última detección UTC: 2026-08-31 13:40:00"
      }
    },
    {
      "type": "Feature",
      "geometry": {
        "type": "Point",
        "coordinates": [1.395, 36.2484]
      },
      "properties": {
        "cluster_id": "ALERT-20260901-035",
        "alerta_operativa": "seguimiento",
        "score": 5.4,
        "n_focos": 1,
        "n_ultimas_6h": 0,
        "n_ultimas_24h": 1,
        "frp_total_mw": 2.4,
        "frp_max_mw": 2.4,
        "edad_min_h": 18.4,
        "ultima_deteccion_utc": "2026-08-31 13:21:00",
        "sensores": "VIIRS_SNPP_NRT",
        "satellites": "N",
        "instruments": "VIIRS",
        "popup_label": "<strong>ALERT-20260901-035<\/strong><br>Nivel: seguimiento<br>Focos: 1<br>Últimas 6 h: 0<br>FRP total: 2.4 MW<br>Última detección UTC: 2026-08-31 13:21:00"
      }
    },
    {
      "type": "Feature",
      "geometry": {
        "type": "Point",
        "coordinates": [-8.6163, 39.2168]
      },
      "properties": {
        "cluster_id": "ALERT-20260901-036",
        "alerta_operativa": "seguimiento",
        "score": 5,
        "n_focos": 1,
        "n_ultimas_6h": 0,
        "n_ultimas_24h": 1,
        "frp_total_mw": 1.7,
        "frp_max_mw": 1.7,
        "edad_min_h": 18.1,
        "ultima_deteccion_utc": "2026-08-31 13:40:00",
        "sensores": "VIIRS_NOAA20_NRT",
        "satellites": "N20",
        "instruments": "VIIRS",
        "popup_label": "<strong>ALERT-20260901-036<\/strong><br>Nivel: seguimiento<br>Focos: 1<br>Últimas 6 h: 0<br>FRP total: 1.7 MW<br>Última detección UTC: 2026-08-31 13:40:00"
      }
    },
    {
      "type": "Feature",
      "geometry": {
        "type": "Point",
        "coordinates": [-6.8444, 39.134]
      },
      "properties": {
        "cluster_id": "ALERT-20260901-037",
        "alerta_operativa": "seguimiento",
        "score": 4.9,
        "n_focos": 1,
        "n_ultimas_6h": 0,
        "n_ultimas_24h": 1,
        "frp_total_mw": 1.6,
        "frp_max_mw": 1.6,
        "edad_min_h": 18.4,
        "ultima_deteccion_utc": "2026-08-31 13:23:00",
        "sensores": "VIIRS_SNPP_NRT",
        "satellites": "N",
        "instruments": "VIIRS",
        "popup_label": "<strong>ALERT-20260901-037<\/strong><br>Nivel: seguimiento<br>Focos: 1<br>Últimas 6 h: 0<br>FRP total: 1.6 MW<br>Última detección UTC: 2026-08-31 13:23:00"
      }
    },
    {
      "type": "Feature",
      "geometry": {
        "type": "Point",
        "coordinates": [4.5697, 32.7717]
      },
      "properties": {
        "cluster_id": "ALERT-20260901-038",
        "alerta_operativa": "informativa",
        "score": 11.1,
        "n_focos": 5,
        "n_ultimas_6h": 0,
        "n_ultimas_24h": 0,
        "frp_total_mw": 19.6,
        "frp_max_mw": 6.3,
        "edad_min_h": 29.4,
        "ultima_deteccion_utc": "2026-08-31 02:19:00",
        "sensores": "VIIRS_NOAA20_NRT, VIIRS_SNPP_NRT",
        "satellites": "N, N20",
        "instruments": "VIIRS",
        "popup_label": "<strong>ALERT-20260901-038<\/strong><br>Nivel: informativa<br>Focos: 5<br>Últimas 6 h: 0<br>FRP total: 19.6 MW<br>Última detección UTC: 2026-08-31 02:19:00"
      }
    },
    {
      "type": "Feature",
      "geometry": {
        "type": "Point",
        "coordinates": [4.4463, 35.8785]
      },
      "properties": {
        "cluster_id": "ALERT-20260901-039",
        "alerta_operativa": "informativa",
        "score": 10.8,
        "n_focos": 6,
        "n_ultimas_6h": 0,
        "n_ultimas_24h": 0,
        "frp_total_mw": 9.9,
        "frp_max_mw": 2.4,
        "edad_min_h": 29.4,
        "ultima_deteccion_utc": "2026-08-31 02:19:00",
        "sensores": "VIIRS_NOAA20_NRT, VIIRS_SNPP_NRT",
        "satellites": "N, N20",
        "instruments": "VIIRS",
        "popup_label": "<strong>ALERT-20260901-039<\/strong><br>Nivel: informativa<br>Focos: 6<br>Últimas 6 h: 0<br>FRP total: 9.9 MW<br>Última detección UTC: 2026-08-31 02:19:00"
      }
    },
    {
      "type": "Feature",
      "geometry": {
        "type": "Point",
        "coordinates": [-2.3466, 34.596]
      },
      "properties": {
        "cluster_id": "ALERT-20260901-040",
        "alerta_operativa": "informativa",
        "score": 5.5,
        "n_focos": 3,
        "n_ultimas_6h": 0,
        "n_ultimas_24h": 0,
        "frp_total_mw": 2.5,
        "frp_max_mw": 1.1,
        "edad_min_h": 29.4,
        "ultima_deteccion_utc": "2026-08-31 02:19:00",
        "sensores": "VIIRS_NOAA20_NRT, VIIRS_SNPP_NRT",
        "satellites": "N, N20",
        "instruments": "VIIRS",
        "popup_label": "<strong>ALERT-20260901-040<\/strong><br>Nivel: informativa<br>Focos: 3<br>Últimas 6 h: 0<br>FRP total: 2.5 MW<br>Última detección UTC: 2026-08-31 02:19:00"
      }
    },
    {
      "type": "Feature",
      "geometry": {
        "type": "Point",
        "coordinates": [-6.2835, 37.3637]
      },
      "properties": {
        "cluster_id": "ALERT-20260901-041",
        "alerta_operativa": "informativa",
        "score": 5.1,
        "n_focos": 1,
        "n_ultimas_6h": 0,
        "n_ultimas_24h": 0,
        "frp_total_mw": 6.7,
        "frp_max_mw": 6.7,
        "edad_min_h": 29.4,
        "ultima_deteccion_utc": "2026-08-31 02:19:00",
        "sensores": "VIIRS_NOAA20_NRT",
        "satellites": "N20",
        "instruments": "VIIRS",
        "popup_label": "<strong>ALERT-20260901-041<\/strong><br>Nivel: informativa<br>Focos: 1<br>Últimas 6 h: 0<br>FRP total: 6.7 MW<br>Última detección UTC: 2026-08-31 02:19:00"
      }
    },
    {
      "type": "Feature",
      "geometry": {
        "type": "Point",
        "coordinates": [1.2421, 36.1295]
      },
      "properties": {
        "cluster_id": "ALERT-20260901-042",
        "alerta_operativa": "informativa",
        "score": 5.1,
        "n_focos": 2,
        "n_ultimas_6h": 0,
        "n_ultimas_24h": 0,
        "frp_total_mw": 3.6,
        "frp_max_mw": 2.7,
        "edad_min_h": 29.4,
        "ultima_deteccion_utc": "2026-08-31 02:19:00",
        "sensores": "VIIRS_NOAA20_NRT, VIIRS_SNPP_NRT",
        "satellites": "N, N20",
        "instruments": "VIIRS",
        "popup_label": "<strong>ALERT-20260901-042<\/strong><br>Nivel: informativa<br>Focos: 2<br>Últimas 6 h: 0<br>FRP total: 3.6 MW<br>Última detección UTC: 2026-08-31 02:19:00"
      }
    },
    {
      "type": "Feature",
      "geometry": {
        "type": "Point",
        "coordinates": [2.9282, 36.1393]
      },
      "properties": {
        "cluster_id": "ALERT-20260901-043",
        "alerta_operativa": "informativa",
        "score": 5.1,
        "n_focos": 3,
        "n_ultimas_6h": 0,
        "n_ultimas_24h": 0,
        "frp_total_mw": 1.9,
        "frp_max_mw": 0.7,
        "edad_min_h": 29.4,
        "ultima_deteccion_utc": "2026-08-31 02:19:00",
        "sensores": "VIIRS_NOAA20_NRT, VIIRS_SNPP_NRT",
        "satellites": "N, N20",
        "instruments": "VIIRS",
        "popup_label": "<strong>ALERT-20260901-043<\/strong><br>Nivel: informativa<br>Focos: 3<br>Últimas 6 h: 0<br>FRP total: 1.9 MW<br>Última detección UTC: 2026-08-31 02:19:00"
      }
    },
    {
      "type": "Feature",
      "geometry": {
        "type": "Point",
        "coordinates": [-4.4286, 41.9855]
      },
      "properties": {
        "cluster_id": "ALERT-20260901-044",
        "alerta_operativa": "informativa",
        "score": 4.8,
        "n_focos": 2,
        "n_ultimas_6h": 0,
        "n_ultimas_24h": 0,
        "frp_total_mw": 3,
        "frp_max_mw": 1.9,
        "edad_min_h": 29.5,
        "ultima_deteccion_utc": "2026-08-31 02:17:00",
        "sensores": "VIIRS_NOAA20_NRT, VIIRS_SNPP_NRT",
        "satellites": "N, N20",
        "instruments": "VIIRS",
        "popup_label": "<strong>ALERT-20260901-044<\/strong><br>Nivel: informativa<br>Focos: 2<br>Últimas 6 h: 0<br>FRP total: 3 MW<br>Última detección UTC: 2026-08-31 02:17:00"
      }
    },
    {
      "type": "Feature",
      "geometry": {
        "type": "Point",
        "coordinates": [4.0063, 32.4009]
      },
      "properties": {
        "cluster_id": "ALERT-20260901-045",
        "alerta_operativa": "informativa",
        "score": 4.6,
        "n_focos": 2,
        "n_ultimas_6h": 0,
        "n_ultimas_24h": 0,
        "frp_total_mw": 2.6,
        "frp_max_mw": 1.4,
        "edad_min_h": 29.4,
        "ultima_deteccion_utc": "2026-08-31 02:19:00",
        "sensores": "VIIRS_NOAA20_NRT, VIIRS_SNPP_NRT",
        "satellites": "N, N20",
        "instruments": "VIIRS",
        "popup_label": "<strong>ALERT-20260901-045<\/strong><br>Nivel: informativa<br>Focos: 2<br>Últimas 6 h: 0<br>FRP total: 2.6 MW<br>Última detección UTC: 2026-08-31 02:19:00"
      }
    },
    {
      "type": "Feature",
      "geometry": {
        "type": "Point",
        "coordinates": [1.3556, 35.3415]
      },
      "properties": {
        "cluster_id": "ALERT-20260901-046",
        "alerta_operativa": "informativa",
        "score": 4.6,
        "n_focos": 2,
        "n_ultimas_6h": 0,
        "n_ultimas_24h": 0,
        "frp_total_mw": 2.6,
        "frp_max_mw": 1.9,
        "edad_min_h": 29.4,
        "ultima_deteccion_utc": "2026-08-31 02:19:00",
        "sensores": "VIIRS_NOAA20_NRT, VIIRS_SNPP_NRT",
        "satellites": "N, N20",
        "instruments": "VIIRS",
        "popup_label": "<strong>ALERT-20260901-046<\/strong><br>Nivel: informativa<br>Focos: 2<br>Últimas 6 h: 0<br>FRP total: 2.6 MW<br>Última detección UTC: 2026-08-31 02:19:00"
      }
    },
    {
      "type": "Feature",
      "geometry": {
        "type": "Point",
        "coordinates": [-6.7194, 38.3201]
      },
      "properties": {
        "cluster_id": "ALERT-20260901-047",
        "alerta_operativa": "informativa",
        "score": 4.4,
        "n_focos": 2,
        "n_ultimas_6h": 0,
        "n_ultimas_24h": 0,
        "frp_total_mw": 2.4,
        "frp_max_mw": 1.4,
        "edad_min_h": 29.4,
        "ultima_deteccion_utc": "2026-08-31 02:19:00",
        "sensores": "VIIRS_NOAA20_NRT, VIIRS_SNPP_NRT",
        "satellites": "N, N20",
        "instruments": "VIIRS",
        "popup_label": "<strong>ALERT-20260901-047<\/strong><br>Nivel: informativa<br>Focos: 2<br>Últimas 6 h: 0<br>FRP total: 2.4 MW<br>Última detección UTC: 2026-08-31 02:19:00"
      }
    },
    {
      "type": "Feature",
      "geometry": {
        "type": "Point",
        "coordinates": [-5.4233, 36.1789]
      },
      "properties": {
        "cluster_id": "ALERT-20260901-048",
        "alerta_operativa": "informativa",
        "score": 4.1,
        "n_focos": 2,
        "n_ultimas_6h": 0,
        "n_ultimas_24h": 0,
        "frp_total_mw": 1.9,
        "frp_max_mw": 0.9,
        "edad_min_h": 29.4,
        "ultima_deteccion_utc": "2026-08-31 02:19:00",
        "sensores": "VIIRS_NOAA20_NRT",
        "satellites": "N20",
        "instruments": "VIIRS",
        "popup_label": "<strong>ALERT-20260901-048<\/strong><br>Nivel: informativa<br>Focos: 2<br>Últimas 6 h: 0<br>FRP total: 1.9 MW<br>Última detección UTC: 2026-08-31 02:19:00"
      }
    },
    {
      "type": "Feature",
      "geometry": {
        "type": "Point",
        "coordinates": [-7.1489, 32.989]
      },
      "properties": {
        "cluster_id": "ALERT-20260901-049",
        "alerta_operativa": "informativa",
        "score": 3.8,
        "n_focos": 2,
        "n_ultimas_6h": 0,
        "n_ultimas_24h": 0,
        "frp_total_mw": 1.5,
        "frp_max_mw": 0.8,
        "edad_min_h": 29.4,
        "ultima_deteccion_utc": "2026-08-31 02:19:00",
        "sensores": "VIIRS_NOAA20_NRT, VIIRS_SNPP_NRT",
        "satellites": "N, N20",
        "instruments": "VIIRS",
        "popup_label": "<strong>ALERT-20260901-049<\/strong><br>Nivel: informativa<br>Focos: 2<br>Últimas 6 h: 0<br>FRP total: 1.5 MW<br>Última detección UTC: 2026-08-31 02:19:00"
      }
    },
    {
      "type": "Feature",
      "geometry": {
        "type": "Point",
        "coordinates": [-8.4342, 43.3462]
      },
      "properties": {
        "cluster_id": "ALERT-20260901-050",
        "alerta_operativa": "informativa",
        "score": 3.7,
        "n_focos": 2,
        "n_ultimas_6h": 0,
        "n_ultimas_24h": 0,
        "frp_total_mw": 1.3,
        "frp_max_mw": 0.9,
        "edad_min_h": 29.5,
        "ultima_deteccion_utc": "2026-08-31 02:17:00",
        "sensores": "VIIRS_NOAA20_NRT, VIIRS_SNPP_NRT",
        "satellites": "N, N20",
        "instruments": "VIIRS",
        "popup_label": "<strong>ALERT-20260901-050<\/strong><br>Nivel: informativa<br>Focos: 2<br>Últimas 6 h: 0<br>FRP total: 1.3 MW<br>Última detección UTC: 2026-08-31 02:17:00"
      }
    },
    {
      "type": "Feature",
      "geometry": {
        "type": "Point",
        "coordinates": [0.5401, 35.7844]
      },
      "properties": {
        "cluster_id": "ALERT-20260901-051",
        "alerta_operativa": "informativa",
        "score": 3.1,
        "n_focos": 1,
        "n_ultimas_6h": 0,
        "n_ultimas_24h": 0,
        "frp_total_mw": 1.8,
        "frp_max_mw": 1.8,
        "edad_min_h": 29.4,
        "ultima_deteccion_utc": "2026-08-31 02:19:00",
        "sensores": "VIIRS_NOAA20_NRT",
        "satellites": "N20",
        "instruments": "VIIRS",
        "popup_label": "<strong>ALERT-20260901-051<\/strong><br>Nivel: informativa<br>Focos: 1<br>Últimas 6 h: 0<br>FRP total: 1.8 MW<br>Última detección UTC: 2026-08-31 02:19:00"
      }
    },
    {
      "type": "Feature",
      "geometry": {
        "type": "Point",
        "coordinates": [-4.8611, 34.4853]
      },
      "properties": {
        "cluster_id": "ALERT-20260901-052",
        "alerta_operativa": "informativa",
        "score": 3.1,
        "n_focos": 2,
        "n_ultimas_6h": 0,
        "n_ultimas_24h": 0,
        "frp_total_mw": 0.7,
        "frp_max_mw": 0.4,
        "edad_min_h": 29.4,
        "ultima_deteccion_utc": "2026-08-31 02:19:00",
        "sensores": "VIIRS_NOAA20_NRT, VIIRS_SNPP_NRT",
        "satellites": "N, N20",
        "instruments": "VIIRS",
        "popup_label": "<strong>ALERT-20260901-052<\/strong><br>Nivel: informativa<br>Focos: 2<br>Últimas 6 h: 0<br>FRP total: 0.7 MW<br>Última detección UTC: 2026-08-31 02:19:00"
      }
    },
    {
      "type": "Feature",
      "geometry": {
        "type": "Point",
        "coordinates": [0.3278, 34.7996]
      },
      "properties": {
        "cluster_id": "ALERT-20260901-053",
        "alerta_operativa": "informativa",
        "score": 2.3,
        "n_focos": 1,
        "n_ultimas_6h": 0,
        "n_ultimas_24h": 0,
        "frp_total_mw": 0.9,
        "frp_max_mw": 0.9,
        "edad_min_h": 29.4,
        "ultima_deteccion_utc": "2026-08-31 02:19:00",
        "sensores": "VIIRS_NOAA20_NRT",
        "satellites": "N20",
        "instruments": "VIIRS",
        "popup_label": "<strong>ALERT-20260901-053<\/strong><br>Nivel: informativa<br>Focos: 1<br>Últimas 6 h: 0<br>FRP total: 0.9 MW<br>Última detección UTC: 2026-08-31 02:19:00"
      }
    },
    {
      "type": "Feature",
      "geometry": {
        "type": "Point",
        "coordinates": [-6.4842, 38.3797]
      },
      "properties": {
        "cluster_id": "ALERT-20260901-054",
        "alerta_operativa": "informativa",
        "score": 2.2,
        "n_focos": 1,
        "n_ultimas_6h": 0,
        "n_ultimas_24h": 0,
        "frp_total_mw": 0.8,
        "frp_max_mw": 0.8,
        "edad_min_h": 29.4,
        "ultima_deteccion_utc": "2026-08-31 02:19:00",
        "sensores": "VIIRS_NOAA20_NRT",
        "satellites": "N20",
        "instruments": "VIIRS",
        "popup_label": "<strong>ALERT-20260901-054<\/strong><br>Nivel: informativa<br>Focos: 1<br>Últimas 6 h: 0<br>FRP total: 0.8 MW<br>Última detección UTC: 2026-08-31 02:19:00"
      }
    },
    {
      "type": "Feature",
      "geometry": {
        "type": "Point",
        "coordinates": [-8.4189, 40.2896]
      },
      "properties": {
        "cluster_id": "ALERT-20260901-055",
        "alerta_operativa": "informativa",
        "score": 2.2,
        "n_focos": 1,
        "n_ultimas_6h": 0,
        "n_ultimas_24h": 0,
        "frp_total_mw": 0.8,
        "frp_max_mw": 0.8,
        "edad_min_h": 29.5,
        "ultima_deteccion_utc": "2026-08-31 02:17:00",
        "sensores": "VIIRS_NOAA20_NRT",
        "satellites": "N20",
        "instruments": "VIIRS",
        "popup_label": "<strong>ALERT-20260901-055<\/strong><br>Nivel: informativa<br>Focos: 1<br>Últimas 6 h: 0<br>FRP total: 0.8 MW<br>Última detección UTC: 2026-08-31 02:17:00"
      }
    },
    {
      "type": "Feature",
      "geometry": {
        "type": "Point",
        "coordinates": [-0.3957, 35.4609]
      },
      "properties": {
        "cluster_id": "ALERT-20260901-056",
        "alerta_operativa": "informativa",
        "score": 2.1,
        "n_focos": 1,
        "n_ultimas_6h": 0,
        "n_ultimas_24h": 0,
        "frp_total_mw": 0.7,
        "frp_max_mw": 0.7,
        "edad_min_h": 29.8,
        "ultima_deteccion_utc": "2026-08-31 02:00:00",
        "sensores": "VIIRS_SNPP_NRT",
        "satellites": "N",
        "instruments": "VIIRS",
        "popup_label": "<strong>ALERT-20260901-056<\/strong><br>Nivel: informativa<br>Focos: 1<br>Últimas 6 h: 0<br>FRP total: 0.7 MW<br>Última detección UTC: 2026-08-31 02:00:00"
      }
    },
    {
      "type": "Feature",
      "geometry": {
        "type": "Point",
        "coordinates": [-6.7681, 42.5518]
      },
      "properties": {
        "cluster_id": "ALERT-20260901-057",
        "alerta_operativa": "informativa",
        "score": 2.1,
        "n_focos": 1,
        "n_ultimas_6h": 0,
        "n_ultimas_24h": 0,
        "frp_total_mw": 0.7,
        "frp_max_mw": 0.7,
        "edad_min_h": 29.8,
        "ultima_deteccion_utc": "2026-08-31 01:58:00",
        "sensores": "VIIRS_SNPP_NRT",
        "satellites": "N",
        "instruments": "VIIRS",
        "popup_label": "<strong>ALERT-20260901-057<\/strong><br>Nivel: informativa<br>Focos: 1<br>Últimas 6 h: 0<br>FRP total: 0.7 MW<br>Última detección UTC: 2026-08-31 01:58:00"
      }
    },
    {
      "type": "Feature",
      "geometry": {
        "type": "Point",
        "coordinates": [-4.3319, 36.7159]
      },
      "properties": {
        "cluster_id": "ALERT-20260901-058",
        "alerta_operativa": "informativa",
        "score": 1.9,
        "n_focos": 1,
        "n_ultimas_6h": 0,
        "n_ultimas_24h": 0,
        "frp_total_mw": 0.6,
        "frp_max_mw": 0.6,
        "edad_min_h": 29.4,
        "ultima_deteccion_utc": "2026-08-31 02:19:00",
        "sensores": "VIIRS_NOAA20_NRT",
        "satellites": "N20",
        "instruments": "VIIRS",
        "popup_label": "<strong>ALERT-20260901-058<\/strong><br>Nivel: informativa<br>Focos: 1<br>Últimas 6 h: 0<br>FRP total: 0.6 MW<br>Última detección UTC: 2026-08-31 02:19:00"
      }
    },
    {
      "type": "Feature",
      "geometry": {
        "type": "Point",
        "coordinates": [-2.7741, 43.2056]
      },
      "properties": {
        "cluster_id": "ALERT-20260901-059",
        "alerta_operativa": "informativa",
        "score": 1.9,
        "n_focos": 1,
        "n_ultimas_6h": 0,
        "n_ultimas_24h": 0,
        "frp_total_mw": 0.6,
        "frp_max_mw": 0.6,
        "edad_min_h": 29.5,
        "ultima_deteccion_utc": "2026-08-31 02:17:00",
        "sensores": "VIIRS_NOAA20_NRT",
        "satellites": "N20",
        "instruments": "VIIRS",
        "popup_label": "<strong>ALERT-20260901-059<\/strong><br>Nivel: informativa<br>Focos: 1<br>Últimas 6 h: 0<br>FRP total: 0.6 MW<br>Última detección UTC: 2026-08-31 02:17:00"
      }
    },
    {
      "type": "Feature",
      "geometry": {
        "type": "Point",
        "coordinates": [-6.6723, 37.3578]
      },
      "properties": {
        "cluster_id": "ALERT-20260901-060",
        "alerta_operativa": "informativa",
        "score": 1.8,
        "n_focos": 1,
        "n_ultimas_6h": 0,
        "n_ultimas_24h": 0,
        "frp_total_mw": 0.5,
        "frp_max_mw": 0.5,
        "edad_min_h": 29.8,
        "ultima_deteccion_utc": "2026-08-31 02:00:00",
        "sensores": "VIIRS_SNPP_NRT",
        "satellites": "N",
        "instruments": "VIIRS",
        "popup_label": "<strong>ALERT-20260901-060<\/strong><br>Nivel: informativa<br>Focos: 1<br>Últimas 6 h: 0<br>FRP total: 0.5 MW<br>Última detección UTC: 2026-08-31 02:00:00"
      }
    },
    {
      "type": "Feature",
      "geometry": {
        "type": "Point",
        "coordinates": [-1.7421, 42.8134]
      },
      "properties": {
        "cluster_id": "ALERT-20260901-061",
        "alerta_operativa": "informativa",
        "score": 1.8,
        "n_focos": 1,
        "n_ultimas_6h": 0,
        "n_ultimas_24h": 0,
        "frp_total_mw": 0.5,
        "frp_max_mw": 0.5,
        "edad_min_h": 29.5,
        "ultima_deteccion_utc": "2026-08-31 02:17:00",
        "sensores": "VIIRS_NOAA20_NRT",
        "satellites": "N20",
        "instruments": "VIIRS",
        "popup_label": "<strong>ALERT-20260901-061<\/strong><br>Nivel: informativa<br>Focos: 1<br>Últimas 6 h: 0<br>FRP total: 0.5 MW<br>Última detección UTC: 2026-08-31 02:17:00"
      }
    },
    {
      "type": "Feature",
      "geometry": {
        "type": "Point",
        "coordinates": [-1.5119, 42.9213]
      },
      "properties": {
        "cluster_id": "ALERT-20260901-062",
        "alerta_operativa": "informativa",
        "score": 1.7,
        "n_focos": 1,
        "n_ultimas_6h": 0,
        "n_ultimas_24h": 0,
        "frp_total_mw": 0.4,
        "frp_max_mw": 0.4,
        "edad_min_h": 29.5,
        "ultima_deteccion_utc": "2026-08-31 02:17:00",
        "sensores": "VIIRS_NOAA20_NRT",
        "satellites": "N20",
        "instruments": "VIIRS",
        "popup_label": "<strong>ALERT-20260901-062<\/strong><br>Nivel: informativa<br>Focos: 1<br>Últimas 6 h: 0<br>FRP total: 0.4 MW<br>Última detección UTC: 2026-08-31 02:17:00"
      }
    }
  ]
}
