{
  "type": "FeatureCollection",
  "features": [
    {
      "type": "Feature",
      "geometry": {
        "type": "Point",
        "coordinates": [-7.3395, 37.2659]
      },
      "properties": {
        "cluster_id": "ALERT-20260920-001",
        "alerta_operativa": "alta",
        "score": 91.7,
        "n_focos": 75,
        "n_ultimas_6h": 0,
        "n_ultimas_24h": 0,
        "frp_total_mw": 4235.5,
        "frp_max_mw": 408.6,
        "edad_min_h": 31.2,
        "ultima_deteccion_utc": "2026-09-19 14:22:00",
        "sensores": "VIIRS_NOAA20_NRT, VIIRS_SNPP_NRT",
        "satellites": "N, N20",
        "instruments": "VIIRS",
        "popup_label": "<strong>ALERT-20260920-001<\/strong><br>Nivel: alta<br>Focos: 75<br>Últimas 6 h: 0<br>FRP total: 4235.5 MW<br>Última detección UTC: 2026-09-19 14:22:00"
      }
    },
    {
      "type": "Feature",
      "geometry": {
        "type": "Point",
        "coordinates": [-8.1839, 40.2209]
      },
      "properties": {
        "cluster_id": "ALERT-20260920-002",
        "alerta_operativa": "alta",
        "score": 45.7,
        "n_focos": 31,
        "n_ultimas_6h": 0,
        "n_ultimas_24h": 0,
        "frp_total_mw": 1541.6,
        "frp_max_mw": 206.9,
        "edad_min_h": 31.1,
        "ultima_deteccion_utc": "2026-09-19 14:25:00",
        "sensores": "VIIRS_NOAA20_NRT, VIIRS_SNPP_NRT",
        "satellites": "N, N20",
        "instruments": "VIIRS",
        "popup_label": "<strong>ALERT-20260920-002<\/strong><br>Nivel: alta<br>Focos: 31<br>Últimas 6 h: 0<br>FRP total: 1541.6 MW<br>Última detección UTC: 2026-09-19 14:25:00"
      }
    },
    {
      "type": "Feature",
      "geometry": {
        "type": "Point",
        "coordinates": [1.2308, 41.1804]
      },
      "properties": {
        "cluster_id": "ALERT-20260920-003",
        "alerta_operativa": "alta",
        "score": 26.4,
        "n_focos": 16,
        "n_ultimas_6h": 0,
        "n_ultimas_24h": 0,
        "frp_total_mw": 178.6,
        "frp_max_mw": 28.2,
        "edad_min_h": 31.4,
        "ultima_deteccion_utc": "2026-09-19 14:05:00",
        "sensores": "VIIRS_NOAA20_NRT, VIIRS_SNPP_NRT",
        "satellites": "N, N20",
        "instruments": "VIIRS",
        "popup_label": "<strong>ALERT-20260920-003<\/strong><br>Nivel: alta<br>Focos: 16<br>Últimas 6 h: 0<br>FRP total: 178.6 MW<br>Última detección UTC: 2026-09-19 14:05:00"
      }
    },
    {
      "type": "Feature",
      "geometry": {
        "type": "Point",
        "coordinates": [4.8962, 43.442]
      },
      "properties": {
        "cluster_id": "ALERT-20260920-004",
        "alerta_operativa": "media",
        "score": 133.7,
        "n_focos": 56,
        "n_ultimas_6h": 0,
        "n_ultimas_24h": 34,
        "frp_total_mw": 129.4,
        "frp_max_mw": 10.2,
        "edad_min_h": 9.1,
        "ultima_deteccion_utc": "2026-09-20 12:25:00",
        "sensores": "VIIRS_NOAA20_NRT, VIIRS_SNPP_NRT",
        "satellites": "N, N20",
        "instruments": "VIIRS",
        "popup_label": "<strong>ALERT-20260920-004<\/strong><br>Nivel: media<br>Focos: 56<br>Últimas 6 h: 0<br>FRP total: 129.4 MW<br>Última detección UTC: 2026-09-20 12:25:00"
      }
    },
    {
      "type": "Feature",
      "geometry": {
        "type": "Point",
        "coordinates": [-0.258, 35.8071]
      },
      "properties": {
        "cluster_id": "ALERT-20260920-005",
        "alerta_operativa": "media",
        "score": 101.7,
        "n_focos": 42,
        "n_ultimas_6h": 0,
        "n_ultimas_24h": 25,
        "frp_total_mw": 128.4,
        "frp_max_mw": 12.6,
        "edad_min_h": 7.8,
        "ultima_deteccion_utc": "2026-09-20 13:46:00",
        "sensores": "VIIRS_NOAA20_NRT, VIIRS_SNPP_NRT",
        "satellites": "N, N20",
        "instruments": "VIIRS",
        "popup_label": "<strong>ALERT-20260920-005<\/strong><br>Nivel: media<br>Focos: 42<br>Últimas 6 h: 0<br>FRP total: 128.4 MW<br>Última detección UTC: 2026-09-20 13:46:00"
      }
    },
    {
      "type": "Feature",
      "geometry": {
        "type": "Point",
        "coordinates": [-5.7652, 43.5316]
      },
      "properties": {
        "cluster_id": "ALERT-20260920-006",
        "alerta_operativa": "media",
        "score": 81.6,
        "n_focos": 34,
        "n_ultimas_6h": 0,
        "n_ultimas_24h": 19,
        "frp_total_mw": 122.1,
        "frp_max_mw": 19.6,
        "edad_min_h": 7.4,
        "ultima_deteccion_utc": "2026-09-20 14:08:00",
        "sensores": "VIIRS_NOAA20_NRT, VIIRS_SNPP_NRT",
        "satellites": "N, N20",
        "instruments": "VIIRS",
        "popup_label": "<strong>ALERT-20260920-006<\/strong><br>Nivel: media<br>Focos: 34<br>Últimas 6 h: 0<br>FRP total: 122.1 MW<br>Última detección UTC: 2026-09-20 14:08:00"
      }
    },
    {
      "type": "Feature",
      "geometry": {
        "type": "Point",
        "coordinates": [3.9869, 32.2772]
      },
      "properties": {
        "cluster_id": "ALERT-20260920-007",
        "alerta_operativa": "media",
        "score": 53.3,
        "n_focos": 21,
        "n_ultimas_6h": 0,
        "n_ultimas_24h": 12,
        "frp_total_mw": 62.6,
        "frp_max_mw": 6.9,
        "edad_min_h": 9.1,
        "ultima_deteccion_utc": "2026-09-20 12:23:00",
        "sensores": "VIIRS_NOAA20_NRT, VIIRS_SNPP_NRT",
        "satellites": "N, N20",
        "instruments": "VIIRS",
        "popup_label": "<strong>ALERT-20260920-007<\/strong><br>Nivel: media<br>Focos: 21<br>Últimas 6 h: 0<br>FRP total: 62.6 MW<br>Última detección UTC: 2026-09-20 12:23:00"
      }
    },
    {
      "type": "Feature",
      "geometry": {
        "type": "Point",
        "coordinates": [-3.4749, 40.2447]
      },
      "properties": {
        "cluster_id": "ALERT-20260920-008",
        "alerta_operativa": "media",
        "score": 43.8,
        "n_focos": 18,
        "n_ultimas_6h": 0,
        "n_ultimas_24h": 9,
        "frp_total_mw": 48.6,
        "frp_max_mw": 4.9,
        "edad_min_h": 7.4,
        "ultima_deteccion_utc": "2026-09-20 14:05:00",
        "sensores": "VIIRS_NOAA20_NRT, VIIRS_SNPP_NRT",
        "satellites": "N, N20",
        "instruments": "VIIRS",
        "popup_label": "<strong>ALERT-20260920-008<\/strong><br>Nivel: media<br>Focos: 18<br>Últimas 6 h: 0<br>FRP total: 48.6 MW<br>Última detección UTC: 2026-09-20 14:05:00"
      }
    },
    {
      "type": "Feature",
      "geometry": {
        "type": "Point",
        "coordinates": [-5.6766, 35.7092]
      },
      "properties": {
        "cluster_id": "ALERT-20260920-009",
        "alerta_operativa": "media",
        "score": 41.2,
        "n_focos": 13,
        "n_ultimas_6h": 0,
        "n_ultimas_24h": 10,
        "frp_total_mw": 59.9,
        "frp_max_mw": 10.7,
        "edad_min_h": 18.8,
        "ultima_deteccion_utc": "2026-09-20 02:45:00",
        "sensores": "VIIRS_NOAA20_NRT, VIIRS_SNPP_NRT",
        "satellites": "N, N20",
        "instruments": "VIIRS",
        "popup_label": "<strong>ALERT-20260920-009<\/strong><br>Nivel: media<br>Focos: 13<br>Últimas 6 h: 0<br>FRP total: 59.9 MW<br>Última detección UTC: 2026-09-20 02:45:00"
      }
    },
    {
      "type": "Feature",
      "geometry": {
        "type": "Point",
        "coordinates": [3.3316, 33.1226]
      },
      "properties": {
        "cluster_id": "ALERT-20260920-010",
        "alerta_operativa": "media",
        "score": 27.8,
        "n_focos": 16,
        "n_ultimas_6h": 0,
        "n_ultimas_24h": 3,
        "frp_total_mw": 17.3,
        "frp_max_mw": 4.4,
        "edad_min_h": 20.8,
        "ultima_deteccion_utc": "2026-09-20 00:45:00",
        "sensores": "VIIRS_NOAA20_NRT, VIIRS_SNPP_NRT",
        "satellites": "N, N20",
        "instruments": "VIIRS",
        "popup_label": "<strong>ALERT-20260920-010<\/strong><br>Nivel: media<br>Focos: 16<br>Últimas 6 h: 0<br>FRP total: 17.3 MW<br>Última detección UTC: 2026-09-20 00:45:00"
      }
    },
    {
      "type": "Feature",
      "geometry": {
        "type": "Point",
        "coordinates": [-0.5175, 28.1996]
      },
      "properties": {
        "cluster_id": "ALERT-20260920-011",
        "alerta_operativa": "media",
        "score": 24.4,
        "n_focos": 7,
        "n_ultimas_6h": 0,
        "n_ultimas_24h": 6,
        "frp_total_mw": 13.8,
        "frp_max_mw": 3.9,
        "edad_min_h": 7.5,
        "ultima_deteccion_utc": "2026-09-20 14:03:00",
        "sensores": "VIIRS_NOAA20_NRT, VIIRS_SNPP_NRT",
        "satellites": "N, N20",
        "instruments": "VIIRS",
        "popup_label": "<strong>ALERT-20260920-011<\/strong><br>Nivel: media<br>Focos: 7<br>Últimas 6 h: 0<br>FRP total: 13.8 MW<br>Última detección UTC: 2026-09-20 14:03:00"
      }
    },
    {
      "type": "Feature",
      "geometry": {
        "type": "Point",
        "coordinates": [-2.8085, 42.4592]
      },
      "properties": {
        "cluster_id": "ALERT-20260920-012",
        "alerta_operativa": "media",
        "score": 21.9,
        "n_focos": 5,
        "n_ultimas_6h": 0,
        "n_ultimas_24h": 5,
        "frp_total_mw": 30.9,
        "frp_max_mw": 8.8,
        "edad_min_h": 7.4,
        "ultima_deteccion_utc": "2026-09-20 14:08:00",
        "sensores": "VIIRS_NOAA20_NRT, VIIRS_SNPP_NRT",
        "satellites": "N, N20",
        "instruments": "VIIRS",
        "popup_label": "<strong>ALERT-20260920-012<\/strong><br>Nivel: media<br>Focos: 5<br>Últimas 6 h: 0<br>FRP total: 30.9 MW<br>Última detección UTC: 2026-09-20 14:08:00"
      }
    },
    {
      "type": "Feature",
      "geometry": {
        "type": "Point",
        "coordinates": [3.1671, 32.5559]
      },
      "properties": {
        "cluster_id": "ALERT-20260920-013",
        "alerta_operativa": "media",
        "score": 21.6,
        "n_focos": 8,
        "n_ultimas_6h": 0,
        "n_ultimas_24h": 4,
        "frp_total_mw": 15.3,
        "frp_max_mw": 4.3,
        "edad_min_h": 18.8,
        "ultima_deteccion_utc": "2026-09-20 02:45:00",
        "sensores": "VIIRS_NOAA20_NRT, VIIRS_SNPP_NRT",
        "satellites": "N, N20",
        "instruments": "VIIRS",
        "popup_label": "<strong>ALERT-20260920-013<\/strong><br>Nivel: media<br>Focos: 8<br>Últimas 6 h: 0<br>FRP total: 15.3 MW<br>Última detección UTC: 2026-09-20 02:45:00"
      }
    },
    {
      "type": "Feature",
      "geometry": {
        "type": "Point",
        "coordinates": [-6.3115, 38.8843]
      },
      "properties": {
        "cluster_id": "ALERT-20260920-014",
        "alerta_operativa": "media",
        "score": 20.6,
        "n_focos": 4,
        "n_ultimas_6h": 0,
        "n_ultimas_24h": 4,
        "frp_total_mw": 71.1,
        "frp_max_mw": 23.8,
        "edad_min_h": 7.4,
        "ultima_deteccion_utc": "2026-09-20 14:05:00",
        "sensores": "VIIRS_NOAA20_NRT, VIIRS_SNPP_NRT",
        "satellites": "N, N20",
        "instruments": "VIIRS",
        "popup_label": "<strong>ALERT-20260920-014<\/strong><br>Nivel: media<br>Focos: 4<br>Últimas 6 h: 0<br>FRP total: 71.1 MW<br>Última detección UTC: 2026-09-20 14:05:00"
      }
    },
    {
      "type": "Feature",
      "geometry": {
        "type": "Point",
        "coordinates": [0.1173, 44.1407]
      },
      "properties": {
        "cluster_id": "ALERT-20260920-015",
        "alerta_operativa": "media",
        "score": 15.2,
        "n_focos": 6,
        "n_ultimas_6h": 0,
        "n_ultimas_24h": 0,
        "frp_total_mw": 100.5,
        "frp_max_mw": 21.6,
        "edad_min_h": 32.8,
        "ultima_deteccion_utc": "2026-09-19 12:46:00",
        "sensores": "VIIRS_NOAA20_NRT",
        "satellites": "N20",
        "instruments": "VIIRS",
        "popup_label": "<strong>ALERT-20260920-015<\/strong><br>Nivel: media<br>Focos: 6<br>Últimas 6 h: 0<br>FRP total: 100.5 MW<br>Última detección UTC: 2026-09-19 12:46:00"
      }
    },
    {
      "type": "Feature",
      "geometry": {
        "type": "Point",
        "coordinates": [3.0941, 36.7254]
      },
      "properties": {
        "cluster_id": "ALERT-20260920-016",
        "alerta_operativa": "media",
        "score": 14.2,
        "n_focos": 6,
        "n_ultimas_6h": 0,
        "n_ultimas_24h": 2,
        "frp_total_mw": 7.1,
        "frp_max_mw": 2.1,
        "edad_min_h": 19.1,
        "ultima_deteccion_utc": "2026-09-20 02:26:00",
        "sensores": "VIIRS_NOAA20_NRT, VIIRS_SNPP_NRT",
        "satellites": "N, N20",
        "instruments": "VIIRS",
        "popup_label": "<strong>ALERT-20260920-016<\/strong><br>Nivel: media<br>Focos: 6<br>Últimas 6 h: 0<br>FRP total: 7.1 MW<br>Última detección UTC: 2026-09-20 02:26:00"
      }
    },
    {
      "type": "Feature",
      "geometry": {
        "type": "Point",
        "coordinates": [-4.4854, 39.9495]
      },
      "properties": {
        "cluster_id": "ALERT-20260920-017",
        "alerta_operativa": "media",
        "score": 13.4,
        "n_focos": 3,
        "n_ultimas_6h": 0,
        "n_ultimas_24h": 3,
        "frp_total_mw": 8,
        "frp_max_mw": 5.9,
        "edad_min_h": 18.8,
        "ultima_deteccion_utc": "2026-09-20 02:43:00",
        "sensores": "VIIRS_NOAA20_NRT, VIIRS_SNPP_NRT",
        "satellites": "N, N20",
        "instruments": "VIIRS",
        "popup_label": "<strong>ALERT-20260920-017<\/strong><br>Nivel: media<br>Focos: 3<br>Últimas 6 h: 0<br>FRP total: 8 MW<br>Última detección UTC: 2026-09-20 02:43:00"
      }
    },
    {
      "type": "Feature",
      "geometry": {
        "type": "Point",
        "coordinates": [0.1779, 41.9239]
      },
      "properties": {
        "cluster_id": "ALERT-20260920-018",
        "alerta_operativa": "media",
        "score": 13.1,
        "n_focos": 4,
        "n_ultimas_6h": 0,
        "n_ultimas_24h": 2,
        "frp_total_mw": 11.9,
        "frp_max_mw": 8.8,
        "edad_min_h": 7.4,
        "ultima_deteccion_utc": "2026-09-20 14:08:00",
        "sensores": "VIIRS_NOAA20_NRT, VIIRS_SNPP_NRT",
        "satellites": "N, N20",
        "instruments": "VIIRS",
        "popup_label": "<strong>ALERT-20260920-018<\/strong><br>Nivel: media<br>Focos: 4<br>Últimas 6 h: 0<br>FRP total: 11.9 MW<br>Última detección UTC: 2026-09-20 14:08:00"
      }
    },
    {
      "type": "Feature",
      "geometry": {
        "type": "Point",
        "coordinates": [-5.3919, 37.3752]
      },
      "properties": {
        "cluster_id": "ALERT-20260920-019",
        "alerta_operativa": "media",
        "score": 13,
        "n_focos": 4,
        "n_ultimas_6h": 0,
        "n_ultimas_24h": 2,
        "frp_total_mw": 11,
        "frp_max_mw": 3.3,
        "edad_min_h": 9.1,
        "ultima_deteccion_utc": "2026-09-20 12:25:00",
        "sensores": "VIIRS_NOAA20_NRT",
        "satellites": "N20",
        "instruments": "VIIRS",
        "popup_label": "<strong>ALERT-20260920-019<\/strong><br>Nivel: media<br>Focos: 4<br>Últimas 6 h: 0<br>FRP total: 11 MW<br>Última detección UTC: 2026-09-20 12:25:00"
      }
    },
    {
      "type": "Feature",
      "geometry": {
        "type": "Point",
        "coordinates": [-8.5598, 40.378]
      },
      "properties": {
        "cluster_id": "ALERT-20260920-020",
        "alerta_operativa": "media",
        "score": 12.5,
        "n_focos": 2,
        "n_ultimas_6h": 0,
        "n_ultimas_24h": 2,
        "frp_total_mw": 24.4,
        "frp_max_mw": 13.7,
        "edad_min_h": 7.7,
        "ultima_deteccion_utc": "2026-09-20 13:48:00",
        "sensores": "VIIRS_SNPP_NRT",
        "satellites": "N",
        "instruments": "VIIRS",
        "popup_label": "<strong>ALERT-20260920-020<\/strong><br>Nivel: media<br>Focos: 2<br>Últimas 6 h: 0<br>FRP total: 24.4 MW<br>Última detección UTC: 2026-09-20 13:48:00"
      }
    },
    {
      "type": "Feature",
      "geometry": {
        "type": "Point",
        "coordinates": [-6.8191, 37.3327]
      },
      "properties": {
        "cluster_id": "ALERT-20260920-021",
        "alerta_operativa": "media",
        "score": 11.9,
        "n_focos": 2,
        "n_ultimas_6h": 0,
        "n_ultimas_24h": 2,
        "frp_total_mw": 18,
        "frp_max_mw": 9,
        "edad_min_h": 9.1,
        "ultima_deteccion_utc": "2026-09-20 12:25:00",
        "sensores": "VIIRS_NOAA20_NRT",
        "satellites": "N20",
        "instruments": "VIIRS",
        "popup_label": "<strong>ALERT-20260920-021<\/strong><br>Nivel: media<br>Focos: 2<br>Últimas 6 h: 0<br>FRP total: 18 MW<br>Última detección UTC: 2026-09-20 12:25:00"
      }
    },
    {
      "type": "Feature",
      "geometry": {
        "type": "Point",
        "coordinates": [-2.2221, 43.0378]
      },
      "properties": {
        "cluster_id": "ALERT-20260920-022",
        "alerta_operativa": "media",
        "score": 11.9,
        "n_focos": 3,
        "n_ultimas_6h": 0,
        "n_ultimas_24h": 3,
        "frp_total_mw": 3.3,
        "frp_max_mw": 1.3,
        "edad_min_h": 19.1,
        "ultima_deteccion_utc": "2026-09-20 02:24:00",
        "sensores": "VIIRS_NOAA20_NRT, VIIRS_SNPP_NRT",
        "satellites": "N, N20",
        "instruments": "VIIRS",
        "popup_label": "<strong>ALERT-20260920-022<\/strong><br>Nivel: media<br>Focos: 3<br>Últimas 6 h: 0<br>FRP total: 3.3 MW<br>Última detección UTC: 2026-09-20 02:24:00"
      }
    },
    {
      "type": "Feature",
      "geometry": {
        "type": "Point",
        "coordinates": [-7.7663, 33.3689]
      },
      "properties": {
        "cluster_id": "ALERT-20260920-023",
        "alerta_operativa": "media",
        "score": 11.8,
        "n_focos": 3,
        "n_ultimas_6h": 0,
        "n_ultimas_24h": 3,
        "frp_total_mw": 3.1,
        "frp_max_mw": 1.6,
        "edad_min_h": 18.8,
        "ultima_deteccion_utc": "2026-09-20 02:45:00",
        "sensores": "VIIRS_NOAA20_NRT, VIIRS_SNPP_NRT",
        "satellites": "N, N20",
        "instruments": "VIIRS",
        "popup_label": "<strong>ALERT-20260920-023<\/strong><br>Nivel: media<br>Focos: 3<br>Últimas 6 h: 0<br>FRP total: 3.1 MW<br>Última detección UTC: 2026-09-20 02:45:00"
      }
    },
    {
      "type": "Feature",
      "geometry": {
        "type": "Point",
        "coordinates": [-5.9296, 37.0186]
      },
      "properties": {
        "cluster_id": "ALERT-20260920-024",
        "alerta_operativa": "media",
        "score": 11.5,
        "n_focos": 2,
        "n_ultimas_6h": 0,
        "n_ultimas_24h": 2,
        "frp_total_mw": 14.5,
        "frp_max_mw": 11.2,
        "edad_min_h": 7.4,
        "ultima_deteccion_utc": "2026-09-20 14:05:00",
        "sensores": "VIIRS_NOAA20_NRT, VIIRS_SNPP_NRT",
        "satellites": "N, N20",
        "instruments": "VIIRS",
        "popup_label": "<strong>ALERT-20260920-024<\/strong><br>Nivel: media<br>Focos: 2<br>Últimas 6 h: 0<br>FRP total: 14.5 MW<br>Última detección UTC: 2026-09-20 14:05:00"
      }
    },
    {
      "type": "Feature",
      "geometry": {
        "type": "Point",
        "coordinates": [-5.5614, 33.9768]
      },
      "properties": {
        "cluster_id": "ALERT-20260920-025",
        "alerta_operativa": "media",
        "score": 11.3,
        "n_focos": 2,
        "n_ultimas_6h": 0,
        "n_ultimas_24h": 2,
        "frp_total_mw": 12.9,
        "frp_max_mw": 9.2,
        "edad_min_h": 7.8,
        "ultima_deteccion_utc": "2026-09-20 13:46:00",
        "sensores": "VIIRS_SNPP_NRT",
        "satellites": "N",
        "instruments": "VIIRS",
        "popup_label": "<strong>ALERT-20260920-025<\/strong><br>Nivel: media<br>Focos: 2<br>Últimas 6 h: 0<br>FRP total: 12.9 MW<br>Última detección UTC: 2026-09-20 13:46:00"
      }
    },
    {
      "type": "Feature",
      "geometry": {
        "type": "Point",
        "coordinates": [-8.4193, 40.2894]
      },
      "properties": {
        "cluster_id": "ALERT-20260920-026",
        "alerta_operativa": "media",
        "score": 10.8,
        "n_focos": 4,
        "n_ultimas_6h": 0,
        "n_ultimas_24h": 2,
        "frp_total_mw": 3.1,
        "frp_max_mw": 0.9,
        "edad_min_h": 18.8,
        "ultima_deteccion_utc": "2026-09-20 02:43:00",
        "sensores": "VIIRS_NOAA20_NRT, VIIRS_SNPP_NRT",
        "satellites": "N, N20",
        "instruments": "VIIRS",
        "popup_label": "<strong>ALERT-20260920-026<\/strong><br>Nivel: media<br>Focos: 4<br>Últimas 6 h: 0<br>FRP total: 3.1 MW<br>Última detección UTC: 2026-09-20 02:43:00"
      }
    },
    {
      "type": "Feature",
      "geometry": {
        "type": "Point",
        "coordinates": [-6.7708, 42.5523]
      },
      "properties": {
        "cluster_id": "ALERT-20260920-027",
        "alerta_operativa": "media",
        "score": 10.8,
        "n_focos": 4,
        "n_ultimas_6h": 0,
        "n_ultimas_24h": 2,
        "frp_total_mw": 3.1,
        "frp_max_mw": 1,
        "edad_min_h": 18.8,
        "ultima_deteccion_utc": "2026-09-20 02:43:00",
        "sensores": "VIIRS_NOAA20_NRT, VIIRS_SNPP_NRT",
        "satellites": "N, N20",
        "instruments": "VIIRS",
        "popup_label": "<strong>ALERT-20260920-027<\/strong><br>Nivel: media<br>Focos: 4<br>Últimas 6 h: 0<br>FRP total: 3.1 MW<br>Última detección UTC: 2026-09-20 02:43:00"
      }
    },
    {
      "type": "Feature",
      "geometry": {
        "type": "Point",
        "coordinates": [1.9918, 41.4185]
      },
      "properties": {
        "cluster_id": "ALERT-20260920-028",
        "alerta_operativa": "media",
        "score": 10.7,
        "n_focos": 4,
        "n_ultimas_6h": 0,
        "n_ultimas_24h": 2,
        "frp_total_mw": 2.8,
        "frp_max_mw": 1,
        "edad_min_h": 18.8,
        "ultima_deteccion_utc": "2026-09-20 02:43:00",
        "sensores": "VIIRS_NOAA20_NRT, VIIRS_SNPP_NRT",
        "satellites": "N, N20",
        "instruments": "VIIRS",
        "popup_label": "<strong>ALERT-20260920-028<\/strong><br>Nivel: media<br>Focos: 4<br>Últimas 6 h: 0<br>FRP total: 2.8 MW<br>Última detección UTC: 2026-09-20 02:43:00"
      }
    },
    {
      "type": "Feature",
      "geometry": {
        "type": "Point",
        "coordinates": [-0.4005, 42.9428]
      },
      "properties": {
        "cluster_id": "ALERT-20260920-029",
        "alerta_operativa": "media",
        "score": 10.3,
        "n_focos": 2,
        "n_ultimas_6h": 0,
        "n_ultimas_24h": 2,
        "frp_total_mw": 7.6,
        "frp_max_mw": 4,
        "edad_min_h": 9.1,
        "ultima_deteccion_utc": "2026-09-20 12:25:00",
        "sensores": "VIIRS_NOAA20_NRT, VIIRS_SNPP_NRT",
        "satellites": "N, N20",
        "instruments": "VIIRS",
        "popup_label": "<strong>ALERT-20260920-029<\/strong><br>Nivel: media<br>Focos: 2<br>Últimas 6 h: 0<br>FRP total: 7.6 MW<br>Última detección UTC: 2026-09-20 12:25:00"
      }
    },
    {
      "type": "Feature",
      "geometry": {
        "type": "Point",
        "coordinates": [4.9627, 43.5896]
      },
      "properties": {
        "cluster_id": "ALERT-20260920-030",
        "alerta_operativa": "media",
        "score": 10.3,
        "n_focos": 2,
        "n_ultimas_6h": 0,
        "n_ultimas_24h": 2,
        "frp_total_mw": 7.4,
        "frp_max_mw": 3.9,
        "edad_min_h": 9.1,
        "ultima_deteccion_utc": "2026-09-20 12:25:00",
        "sensores": "VIIRS_NOAA20_NRT",
        "satellites": "N20",
        "instruments": "VIIRS",
        "popup_label": "<strong>ALERT-20260920-030<\/strong><br>Nivel: media<br>Focos: 2<br>Últimas 6 h: 0<br>FRP total: 7.4 MW<br>Última detección UTC: 2026-09-20 12:25:00"
      }
    },
    {
      "type": "Feature",
      "geometry": {
        "type": "Point",
        "coordinates": [-3.8396, 43.4115]
      },
      "properties": {
        "cluster_id": "ALERT-20260920-031",
        "alerta_operativa": "media",
        "score": 9.8,
        "n_focos": 2,
        "n_ultimas_6h": 0,
        "n_ultimas_24h": 2,
        "frp_total_mw": 5.7,
        "frp_max_mw": 4.8,
        "edad_min_h": 18.8,
        "ultima_deteccion_utc": "2026-09-20 02:43:00",
        "sensores": "VIIRS_NOAA20_NRT, VIIRS_SNPP_NRT",
        "satellites": "N, N20",
        "instruments": "VIIRS",
        "popup_label": "<strong>ALERT-20260920-031<\/strong><br>Nivel: media<br>Focos: 2<br>Últimas 6 h: 0<br>FRP total: 5.7 MW<br>Última detección UTC: 2026-09-20 02:43:00"
      }
    },
    {
      "type": "Feature",
      "geometry": {
        "type": "Point",
        "coordinates": [-2.348, 34.5973]
      },
      "properties": {
        "cluster_id": "ALERT-20260920-032",
        "alerta_operativa": "media",
        "score": 9.6,
        "n_focos": 3,
        "n_ultimas_6h": 0,
        "n_ultimas_24h": 2,
        "frp_total_mw": 2.6,
        "frp_max_mw": 1.3,
        "edad_min_h": 18.8,
        "ultima_deteccion_utc": "2026-09-20 02:45:00",
        "sensores": "VIIRS_NOAA20_NRT, VIIRS_SNPP_NRT",
        "satellites": "N, N20",
        "instruments": "VIIRS",
        "popup_label": "<strong>ALERT-20260920-032<\/strong><br>Nivel: media<br>Focos: 3<br>Últimas 6 h: 0<br>FRP total: 2.6 MW<br>Última detección UTC: 2026-09-20 02:45:00"
      }
    },
    {
      "type": "Feature",
      "geometry": {
        "type": "Point",
        "coordinates": [-8.9374, 38.5014]
      },
      "properties": {
        "cluster_id": "ALERT-20260920-033",
        "alerta_operativa": "media",
        "score": 9.1,
        "n_focos": 3,
        "n_ultimas_6h": 0,
        "n_ultimas_24h": 2,
        "frp_total_mw": 1.9,
        "frp_max_mw": 0.8,
        "edad_min_h": 18.8,
        "ultima_deteccion_utc": "2026-09-20 02:43:00",
        "sensores": "VIIRS_NOAA20_NRT, VIIRS_SNPP_NRT",
        "satellites": "N, N20",
        "instruments": "VIIRS",
        "popup_label": "<strong>ALERT-20260920-033<\/strong><br>Nivel: media<br>Focos: 3<br>Últimas 6 h: 0<br>FRP total: 1.9 MW<br>Última detección UTC: 2026-09-20 02:43:00"
      }
    },
    {
      "type": "Feature",
      "geometry": {
        "type": "Point",
        "coordinates": [-9.0119, 38.9226]
      },
      "properties": {
        "cluster_id": "ALERT-20260920-034",
        "alerta_operativa": "media",
        "score": 8.7,
        "n_focos": 2,
        "n_ultimas_6h": 0,
        "n_ultimas_24h": 2,
        "frp_total_mw": 2.9,
        "frp_max_mw": 1.9,
        "edad_min_h": 18.8,
        "ultima_deteccion_utc": "2026-09-20 02:43:00",
        "sensores": "VIIRS_NOAA20_NRT, VIIRS_SNPP_NRT",
        "satellites": "N, N20",
        "instruments": "VIIRS",
        "popup_label": "<strong>ALERT-20260920-034<\/strong><br>Nivel: media<br>Focos: 2<br>Últimas 6 h: 0<br>FRP total: 2.9 MW<br>Última detección UTC: 2026-09-20 02:43:00"
      }
    },
    {
      "type": "Feature",
      "geometry": {
        "type": "Point",
        "coordinates": [4.4459, 35.88]
      },
      "properties": {
        "cluster_id": "ALERT-20260920-035",
        "alerta_operativa": "media",
        "score": 8.6,
        "n_focos": 2,
        "n_ultimas_6h": 0,
        "n_ultimas_24h": 2,
        "frp_total_mw": 2.7,
        "frp_max_mw": 1.6,
        "edad_min_h": 20.4,
        "ultima_deteccion_utc": "2026-09-20 01:05:00",
        "sensores": "VIIRS_NOAA20_NRT, VIIRS_SNPP_NRT",
        "satellites": "N, N20",
        "instruments": "VIIRS",
        "popup_label": "<strong>ALERT-20260920-035<\/strong><br>Nivel: media<br>Focos: 2<br>Últimas 6 h: 0<br>FRP total: 2.7 MW<br>Última detección UTC: 2026-09-20 01:05:00"
      }
    },
    {
      "type": "Feature",
      "geometry": {
        "type": "Point",
        "coordinates": [-5.8147, 38.9163]
      },
      "properties": {
        "cluster_id": "ALERT-20260920-036",
        "alerta_operativa": "media",
        "score": 8.3,
        "n_focos": 2,
        "n_ultimas_6h": 0,
        "n_ultimas_24h": 2,
        "frp_total_mw": 2.2,
        "frp_max_mw": 1.5,
        "edad_min_h": 18.8,
        "ultima_deteccion_utc": "2026-09-20 02:43:00",
        "sensores": "VIIRS_NOAA20_NRT, VIIRS_SNPP_NRT",
        "satellites": "N, N20",
        "instruments": "VIIRS",
        "popup_label": "<strong>ALERT-20260920-036<\/strong><br>Nivel: media<br>Focos: 2<br>Últimas 6 h: 0<br>FRP total: 2.2 MW<br>Última detección UTC: 2026-09-20 02:43:00"
      }
    },
    {
      "type": "Feature",
      "geometry": {
        "type": "Point",
        "coordinates": [-4.2475, 40.7156]
      },
      "properties": {
        "cluster_id": "ALERT-20260920-037",
        "alerta_operativa": "media",
        "score": 8.3,
        "n_focos": 2,
        "n_ultimas_6h": 0,
        "n_ultimas_24h": 2,
        "frp_total_mw": 2.2,
        "frp_max_mw": 1.1,
        "edad_min_h": 18.8,
        "ultima_deteccion_utc": "2026-09-20 02:43:00",
        "sensores": "VIIRS_NOAA20_NRT, VIIRS_SNPP_NRT",
        "satellites": "N, N20",
        "instruments": "VIIRS",
        "popup_label": "<strong>ALERT-20260920-037<\/strong><br>Nivel: media<br>Focos: 2<br>Últimas 6 h: 0<br>FRP total: 2.2 MW<br>Última detección UTC: 2026-09-20 02:43:00"
      }
    },
    {
      "type": "Feature",
      "geometry": {
        "type": "Point",
        "coordinates": [-8.9053, 39.6871]
      },
      "properties": {
        "cluster_id": "ALERT-20260920-038",
        "alerta_operativa": "media",
        "score": 8.1,
        "n_focos": 2,
        "n_ultimas_6h": 0,
        "n_ultimas_24h": 2,
        "frp_total_mw": 1.9,
        "frp_max_mw": 1,
        "edad_min_h": 18.8,
        "ultima_deteccion_utc": "2026-09-20 02:43:00",
        "sensores": "VIIRS_NOAA20_NRT, VIIRS_SNPP_NRT",
        "satellites": "N, N20",
        "instruments": "VIIRS",
        "popup_label": "<strong>ALERT-20260920-038<\/strong><br>Nivel: media<br>Focos: 2<br>Últimas 6 h: 0<br>FRP total: 1.9 MW<br>Última detección UTC: 2026-09-20 02:43:00"
      }
    },
    {
      "type": "Feature",
      "geometry": {
        "type": "Point",
        "coordinates": [-6.9458, 32.8464]
      },
      "properties": {
        "cluster_id": "ALERT-20260920-039",
        "alerta_operativa": "media",
        "score": 8.1,
        "n_focos": 2,
        "n_ultimas_6h": 0,
        "n_ultimas_24h": 2,
        "frp_total_mw": 1.8,
        "frp_max_mw": 0.9,
        "edad_min_h": 18.8,
        "ultima_deteccion_utc": "2026-09-20 02:45:00",
        "sensores": "VIIRS_NOAA20_NRT, VIIRS_SNPP_NRT",
        "satellites": "N, N20",
        "instruments": "VIIRS",
        "popup_label": "<strong>ALERT-20260920-039<\/strong><br>Nivel: media<br>Focos: 2<br>Últimas 6 h: 0<br>FRP total: 1.8 MW<br>Última detección UTC: 2026-09-20 02:45:00"
      }
    },
    {
      "type": "Feature",
      "geometry": {
        "type": "Point",
        "coordinates": [-3.027, 43.3104]
      },
      "properties": {
        "cluster_id": "ALERT-20260920-040",
        "alerta_operativa": "media",
        "score": 7.3,
        "n_focos": 2,
        "n_ultimas_6h": 0,
        "n_ultimas_24h": 2,
        "frp_total_mw": 0.9,
        "frp_max_mw": 0.5,
        "edad_min_h": 18.8,
        "ultima_deteccion_utc": "2026-09-20 02:43:00",
        "sensores": "VIIRS_NOAA20_NRT, VIIRS_SNPP_NRT",
        "satellites": "N, N20",
        "instruments": "VIIRS",
        "popup_label": "<strong>ALERT-20260920-040<\/strong><br>Nivel: media<br>Focos: 2<br>Últimas 6 h: 0<br>FRP total: 0.9 MW<br>Última detección UTC: 2026-09-20 02:43:00"
      }
    },
    {
      "type": "Feature",
      "geometry": {
        "type": "Point",
        "coordinates": [4.369, 44.5451]
      },
      "properties": {
        "cluster_id": "ALERT-20260920-041",
        "alerta_operativa": "seguimiento",
        "score": 9.1,
        "n_focos": 1,
        "n_ultimas_6h": 0,
        "n_ultimas_24h": 1,
        "frp_total_mw": 19.8,
        "frp_max_mw": 19.8,
        "edad_min_h": 9.1,
        "ultima_deteccion_utc": "2026-09-20 12:25:00",
        "sensores": "VIIRS_NOAA20_NRT",
        "satellites": "N20",
        "instruments": "VIIRS",
        "popup_label": "<strong>ALERT-20260920-041<\/strong><br>Nivel: seguimiento<br>Focos: 1<br>Últimas 6 h: 0<br>FRP total: 19.8 MW<br>Última detección UTC: 2026-09-20 12:25:00"
      }
    },
    {
      "type": "Feature",
      "geometry": {
        "type": "Point",
        "coordinates": [-6.4955, 38.8576]
      },
      "properties": {
        "cluster_id": "ALERT-20260920-042",
        "alerta_operativa": "seguimiento",
        "score": 7.7,
        "n_focos": 2,
        "n_ultimas_6h": 0,
        "n_ultimas_24h": 1,
        "frp_total_mw": 5.5,
        "frp_max_mw": 4.8,
        "edad_min_h": 7.8,
        "ultima_deteccion_utc": "2026-09-20 13:46:00",
        "sensores": "VIIRS_NOAA20_NRT, VIIRS_SNPP_NRT",
        "satellites": "N, N20",
        "instruments": "VIIRS",
        "popup_label": "<strong>ALERT-20260920-042<\/strong><br>Nivel: seguimiento<br>Focos: 2<br>Últimas 6 h: 0<br>FRP total: 5.5 MW<br>Última detección UTC: 2026-09-20 13:46:00"
      }
    },
    {
      "type": "Feature",
      "geometry": {
        "type": "Point",
        "coordinates": [-9.0789, 38.6305]
      },
      "properties": {
        "cluster_id": "ALERT-20260920-043",
        "alerta_operativa": "seguimiento",
        "score": 7.7,
        "n_focos": 3,
        "n_ultimas_6h": 0,
        "n_ultimas_24h": 1,
        "frp_total_mw": 2.8,
        "frp_max_mw": 1.1,
        "edad_min_h": 18.8,
        "ultima_deteccion_utc": "2026-09-20 02:43:00",
        "sensores": "VIIRS_NOAA20_NRT, VIIRS_SNPP_NRT",
        "satellites": "N, N20",
        "instruments": "VIIRS",
        "popup_label": "<strong>ALERT-20260920-043<\/strong><br>Nivel: seguimiento<br>Focos: 3<br>Últimas 6 h: 0<br>FRP total: 2.8 MW<br>Última detección UTC: 2026-09-20 02:43:00"
      }
    },
    {
      "type": "Feature",
      "geometry": {
        "type": "Point",
        "coordinates": [-1.4888, 41.4747]
      },
      "properties": {
        "cluster_id": "ALERT-20260920-044",
        "alerta_operativa": "seguimiento",
        "score": 7.4,
        "n_focos": 3,
        "n_ultimas_6h": 0,
        "n_ultimas_24h": 1,
        "frp_total_mw": 2.3,
        "frp_max_mw": 0.8,
        "edad_min_h": 19.1,
        "ultima_deteccion_utc": "2026-09-20 02:24:00",
        "sensores": "VIIRS_NOAA20_NRT, VIIRS_SNPP_NRT",
        "satellites": "N, N20",
        "instruments": "VIIRS",
        "popup_label": "<strong>ALERT-20260920-044<\/strong><br>Nivel: seguimiento<br>Focos: 3<br>Últimas 6 h: 0<br>FRP total: 2.3 MW<br>Última detección UTC: 2026-09-20 02:24:00"
      }
    },
    {
      "type": "Feature",
      "geometry": {
        "type": "Point",
        "coordinates": [2.8893, 42.7076]
      },
      "properties": {
        "cluster_id": "ALERT-20260920-045",
        "alerta_operativa": "seguimiento",
        "score": 7.3,
        "n_focos": 2,
        "n_ultimas_6h": 0,
        "n_ultimas_24h": 1,
        "frp_total_mw": 4.2,
        "frp_max_mw": 2.1,
        "edad_min_h": 9.1,
        "ultima_deteccion_utc": "2026-09-20 12:25:00",
        "sensores": "VIIRS_NOAA20_NRT",
        "satellites": "N20",
        "instruments": "VIIRS",
        "popup_label": "<strong>ALERT-20260920-045<\/strong><br>Nivel: seguimiento<br>Focos: 2<br>Últimas 6 h: 0<br>FRP total: 4.2 MW<br>Última detección UTC: 2026-09-20 12:25:00"
      }
    },
    {
      "type": "Feature",
      "geometry": {
        "type": "Point",
        "coordinates": [-8.4368, 43.3473]
      },
      "properties": {
        "cluster_id": "ALERT-20260920-046",
        "alerta_operativa": "seguimiento",
        "score": 7.3,
        "n_focos": 3,
        "n_ultimas_6h": 0,
        "n_ultimas_24h": 1,
        "frp_total_mw": 2.2,
        "frp_max_mw": 1,
        "edad_min_h": 18.8,
        "ultima_deteccion_utc": "2026-09-20 02:43:00",
        "sensores": "VIIRS_NOAA20_NRT, VIIRS_SNPP_NRT",
        "satellites": "N, N20",
        "instruments": "VIIRS",
        "popup_label": "<strong>ALERT-20260920-046<\/strong><br>Nivel: seguimiento<br>Focos: 3<br>Últimas 6 h: 0<br>FRP total: 2.2 MW<br>Última detección UTC: 2026-09-20 02:43:00"
      }
    },
    {
      "type": "Feature",
      "geometry": {
        "type": "Point",
        "coordinates": [4.0042, 32.4013]
      },
      "properties": {
        "cluster_id": "ALERT-20260920-047",
        "alerta_operativa": "seguimiento",
        "score": 7.1,
        "n_focos": 3,
        "n_ultimas_6h": 0,
        "n_ultimas_24h": 1,
        "frp_total_mw": 1.9,
        "frp_max_mw": 0.8,
        "edad_min_h": 20.4,
        "ultima_deteccion_utc": "2026-09-20 01:07:00",
        "sensores": "VIIRS_NOAA20_NRT, VIIRS_SNPP_NRT",
        "satellites": "N, N20",
        "instruments": "VIIRS",
        "popup_label": "<strong>ALERT-20260920-047<\/strong><br>Nivel: seguimiento<br>Focos: 3<br>Últimas 6 h: 0<br>FRP total: 1.9 MW<br>Última detección UTC: 2026-09-20 01:07:00"
      }
    },
    {
      "type": "Feature",
      "geometry": {
        "type": "Point",
        "coordinates": [-0.8213, 38.9757]
      },
      "properties": {
        "cluster_id": "ALERT-20260920-048",
        "alerta_operativa": "seguimiento",
        "score": 6.7,
        "n_focos": 1,
        "n_ultimas_6h": 0,
        "n_ultimas_24h": 1,
        "frp_total_mw": 5.3,
        "frp_max_mw": 5.3,
        "edad_min_h": 7.8,
        "ultima_deteccion_utc": "2026-09-20 13:46:00",
        "sensores": "VIIRS_SNPP_NRT",
        "satellites": "N",
        "instruments": "VIIRS",
        "popup_label": "<strong>ALERT-20260920-048<\/strong><br>Nivel: seguimiento<br>Focos: 1<br>Últimas 6 h: 0<br>FRP total: 5.3 MW<br>Última detección UTC: 2026-09-20 13:46:00"
      }
    },
    {
      "type": "Feature",
      "geometry": {
        "type": "Point",
        "coordinates": [2.3416, 43.3196]
      },
      "properties": {
        "cluster_id": "ALERT-20260920-049",
        "alerta_operativa": "seguimiento",
        "score": 6.6,
        "n_focos": 1,
        "n_ultimas_6h": 0,
        "n_ultimas_24h": 1,
        "frp_total_mw": 5.2,
        "frp_max_mw": 5.2,
        "edad_min_h": 9.1,
        "ultima_deteccion_utc": "2026-09-20 12:25:00",
        "sensores": "VIIRS_NOAA20_NRT",
        "satellites": "N20",
        "instruments": "VIIRS",
        "popup_label": "<strong>ALERT-20260920-049<\/strong><br>Nivel: seguimiento<br>Focos: 1<br>Últimas 6 h: 0<br>FRP total: 5.2 MW<br>Última detección UTC: 2026-09-20 12:25:00"
      }
    },
    {
      "type": "Feature",
      "geometry": {
        "type": "Point",
        "coordinates": [-1.9049, 36.9665]
      },
      "properties": {
        "cluster_id": "ALERT-20260920-050",
        "alerta_operativa": "seguimiento",
        "score": 6.6,
        "n_focos": 2,
        "n_ultimas_6h": 0,
        "n_ultimas_24h": 1,
        "frp_total_mw": 2.6,
        "frp_max_mw": 1.8,
        "edad_min_h": 19.1,
        "ultima_deteccion_utc": "2026-09-20 02:26:00",
        "sensores": "VIIRS_NOAA20_NRT, VIIRS_SNPP_NRT",
        "satellites": "N, N20",
        "instruments": "VIIRS",
        "popup_label": "<strong>ALERT-20260920-050<\/strong><br>Nivel: seguimiento<br>Focos: 2<br>Últimas 6 h: 0<br>FRP total: 2.6 MW<br>Última detección UTC: 2026-09-20 02:26:00"
      }
    },
    {
      "type": "Feature",
      "geometry": {
        "type": "Point",
        "coordinates": [-5.6498, 38.7624]
      },
      "properties": {
        "cluster_id": "ALERT-20260920-051",
        "alerta_operativa": "seguimiento",
        "score": 6.5,
        "n_focos": 1,
        "n_ultimas_6h": 0,
        "n_ultimas_24h": 1,
        "frp_total_mw": 4.8,
        "frp_max_mw": 4.8,
        "edad_min_h": 9.1,
        "ultima_deteccion_utc": "2026-09-20 12:25:00",
        "sensores": "VIIRS_NOAA20_NRT",
        "satellites": "N20",
        "instruments": "VIIRS",
        "popup_label": "<strong>ALERT-20260920-051<\/strong><br>Nivel: seguimiento<br>Focos: 1<br>Últimas 6 h: 0<br>FRP total: 4.8 MW<br>Última detección UTC: 2026-09-20 12:25:00"
      }
    },
    {
      "type": "Feature",
      "geometry": {
        "type": "Point",
        "coordinates": [-9.5314, 30.3402]
      },
      "properties": {
        "cluster_id": "ALERT-20260920-052",
        "alerta_operativa": "seguimiento",
        "score": 6.3,
        "n_focos": 2,
        "n_ultimas_6h": 0,
        "n_ultimas_24h": 1,
        "frp_total_mw": 2.1,
        "frp_max_mw": 1.2,
        "edad_min_h": 18.8,
        "ultima_deteccion_utc": "2026-09-20 02:45:00",
        "sensores": "VIIRS_NOAA20_NRT, VIIRS_SNPP_NRT",
        "satellites": "N, N20",
        "instruments": "VIIRS",
        "popup_label": "<strong>ALERT-20260920-052<\/strong><br>Nivel: seguimiento<br>Focos: 2<br>Últimas 6 h: 0<br>FRP total: 2.1 MW<br>Última detección UTC: 2026-09-20 02:45:00"
      }
    },
    {
      "type": "Feature",
      "geometry": {
        "type": "Point",
        "coordinates": [0.1472, 34.8124]
      },
      "properties": {
        "cluster_id": "ALERT-20260920-053",
        "alerta_operativa": "seguimiento",
        "score": 6.2,
        "n_focos": 1,
        "n_ultimas_6h": 0,
        "n_ultimas_24h": 1,
        "frp_total_mw": 4,
        "frp_max_mw": 4,
        "edad_min_h": 9.1,
        "ultima_deteccion_utc": "2026-09-20 12:23:00",
        "sensores": "VIIRS_NOAA20_NRT",
        "satellites": "N20",
        "instruments": "VIIRS",
        "popup_label": "<strong>ALERT-20260920-053<\/strong><br>Nivel: seguimiento<br>Focos: 1<br>Últimas 6 h: 0<br>FRP total: 4 MW<br>Última detección UTC: 2026-09-20 12:23:00"
      }
    },
    {
      "type": "Feature",
      "geometry": {
        "type": "Point",
        "coordinates": [0.9907, 43.1869]
      },
      "properties": {
        "cluster_id": "ALERT-20260920-054",
        "alerta_operativa": "seguimiento",
        "score": 6,
        "n_focos": 2,
        "n_ultimas_6h": 0,
        "n_ultimas_24h": 1,
        "frp_total_mw": 1.7,
        "frp_max_mw": 1.1,
        "edad_min_h": 19.1,
        "ultima_deteccion_utc": "2026-09-20 02:24:00",
        "sensores": "VIIRS_NOAA20_NRT, VIIRS_SNPP_NRT",
        "satellites": "N, N20",
        "instruments": "VIIRS",
        "popup_label": "<strong>ALERT-20260920-054<\/strong><br>Nivel: seguimiento<br>Focos: 2<br>Últimas 6 h: 0<br>FRP total: 1.7 MW<br>Última detección UTC: 2026-09-20 02:24:00"
      }
    },
    {
      "type": "Feature",
      "geometry": {
        "type": "Point",
        "coordinates": [-7.1376, 38.7215]
      },
      "properties": {
        "cluster_id": "ALERT-20260920-055",
        "alerta_operativa": "seguimiento",
        "score": 5.8,
        "n_focos": 1,
        "n_ultimas_6h": 0,
        "n_ultimas_24h": 1,
        "frp_total_mw": 3,
        "frp_max_mw": 3,
        "edad_min_h": 7.8,
        "ultima_deteccion_utc": "2026-09-20 13:46:00",
        "sensores": "VIIRS_SNPP_NRT",
        "satellites": "N",
        "instruments": "VIIRS",
        "popup_label": "<strong>ALERT-20260920-055<\/strong><br>Nivel: seguimiento<br>Focos: 1<br>Últimas 6 h: 0<br>FRP total: 3 MW<br>Última detección UTC: 2026-09-20 13:46:00"
      }
    },
    {
      "type": "Feature",
      "geometry": {
        "type": "Point",
        "coordinates": [-0.5441, 38.3775]
      },
      "properties": {
        "cluster_id": "ALERT-20260920-056",
        "alerta_operativa": "seguimiento",
        "score": 5.8,
        "n_focos": 2,
        "n_ultimas_6h": 0,
        "n_ultimas_24h": 1,
        "frp_total_mw": 1.5,
        "frp_max_mw": 0.8,
        "edad_min_h": 18.8,
        "ultima_deteccion_utc": "2026-09-20 02:43:00",
        "sensores": "VIIRS_NOAA20_NRT, VIIRS_SNPP_NRT",
        "satellites": "N, N20",
        "instruments": "VIIRS",
        "popup_label": "<strong>ALERT-20260920-056<\/strong><br>Nivel: seguimiento<br>Focos: 2<br>Últimas 6 h: 0<br>FRP total: 1.5 MW<br>Última detección UTC: 2026-09-20 02:43:00"
      }
    },
    {
      "type": "Feature",
      "geometry": {
        "type": "Point",
        "coordinates": [4.6353, 43.9666]
      },
      "properties": {
        "cluster_id": "ALERT-20260920-057",
        "alerta_operativa": "seguimiento",
        "score": 5.3,
        "n_focos": 1,
        "n_ultimas_6h": 0,
        "n_ultimas_24h": 1,
        "frp_total_mw": 2.2,
        "frp_max_mw": 2.2,
        "edad_min_h": 9.1,
        "ultima_deteccion_utc": "2026-09-20 12:25:00",
        "sensores": "VIIRS_NOAA20_NRT",
        "satellites": "N20",
        "instruments": "VIIRS",
        "popup_label": "<strong>ALERT-20260920-057<\/strong><br>Nivel: seguimiento<br>Focos: 1<br>Últimas 6 h: 0<br>FRP total: 2.2 MW<br>Última detección UTC: 2026-09-20 12:25:00"
      }
    },
    {
      "type": "Feature",
      "geometry": {
        "type": "Point",
        "coordinates": [4.7088, 44.0903]
      },
      "properties": {
        "cluster_id": "ALERT-20260920-058",
        "alerta_operativa": "seguimiento",
        "score": 5.3,
        "n_focos": 1,
        "n_ultimas_6h": 0,
        "n_ultimas_24h": 1,
        "frp_total_mw": 2.2,
        "frp_max_mw": 2.2,
        "edad_min_h": 9.1,
        "ultima_deteccion_utc": "2026-09-20 12:25:00",
        "sensores": "VIIRS_NOAA20_NRT",
        "satellites": "N20",
        "instruments": "VIIRS",
        "popup_label": "<strong>ALERT-20260920-058<\/strong><br>Nivel: seguimiento<br>Focos: 1<br>Últimas 6 h: 0<br>FRP total: 2.2 MW<br>Última detección UTC: 2026-09-20 12:25:00"
      }
    },
    {
      "type": "Feature",
      "geometry": {
        "type": "Point",
        "coordinates": [-4.4886, 37.5365]
      },
      "properties": {
        "cluster_id": "ALERT-20260920-059",
        "alerta_operativa": "seguimiento",
        "score": 5.3,
        "n_focos": 1,
        "n_ultimas_6h": 0,
        "n_ultimas_24h": 1,
        "frp_total_mw": 2.1,
        "frp_max_mw": 2.1,
        "edad_min_h": 7.4,
        "ultima_deteccion_utc": "2026-09-20 14:05:00",
        "sensores": "VIIRS_NOAA20_NRT",
        "satellites": "N20",
        "instruments": "VIIRS",
        "popup_label": "<strong>ALERT-20260920-059<\/strong><br>Nivel: seguimiento<br>Focos: 1<br>Últimas 6 h: 0<br>FRP total: 2.1 MW<br>Última detección UTC: 2026-09-20 14:05:00"
      }
    },
    {
      "type": "Feature",
      "geometry": {
        "type": "Point",
        "coordinates": [-1.5112, 42.923]
      },
      "properties": {
        "cluster_id": "ALERT-20260920-060",
        "alerta_operativa": "seguimiento",
        "score": 5.3,
        "n_focos": 2,
        "n_ultimas_6h": 0,
        "n_ultimas_24h": 1,
        "frp_total_mw": 0.9,
        "frp_max_mw": 0.5,
        "edad_min_h": 19.1,
        "ultima_deteccion_utc": "2026-09-20 02:24:00",
        "sensores": "VIIRS_NOAA20_NRT, VIIRS_SNPP_NRT",
        "satellites": "N, N20",
        "instruments": "VIIRS",
        "popup_label": "<strong>ALERT-20260920-060<\/strong><br>Nivel: seguimiento<br>Focos: 2<br>Últimas 6 h: 0<br>FRP total: 0.9 MW<br>Última detección UTC: 2026-09-20 02:24:00"
      }
    },
    {
      "type": "Feature",
      "geometry": {
        "type": "Point",
        "coordinates": [-5.6704, 42.0166]
      },
      "properties": {
        "cluster_id": "ALERT-20260920-061",
        "alerta_operativa": "seguimiento",
        "score": 5.1,
        "n_focos": 1,
        "n_ultimas_6h": 0,
        "n_ultimas_24h": 1,
        "frp_total_mw": 1.9,
        "frp_max_mw": 1.9,
        "edad_min_h": 18.8,
        "ultima_deteccion_utc": "2026-09-20 02:43:00",
        "sensores": "VIIRS_NOAA20_NRT",
        "satellites": "N20",
        "instruments": "VIIRS",
        "popup_label": "<strong>ALERT-20260920-061<\/strong><br>Nivel: seguimiento<br>Focos: 1<br>Últimas 6 h: 0<br>FRP total: 1.9 MW<br>Última detección UTC: 2026-09-20 02:43:00"
      }
    },
    {
      "type": "Feature",
      "geometry": {
        "type": "Point",
        "coordinates": [-1.7291, 39.3614]
      },
      "properties": {
        "cluster_id": "ALERT-20260920-062",
        "alerta_operativa": "seguimiento",
        "score": 5,
        "n_focos": 1,
        "n_ultimas_6h": 0,
        "n_ultimas_24h": 1,
        "frp_total_mw": 1.7,
        "frp_max_mw": 1.7,
        "edad_min_h": 9.1,
        "ultima_deteccion_utc": "2026-09-20 12:25:00",
        "sensores": "VIIRS_NOAA20_NRT",
        "satellites": "N20",
        "instruments": "VIIRS",
        "popup_label": "<strong>ALERT-20260920-062<\/strong><br>Nivel: seguimiento<br>Focos: 1<br>Últimas 6 h: 0<br>FRP total: 1.7 MW<br>Última detección UTC: 2026-09-20 12:25:00"
      }
    },
    {
      "type": "Feature",
      "geometry": {
        "type": "Point",
        "coordinates": [-8.1899, 41.0242]
      },
      "properties": {
        "cluster_id": "ALERT-20260920-063",
        "alerta_operativa": "seguimiento",
        "score": 4.6,
        "n_focos": 1,
        "n_ultimas_6h": 0,
        "n_ultimas_24h": 1,
        "frp_total_mw": 1.2,
        "frp_max_mw": 1.2,
        "edad_min_h": 19.1,
        "ultima_deteccion_utc": "2026-09-20 02:24:00",
        "sensores": "VIIRS_SNPP_NRT",
        "satellites": "N",
        "instruments": "VIIRS",
        "popup_label": "<strong>ALERT-20260920-063<\/strong><br>Nivel: seguimiento<br>Focos: 1<br>Últimas 6 h: 0<br>FRP total: 1.2 MW<br>Última detección UTC: 2026-09-20 02:24:00"
      }
    },
    {
      "type": "Feature",
      "geometry": {
        "type": "Point",
        "coordinates": [-7.5379, 38.9012]
      },
      "properties": {
        "cluster_id": "ALERT-20260920-064",
        "alerta_operativa": "seguimiento",
        "score": 4.6,
        "n_focos": 1,
        "n_ultimas_6h": 0,
        "n_ultimas_24h": 1,
        "frp_total_mw": 1.2,
        "frp_max_mw": 1.2,
        "edad_min_h": 18.8,
        "ultima_deteccion_utc": "2026-09-20 02:43:00",
        "sensores": "VIIRS_NOAA20_NRT",
        "satellites": "N20",
        "instruments": "VIIRS",
        "popup_label": "<strong>ALERT-20260920-064<\/strong><br>Nivel: seguimiento<br>Focos: 1<br>Últimas 6 h: 0<br>FRP total: 1.2 MW<br>Última detección UTC: 2026-09-20 02:43:00"
      }
    },
    {
      "type": "Feature",
      "geometry": {
        "type": "Point",
        "coordinates": [-0.9365, 35.5672]
      },
      "properties": {
        "cluster_id": "ALERT-20260920-065",
        "alerta_operativa": "seguimiento",
        "score": 4.4,
        "n_focos": 1,
        "n_ultimas_6h": 0,
        "n_ultimas_24h": 1,
        "frp_total_mw": 1,
        "frp_max_mw": 1,
        "edad_min_h": 19.1,
        "ultima_deteccion_utc": "2026-09-20 02:26:00",
        "sensores": "VIIRS_SNPP_NRT",
        "satellites": "N",
        "instruments": "VIIRS",
        "popup_label": "<strong>ALERT-20260920-065<\/strong><br>Nivel: seguimiento<br>Focos: 1<br>Últimas 6 h: 0<br>FRP total: 1 MW<br>Última detección UTC: 2026-09-20 02:26:00"
      }
    },
    {
      "type": "Feature",
      "geometry": {
        "type": "Point",
        "coordinates": [-5.423, 36.179]
      },
      "properties": {
        "cluster_id": "ALERT-20260920-066",
        "alerta_operativa": "seguimiento",
        "score": 4.4,
        "n_focos": 1,
        "n_ultimas_6h": 0,
        "n_ultimas_24h": 1,
        "frp_total_mw": 1,
        "frp_max_mw": 1,
        "edad_min_h": 18.8,
        "ultima_deteccion_utc": "2026-09-20 02:45:00",
        "sensores": "VIIRS_NOAA20_NRT",
        "satellites": "N20",
        "instruments": "VIIRS",
        "popup_label": "<strong>ALERT-20260920-066<\/strong><br>Nivel: seguimiento<br>Focos: 1<br>Últimas 6 h: 0<br>FRP total: 1 MW<br>Última detección UTC: 2026-09-20 02:45:00"
      }
    },
    {
      "type": "Feature",
      "geometry": {
        "type": "Point",
        "coordinates": [-1.7446, 42.8159]
      },
      "properties": {
        "cluster_id": "ALERT-20260920-067",
        "alerta_operativa": "seguimiento",
        "score": 4.2,
        "n_focos": 1,
        "n_ultimas_6h": 0,
        "n_ultimas_24h": 1,
        "frp_total_mw": 0.8,
        "frp_max_mw": 0.8,
        "edad_min_h": 19.1,
        "ultima_deteccion_utc": "2026-09-20 02:24:00",
        "sensores": "VIIRS_SNPP_NRT",
        "satellites": "N",
        "instruments": "VIIRS",
        "popup_label": "<strong>ALERT-20260920-067<\/strong><br>Nivel: seguimiento<br>Focos: 1<br>Últimas 6 h: 0<br>FRP total: 0.8 MW<br>Última detección UTC: 2026-09-20 02:24:00"
      }
    },
    {
      "type": "Feature",
      "geometry": {
        "type": "Point",
        "coordinates": [-7.5366, 33.4355]
      },
      "properties": {
        "cluster_id": "ALERT-20260920-068",
        "alerta_operativa": "seguimiento",
        "score": 3.9,
        "n_focos": 1,
        "n_ultimas_6h": 0,
        "n_ultimas_24h": 1,
        "frp_total_mw": 0.6,
        "frp_max_mw": 0.6,
        "edad_min_h": 19.1,
        "ultima_deteccion_utc": "2026-09-20 02:26:00",
        "sensores": "VIIRS_SNPP_NRT",
        "satellites": "N",
        "instruments": "VIIRS",
        "popup_label": "<strong>ALERT-20260920-068<\/strong><br>Nivel: seguimiento<br>Focos: 1<br>Últimas 6 h: 0<br>FRP total: 0.6 MW<br>Última detección UTC: 2026-09-20 02:26:00"
      }
    },
    {
      "type": "Feature",
      "geometry": {
        "type": "Point",
        "coordinates": [-6.9503, 33.8923]
      },
      "properties": {
        "cluster_id": "ALERT-20260920-069",
        "alerta_operativa": "seguimiento",
        "score": 3.9,
        "n_focos": 1,
        "n_ultimas_6h": 0,
        "n_ultimas_24h": 1,
        "frp_total_mw": 0.6,
        "frp_max_mw": 0.6,
        "edad_min_h": 19.1,
        "ultima_deteccion_utc": "2026-09-20 02:26:00",
        "sensores": "VIIRS_SNPP_NRT",
        "satellites": "N",
        "instruments": "VIIRS",
        "popup_label": "<strong>ALERT-20260920-069<\/strong><br>Nivel: seguimiento<br>Focos: 1<br>Últimas 6 h: 0<br>FRP total: 0.6 MW<br>Última detección UTC: 2026-09-20 02:26:00"
      }
    },
    {
      "type": "Feature",
      "geometry": {
        "type": "Point",
        "coordinates": [0.1301, 36.0188]
      },
      "properties": {
        "cluster_id": "ALERT-20260920-070",
        "alerta_operativa": "seguimiento",
        "score": 3.9,
        "n_focos": 1,
        "n_ultimas_6h": 0,
        "n_ultimas_24h": 1,
        "frp_total_mw": 0.6,
        "frp_max_mw": 0.6,
        "edad_min_h": 19.1,
        "ultima_deteccion_utc": "2026-09-20 02:26:00",
        "sensores": "VIIRS_SNPP_NRT",
        "satellites": "N",
        "instruments": "VIIRS",
        "popup_label": "<strong>ALERT-20260920-070<\/strong><br>Nivel: seguimiento<br>Focos: 1<br>Últimas 6 h: 0<br>FRP total: 0.6 MW<br>Última detección UTC: 2026-09-20 02:26:00"
      }
    },
    {
      "type": "Feature",
      "geometry": {
        "type": "Point",
        "coordinates": [-6.4852, 38.3788]
      },
      "properties": {
        "cluster_id": "ALERT-20260920-071",
        "alerta_operativa": "seguimiento",
        "score": 3.9,
        "n_focos": 1,
        "n_ultimas_6h": 0,
        "n_ultimas_24h": 1,
        "frp_total_mw": 0.6,
        "frp_max_mw": 0.6,
        "edad_min_h": 19.1,
        "ultima_deteccion_utc": "2026-09-20 02:26:00",
        "sensores": "VIIRS_SNPP_NRT",
        "satellites": "N",
        "instruments": "VIIRS",
        "popup_label": "<strong>ALERT-20260920-071<\/strong><br>Nivel: seguimiento<br>Focos: 1<br>Últimas 6 h: 0<br>FRP total: 0.6 MW<br>Última detección UTC: 2026-09-20 02:26:00"
      }
    },
    {
      "type": "Feature",
      "geometry": {
        "type": "Point",
        "coordinates": [-8.5558, 41.2536]
      },
      "properties": {
        "cluster_id": "ALERT-20260920-072",
        "alerta_operativa": "seguimiento",
        "score": 3.8,
        "n_focos": 1,
        "n_ultimas_6h": 0,
        "n_ultimas_24h": 1,
        "frp_total_mw": 0.5,
        "frp_max_mw": 0.5,
        "edad_min_h": 18.8,
        "ultima_deteccion_utc": "2026-09-20 02:43:00",
        "sensores": "VIIRS_NOAA20_NRT",
        "satellites": "N20",
        "instruments": "VIIRS",
        "popup_label": "<strong>ALERT-20260920-072<\/strong><br>Nivel: seguimiento<br>Focos: 1<br>Últimas 6 h: 0<br>FRP total: 0.5 MW<br>Última detección UTC: 2026-09-20 02:43:00"
      }
    },
    {
      "type": "Feature",
      "geometry": {
        "type": "Point",
        "coordinates": [-2.7726, 43.2071]
      },
      "properties": {
        "cluster_id": "ALERT-20260920-073",
        "alerta_operativa": "seguimiento",
        "score": 3.5,
        "n_focos": 1,
        "n_ultimas_6h": 0,
        "n_ultimas_24h": 1,
        "frp_total_mw": 0.3,
        "frp_max_mw": 0.3,
        "edad_min_h": 18.8,
        "ultima_deteccion_utc": "2026-09-20 02:43:00",
        "sensores": "VIIRS_NOAA20_NRT",
        "satellites": "N20",
        "instruments": "VIIRS",
        "popup_label": "<strong>ALERT-20260920-073<\/strong><br>Nivel: seguimiento<br>Focos: 1<br>Últimas 6 h: 0<br>FRP total: 0.3 MW<br>Última detección UTC: 2026-09-20 02:43:00"
      }
    },
    {
      "type": "Feature",
      "geometry": {
        "type": "Point",
        "coordinates": [3.2309, 32.9371]
      },
      "properties": {
        "cluster_id": "ALERT-20260920-074",
        "alerta_operativa": "informativa",
        "score": 32,
        "n_focos": 25,
        "n_ultimas_6h": 0,
        "n_ultimas_24h": 0,
        "frp_total_mw": 31.5,
        "frp_max_mw": 3.9,
        "edad_min_h": 32.8,
        "ultima_deteccion_utc": "2026-09-19 12:42:00",
        "sensores": "VIIRS_NOAA20_NRT, VIIRS_SNPP_NRT",
        "satellites": "N, N20",
        "instruments": "VIIRS",
        "popup_label": "<strong>ALERT-20260920-074<\/strong><br>Nivel: informativa<br>Focos: 25<br>Últimas 6 h: 0<br>FRP total: 31.5 MW<br>Última detección UTC: 2026-09-19 12:42:00"
      }
    },
    {
      "type": "Feature",
      "geometry": {
        "type": "Point",
        "coordinates": [3.1827, 32.7453]
      },
      "properties": {
        "cluster_id": "ALERT-20260920-075",
        "alerta_operativa": "informativa",
        "score": 12.7,
        "n_focos": 8,
        "n_ultimas_6h": 0,
        "n_ultimas_24h": 0,
        "frp_total_mw": 9.7,
        "frp_max_mw": 1.5,
        "edad_min_h": 42.8,
        "ultima_deteccion_utc": "2026-09-19 02:43:00",
        "sensores": "VIIRS_NOAA20_NRT, VIIRS_SNPP_NRT",
        "satellites": "N, N20",
        "instruments": "VIIRS",
        "popup_label": "<strong>ALERT-20260920-075<\/strong><br>Nivel: informativa<br>Focos: 8<br>Últimas 6 h: 0<br>FRP total: 9.7 MW<br>Última detección UTC: 2026-09-19 02:43:00"
      }
    },
    {
      "type": "Feature",
      "geometry": {
        "type": "Point",
        "coordinates": [-1.9931, 42.5987]
      },
      "properties": {
        "cluster_id": "ALERT-20260920-076",
        "alerta_operativa": "informativa",
        "score": 10.9,
        "n_focos": 4,
        "n_ultimas_6h": 0,
        "n_ultimas_24h": 0,
        "frp_total_mw": 30.5,
        "frp_max_mw": 12.6,
        "edad_min_h": 33.1,
        "ultima_deteccion_utc": "2026-09-19 12:25:00",
        "sensores": "VIIRS_SNPP_NRT",
        "satellites": "N",
        "instruments": "VIIRS",
        "popup_label": "<strong>ALERT-20260920-076<\/strong><br>Nivel: informativa<br>Focos: 4<br>Últimas 6 h: 0<br>FRP total: 30.5 MW<br>Última detección UTC: 2026-09-19 12:25:00"
      }
    },
    {
      "type": "Feature",
      "geometry": {
        "type": "Point",
        "coordinates": [-4.0552, 40.0823]
      },
      "properties": {
        "cluster_id": "ALERT-20260920-077",
        "alerta_operativa": "informativa",
        "score": 10.7,
        "n_focos": 4,
        "n_ultimas_6h": 0,
        "n_ultimas_24h": 0,
        "frp_total_mw": 27.6,
        "frp_max_mw": 8.5,
        "edad_min_h": 33.1,
        "ultima_deteccion_utc": "2026-09-19 12:25:00",
        "sensores": "VIIRS_SNPP_NRT",
        "satellites": "N",
        "instruments": "VIIRS",
        "popup_label": "<strong>ALERT-20260920-077<\/strong><br>Nivel: informativa<br>Focos: 4<br>Últimas 6 h: 0<br>FRP total: 27.6 MW<br>Última detección UTC: 2026-09-19 12:25:00"
      }
    },
    {
      "type": "Feature",
      "geometry": {
        "type": "Point",
        "coordinates": [0.3307, 28.5348]
      },
      "properties": {
        "cluster_id": "ALERT-20260920-078",
        "alerta_operativa": "informativa",
        "score": 10.4,
        "n_focos": 3,
        "n_ultimas_6h": 0,
        "n_ultimas_24h": 0,
        "frp_total_mw": 40,
        "frp_max_mw": 14.2,
        "edad_min_h": 32.8,
        "ultima_deteccion_utc": "2026-09-19 12:42:00",
        "sensores": "VIIRS_NOAA20_NRT",
        "satellites": "N20",
        "instruments": "VIIRS",
        "popup_label": "<strong>ALERT-20260920-078<\/strong><br>Nivel: informativa<br>Focos: 3<br>Últimas 6 h: 0<br>FRP total: 40 MW<br>Última detección UTC: 2026-09-19 12:42:00"
      }
    },
    {
      "type": "Feature",
      "geometry": {
        "type": "Point",
        "coordinates": [-4.1898, 39.9706]
      },
      "properties": {
        "cluster_id": "ALERT-20260920-079",
        "alerta_operativa": "informativa",
        "score": 10,
        "n_focos": 3,
        "n_ultimas_6h": 0,
        "n_ultimas_24h": 0,
        "frp_total_mw": 31.6,
        "frp_max_mw": 14.1,
        "edad_min_h": 31.4,
        "ultima_deteccion_utc": "2026-09-19 14:05:00",
        "sensores": "VIIRS_NOAA20_NRT, VIIRS_SNPP_NRT",
        "satellites": "N, N20",
        "instruments": "VIIRS",
        "popup_label": "<strong>ALERT-20260920-079<\/strong><br>Nivel: informativa<br>Focos: 3<br>Últimas 6 h: 0<br>FRP total: 31.6 MW<br>Última detección UTC: 2026-09-19 14:05:00"
      }
    },
    {
      "type": "Feature",
      "geometry": {
        "type": "Point",
        "coordinates": [-8.4287, 42.439]
      },
      "properties": {
        "cluster_id": "ALERT-20260920-080",
        "alerta_operativa": "informativa",
        "score": 9.5,
        "n_focos": 5,
        "n_ultimas_6h": 0,
        "n_ultimas_24h": 0,
        "frp_total_mw": 8.3,
        "frp_max_mw": 5.6,
        "edad_min_h": 42.5,
        "ultima_deteccion_utc": "2026-09-19 03:02:00",
        "sensores": "VIIRS_NOAA20_NRT, VIIRS_SNPP_NRT",
        "satellites": "N, N20",
        "instruments": "VIIRS",
        "popup_label": "<strong>ALERT-20260920-080<\/strong><br>Nivel: informativa<br>Focos: 5<br>Últimas 6 h: 0<br>FRP total: 8.3 MW<br>Última detección UTC: 2026-09-19 03:02:00"
      }
    },
    {
      "type": "Feature",
      "geometry": {
        "type": "Point",
        "coordinates": [-5.8948, 35.0156]
      },
      "properties": {
        "cluster_id": "ALERT-20260920-081",
        "alerta_operativa": "informativa",
        "score": 8.7,
        "n_focos": 3,
        "n_ultimas_6h": 0,
        "n_ultimas_24h": 0,
        "frp_total_mw": 15.9,
        "frp_max_mw": 6.7,
        "edad_min_h": 31.5,
        "ultima_deteccion_utc": "2026-09-19 14:03:00",
        "sensores": "VIIRS_SNPP_NRT",
        "satellites": "N",
        "instruments": "VIIRS",
        "popup_label": "<strong>ALERT-20260920-081<\/strong><br>Nivel: informativa<br>Focos: 3<br>Últimas 6 h: 0<br>FRP total: 15.9 MW<br>Última detección UTC: 2026-09-19 14:03:00"
      }
    },
    {
      "type": "Feature",
      "geometry": {
        "type": "Point",
        "coordinates": [-5.51, 37.5665]
      },
      "properties": {
        "cluster_id": "ALERT-20260920-082",
        "alerta_operativa": "informativa",
        "score": 8.6,
        "n_focos": 3,
        "n_ultimas_6h": 0,
        "n_ultimas_24h": 0,
        "frp_total_mw": 15.3,
        "frp_max_mw": 6,
        "edad_min_h": 32.8,
        "ultima_deteccion_utc": "2026-09-19 12:44:00",
        "sensores": "VIIRS_NOAA20_NRT",
        "satellites": "N20",
        "instruments": "VIIRS",
        "popup_label": "<strong>ALERT-20260920-082<\/strong><br>Nivel: informativa<br>Focos: 3<br>Últimas 6 h: 0<br>FRP total: 15.3 MW<br>Última detección UTC: 2026-09-19 12:44:00"
      }
    },
    {
      "type": "Feature",
      "geometry": {
        "type": "Point",
        "coordinates": [0.4141, 43.4781]
      },
      "properties": {
        "cluster_id": "ALERT-20260920-083",
        "alerta_operativa": "informativa",
        "score": 8.5,
        "n_focos": 3,
        "n_ultimas_6h": 0,
        "n_ultimas_24h": 0,
        "frp_total_mw": 14.4,
        "frp_max_mw": 10.5,
        "edad_min_h": 32.8,
        "ultima_deteccion_utc": "2026-09-19 12:46:00",
        "sensores": "VIIRS_NOAA20_NRT",
        "satellites": "N20",
        "instruments": "VIIRS",
        "popup_label": "<strong>ALERT-20260920-083<\/strong><br>Nivel: informativa<br>Focos: 3<br>Últimas 6 h: 0<br>FRP total: 14.4 MW<br>Última detección UTC: 2026-09-19 12:46:00"
      }
    },
    {
      "type": "Feature",
      "geometry": {
        "type": "Point",
        "coordinates": [-4.9553, 39.947]
      },
      "properties": {
        "cluster_id": "ALERT-20260920-084",
        "alerta_operativa": "informativa",
        "score": 8.2,
        "n_focos": 2,
        "n_ultimas_6h": 0,
        "n_ultimas_24h": 0,
        "frp_total_mw": 20.7,
        "frp_max_mw": 10.3,
        "edad_min_h": 31.1,
        "ultima_deteccion_utc": "2026-09-19 14:25:00",
        "sensores": "VIIRS_NOAA20_NRT",
        "satellites": "N20",
        "instruments": "VIIRS",
        "popup_label": "<strong>ALERT-20260920-084<\/strong><br>Nivel: informativa<br>Focos: 2<br>Últimas 6 h: 0<br>FRP total: 20.7 MW<br>Última detección UTC: 2026-09-19 14:25:00"
      }
    },
    {
      "type": "Feature",
      "geometry": {
        "type": "Point",
        "coordinates": [-3.2972, 40.5425]
      },
      "properties": {
        "cluster_id": "ALERT-20260920-085",
        "alerta_operativa": "informativa",
        "score": 7.8,
        "n_focos": 3,
        "n_ultimas_6h": 0,
        "n_ultimas_24h": 0,
        "frp_total_mw": 10.2,
        "frp_max_mw": 4.3,
        "edad_min_h": 32.8,
        "ultima_deteccion_utc": "2026-09-19 12:44:00",
        "sensores": "VIIRS_NOAA20_NRT",
        "satellites": "N20",
        "instruments": "VIIRS",
        "popup_label": "<strong>ALERT-20260920-085<\/strong><br>Nivel: informativa<br>Focos: 3<br>Últimas 6 h: 0<br>FRP total: 10.2 MW<br>Última detección UTC: 2026-09-19 12:44:00"
      }
    },
    {
      "type": "Feature",
      "geometry": {
        "type": "Point",
        "coordinates": [-4.0462, 37.3217]
      },
      "properties": {
        "cluster_id": "ALERT-20260920-086",
        "alerta_operativa": "informativa",
        "score": 7.5,
        "n_focos": 2,
        "n_ultimas_6h": 0,
        "n_ultimas_24h": 0,
        "frp_total_mw": 14.8,
        "frp_max_mw": 8.5,
        "edad_min_h": 32.8,
        "ultima_deteccion_utc": "2026-09-19 12:44:00",
        "sensores": "VIIRS_NOAA20_NRT, VIIRS_SNPP_NRT",
        "satellites": "N, N20",
        "instruments": "VIIRS",
        "popup_label": "<strong>ALERT-20260920-086<\/strong><br>Nivel: informativa<br>Focos: 2<br>Últimas 6 h: 0<br>FRP total: 14.8 MW<br>Última detección UTC: 2026-09-19 12:44:00"
      }
    },
    {
      "type": "Feature",
      "geometry": {
        "type": "Point",
        "coordinates": [-6.0354, 36.6058]
      },
      "properties": {
        "cluster_id": "ALERT-20260920-087",
        "alerta_operativa": "informativa",
        "score": 7.5,
        "n_focos": 2,
        "n_ultimas_6h": 0,
        "n_ultimas_24h": 0,
        "frp_total_mw": 14.5,
        "frp_max_mw": 7.5,
        "edad_min_h": 31.5,
        "ultima_deteccion_utc": "2026-09-19 14:03:00",
        "sensores": "VIIRS_SNPP_NRT",
        "satellites": "N",
        "instruments": "VIIRS",
        "popup_label": "<strong>ALERT-20260920-087<\/strong><br>Nivel: informativa<br>Focos: 2<br>Últimas 6 h: 0<br>FRP total: 14.5 MW<br>Última detección UTC: 2026-09-19 14:03:00"
      }
    },
    {
      "type": "Feature",
      "geometry": {
        "type": "Point",
        "coordinates": [-0.5478, 43.9631]
      },
      "properties": {
        "cluster_id": "ALERT-20260920-088",
        "alerta_operativa": "informativa",
        "score": 6.8,
        "n_focos": 2,
        "n_ultimas_6h": 0,
        "n_ultimas_24h": 0,
        "frp_total_mw": 10.3,
        "frp_max_mw": 7.6,
        "edad_min_h": 32.8,
        "ultima_deteccion_utc": "2026-09-19 12:46:00",
        "sensores": "VIIRS_NOAA20_NRT",
        "satellites": "N20",
        "instruments": "VIIRS",
        "popup_label": "<strong>ALERT-20260920-088<\/strong><br>Nivel: informativa<br>Focos: 2<br>Últimas 6 h: 0<br>FRP total: 10.3 MW<br>Última detección UTC: 2026-09-19 12:46:00"
      }
    },
    {
      "type": "Feature",
      "geometry": {
        "type": "Point",
        "coordinates": [-8.6116, 41.148]
      },
      "properties": {
        "cluster_id": "ALERT-20260920-089",
        "alerta_operativa": "informativa",
        "score": 6.7,
        "n_focos": 3,
        "n_ultimas_6h": 0,
        "n_ultimas_24h": 0,
        "frp_total_mw": 5.3,
        "frp_max_mw": 2.1,
        "edad_min_h": 42.5,
        "ultima_deteccion_utc": "2026-09-19 03:02:00",
        "sensores": "VIIRS_NOAA20_NRT, VIIRS_SNPP_NRT",
        "satellites": "N, N20",
        "instruments": "VIIRS",
        "popup_label": "<strong>ALERT-20260920-089<\/strong><br>Nivel: informativa<br>Focos: 3<br>Últimas 6 h: 0<br>FRP total: 5.3 MW<br>Última detección UTC: 2026-09-19 03:02:00"
      }
    },
    {
      "type": "Feature",
      "geometry": {
        "type": "Point",
        "coordinates": [-0.3665, 44.425]
      },
      "properties": {
        "cluster_id": "ALERT-20260920-090",
        "alerta_operativa": "informativa",
        "score": 6.5,
        "n_focos": 2,
        "n_ultimas_6h": 0,
        "n_ultimas_24h": 0,
        "frp_total_mw": 8.3,
        "frp_max_mw": 4.1,
        "edad_min_h": 32.8,
        "ultima_deteccion_utc": "2026-09-19 12:46:00",
        "sensores": "VIIRS_NOAA20_NRT",
        "satellites": "N20",
        "instruments": "VIIRS",
        "popup_label": "<strong>ALERT-20260920-090<\/strong><br>Nivel: informativa<br>Focos: 2<br>Últimas 6 h: 0<br>FRP total: 8.3 MW<br>Última detección UTC: 2026-09-19 12:46:00"
      }
    },
    {
      "type": "Feature",
      "geometry": {
        "type": "Point",
        "coordinates": [-4.4891, 42.1192]
      },
      "properties": {
        "cluster_id": "ALERT-20260920-091",
        "alerta_operativa": "informativa",
        "score": 6.2,
        "n_focos": 2,
        "n_ultimas_6h": 0,
        "n_ultimas_24h": 0,
        "frp_total_mw": 7.2,
        "frp_max_mw": 3.8,
        "edad_min_h": 32.8,
        "ultima_deteccion_utc": "2026-09-19 12:46:00",
        "sensores": "VIIRS_NOAA20_NRT, VIIRS_SNPP_NRT",
        "satellites": "N, N20",
        "instruments": "VIIRS",
        "popup_label": "<strong>ALERT-20260920-091<\/strong><br>Nivel: informativa<br>Focos: 2<br>Últimas 6 h: 0<br>FRP total: 7.2 MW<br>Última detección UTC: 2026-09-19 12:46:00"
      }
    },
    {
      "type": "Feature",
      "geometry": {
        "type": "Point",
        "coordinates": [-2.2084, 42.1829]
      },
      "properties": {
        "cluster_id": "ALERT-20260920-092",
        "alerta_operativa": "informativa",
        "score": 6,
        "n_focos": 1,
        "n_ultimas_6h": 0,
        "n_ultimas_24h": 0,
        "frp_total_mw": 11.1,
        "frp_max_mw": 11.1,
        "edad_min_h": 32.8,
        "ultima_deteccion_utc": "2026-09-19 12:46:00",
        "sensores": "VIIRS_NOAA20_NRT",
        "satellites": "N20",
        "instruments": "VIIRS",
        "popup_label": "<strong>ALERT-20260920-092<\/strong><br>Nivel: informativa<br>Focos: 1<br>Últimas 6 h: 0<br>FRP total: 11.1 MW<br>Última detección UTC: 2026-09-19 12:46:00"
      }
    },
    {
      "type": "Feature",
      "geometry": {
        "type": "Point",
        "coordinates": [1.1966, 36.1422]
      },
      "properties": {
        "cluster_id": "ALERT-20260920-093",
        "alerta_operativa": "informativa",
        "score": 6,
        "n_focos": 2,
        "n_ultimas_6h": 0,
        "n_ultimas_24h": 0,
        "frp_total_mw": 6.5,
        "frp_max_mw": 3.9,
        "edad_min_h": 44.1,
        "ultima_deteccion_utc": "2026-09-19 01:24:00",
        "sensores": "VIIRS_NOAA20_NRT",
        "satellites": "N20",
        "instruments": "VIIRS",
        "popup_label": "<strong>ALERT-20260920-093<\/strong><br>Nivel: informativa<br>Focos: 2<br>Últimas 6 h: 0<br>FRP total: 6.5 MW<br>Última detección UTC: 2026-09-19 01:24:00"
      }
    },
    {
      "type": "Feature",
      "geometry": {
        "type": "Point",
        "coordinates": [-5.1827, 36.9474]
      },
      "properties": {
        "cluster_id": "ALERT-20260920-094",
        "alerta_operativa": "informativa",
        "score": 5.9,
        "n_focos": 2,
        "n_ultimas_6h": 0,
        "n_ultimas_24h": 0,
        "frp_total_mw": 6,
        "frp_max_mw": 3.2,
        "edad_min_h": 42.5,
        "ultima_deteccion_utc": "2026-09-19 03:04:00",
        "sensores": "VIIRS_NOAA20_NRT, VIIRS_SNPP_NRT",
        "satellites": "N, N20",
        "instruments": "VIIRS",
        "popup_label": "<strong>ALERT-20260920-094<\/strong><br>Nivel: informativa<br>Focos: 2<br>Últimas 6 h: 0<br>FRP total: 6 MW<br>Última detección UTC: 2026-09-19 03:04:00"
      }
    },
    {
      "type": "Feature",
      "geometry": {
        "type": "Point",
        "coordinates": [-5.9011, 36.7777]
      },
      "properties": {
        "cluster_id": "ALERT-20260920-095",
        "alerta_operativa": "informativa",
        "score": 5.7,
        "n_focos": 2,
        "n_ultimas_6h": 0,
        "n_ultimas_24h": 0,
        "frp_total_mw": 5.5,
        "frp_max_mw": 3.1,
        "edad_min_h": 32.8,
        "ultima_deteccion_utc": "2026-09-19 12:44:00",
        "sensores": "VIIRS_NOAA20_NRT",
        "satellites": "N20",
        "instruments": "VIIRS",
        "popup_label": "<strong>ALERT-20260920-095<\/strong><br>Nivel: informativa<br>Focos: 2<br>Últimas 6 h: 0<br>FRP total: 5.5 MW<br>Última detección UTC: 2026-09-19 12:44:00"
      }
    },
    {
      "type": "Feature",
      "geometry": {
        "type": "Point",
        "coordinates": [-4.2175, 40.2931]
      },
      "properties": {
        "cluster_id": "ALERT-20260920-096",
        "alerta_operativa": "informativa",
        "score": 5.4,
        "n_focos": 2,
        "n_ultimas_6h": 0,
        "n_ultimas_24h": 0,
        "frp_total_mw": 4.4,
        "frp_max_mw": 3.5,
        "edad_min_h": 42.5,
        "ultima_deteccion_utc": "2026-09-19 03:02:00",
        "sensores": "VIIRS_NOAA20_NRT, VIIRS_SNPP_NRT",
        "satellites": "N, N20",
        "instruments": "VIIRS",
        "popup_label": "<strong>ALERT-20260920-096<\/strong><br>Nivel: informativa<br>Focos: 2<br>Últimas 6 h: 0<br>FRP total: 4.4 MW<br>Última detección UTC: 2026-09-19 03:02:00"
      }
    },
    {
      "type": "Feature",
      "geometry": {
        "type": "Point",
        "coordinates": [0.2793, 44.4304]
      },
      "properties": {
        "cluster_id": "ALERT-20260920-097",
        "alerta_operativa": "informativa",
        "score": 5.3,
        "n_focos": 2,
        "n_ultimas_6h": 0,
        "n_ultimas_24h": 0,
        "frp_total_mw": 4.1,
        "frp_max_mw": 2,
        "edad_min_h": 32.8,
        "ultima_deteccion_utc": "2026-09-19 12:46:00",
        "sensores": "VIIRS_NOAA20_NRT",
        "satellites": "N20",
        "instruments": "VIIRS",
        "popup_label": "<strong>ALERT-20260920-097<\/strong><br>Nivel: informativa<br>Focos: 2<br>Últimas 6 h: 0<br>FRP total: 4.1 MW<br>Última detección UTC: 2026-09-19 12:46:00"
      }
    },
    {
      "type": "Feature",
      "geometry": {
        "type": "Point",
        "coordinates": [3.3126, 36.7348]
      },
      "properties": {
        "cluster_id": "ALERT-20260920-098",
        "alerta_operativa": "informativa",
        "score": 5.3,
        "n_focos": 2,
        "n_ultimas_6h": 0,
        "n_ultimas_24h": 0,
        "frp_total_mw": 4.1,
        "frp_max_mw": 2.3,
        "edad_min_h": 32.8,
        "ultima_deteccion_utc": "2026-09-19 12:44:00",
        "sensores": "VIIRS_NOAA20_NRT",
        "satellites": "N20",
        "instruments": "VIIRS",
        "popup_label": "<strong>ALERT-20260920-098<\/strong><br>Nivel: informativa<br>Focos: 2<br>Últimas 6 h: 0<br>FRP total: 4.1 MW<br>Última detección UTC: 2026-09-19 12:44:00"
      }
    },
    {
      "type": "Feature",
      "geometry": {
        "type": "Point",
        "coordinates": [-6.0971, 33.9651]
      },
      "properties": {
        "cluster_id": "ALERT-20260920-099",
        "alerta_operativa": "informativa",
        "score": 5.2,
        "n_focos": 1,
        "n_ultimas_6h": 0,
        "n_ultimas_24h": 0,
        "frp_total_mw": 7,
        "frp_max_mw": 7,
        "edad_min_h": 31.1,
        "ultima_deteccion_utc": "2026-09-19 14:25:00",
        "sensores": "VIIRS_NOAA20_NRT",
        "satellites": "N20",
        "instruments": "VIIRS",
        "popup_label": "<strong>ALERT-20260920-099<\/strong><br>Nivel: informativa<br>Focos: 1<br>Últimas 6 h: 0<br>FRP total: 7 MW<br>Última detección UTC: 2026-09-19 14:25:00"
      }
    },
    {
      "type": "Feature",
      "geometry": {
        "type": "Point",
        "coordinates": [-0.7359, 40.8606]
      },
      "properties": {
        "cluster_id": "ALERT-20260920-100",
        "alerta_operativa": "informativa",
        "score": 4.7,
        "n_focos": 1,
        "n_ultimas_6h": 0,
        "n_ultimas_24h": 0,
        "frp_total_mw": 5.5,
        "frp_max_mw": 5.5,
        "edad_min_h": 31.4,
        "ultima_deteccion_utc": "2026-09-19 14:05:00",
        "sensores": "VIIRS_SNPP_NRT",
        "satellites": "N",
        "instruments": "VIIRS",
        "popup_label": "<strong>ALERT-20260920-100<\/strong><br>Nivel: informativa<br>Focos: 1<br>Últimas 6 h: 0<br>FRP total: 5.5 MW<br>Última detección UTC: 2026-09-19 14:05:00"
      }
    },
    {
      "type": "Feature",
      "geometry": {
        "type": "Point",
        "coordinates": [-8.5545, 40.6056]
      },
      "properties": {
        "cluster_id": "ALERT-20260920-101",
        "alerta_operativa": "informativa",
        "score": 4.4,
        "n_focos": 1,
        "n_ultimas_6h": 0,
        "n_ultimas_24h": 0,
        "frp_total_mw": 4.6,
        "frp_max_mw": 4.6,
        "edad_min_h": 32.8,
        "ultima_deteccion_utc": "2026-09-19 12:46:00",
        "sensores": "VIIRS_NOAA20_NRT",
        "satellites": "N20",
        "instruments": "VIIRS",
        "popup_label": "<strong>ALERT-20260920-101<\/strong><br>Nivel: informativa<br>Focos: 1<br>Últimas 6 h: 0<br>FRP total: 4.6 MW<br>Última detección UTC: 2026-09-19 12:46:00"
      }
    },
    {
      "type": "Feature",
      "geometry": {
        "type": "Point",
        "coordinates": [4.2271, 35.6482]
      },
      "properties": {
        "cluster_id": "ALERT-20260920-102",
        "alerta_operativa": "informativa",
        "score": 4.4,
        "n_focos": 1,
        "n_ultimas_6h": 0,
        "n_ultimas_24h": 0,
        "frp_total_mw": 4.5,
        "frp_max_mw": 4.5,
        "edad_min_h": 32.8,
        "ultima_deteccion_utc": "2026-09-19 12:44:00",
        "sensores": "VIIRS_NOAA20_NRT",
        "satellites": "N20",
        "instruments": "VIIRS",
        "popup_label": "<strong>ALERT-20260920-102<\/strong><br>Nivel: informativa<br>Focos: 1<br>Últimas 6 h: 0<br>FRP total: 4.5 MW<br>Última detección UTC: 2026-09-19 12:44:00"
      }
    },
    {
      "type": "Feature",
      "geometry": {
        "type": "Point",
        "coordinates": [3.056, 35.0371]
      },
      "properties": {
        "cluster_id": "ALERT-20260920-103",
        "alerta_operativa": "informativa",
        "score": 4.4,
        "n_focos": 1,
        "n_ultimas_6h": 0,
        "n_ultimas_24h": 0,
        "frp_total_mw": 4.4,
        "frp_max_mw": 4.4,
        "edad_min_h": 32.8,
        "ultima_deteccion_utc": "2026-09-19 12:44:00",
        "sensores": "VIIRS_NOAA20_NRT",
        "satellites": "N20",
        "instruments": "VIIRS",
        "popup_label": "<strong>ALERT-20260920-103<\/strong><br>Nivel: informativa<br>Focos: 1<br>Últimas 6 h: 0<br>FRP total: 4.4 MW<br>Última detección UTC: 2026-09-19 12:44:00"
      }
    },
    {
      "type": "Feature",
      "geometry": {
        "type": "Point",
        "coordinates": [-7.6712, 38.3286]
      },
      "properties": {
        "cluster_id": "ALERT-20260920-104",
        "alerta_operativa": "informativa",
        "score": 4.4,
        "n_focos": 1,
        "n_ultimas_6h": 0,
        "n_ultimas_24h": 0,
        "frp_total_mw": 4.4,
        "frp_max_mw": 4.4,
        "edad_min_h": 32.8,
        "ultima_deteccion_utc": "2026-09-19 12:44:00",
        "sensores": "VIIRS_NOAA20_NRT",
        "satellites": "N20",
        "instruments": "VIIRS",
        "popup_label": "<strong>ALERT-20260920-104<\/strong><br>Nivel: informativa<br>Focos: 1<br>Últimas 6 h: 0<br>FRP total: 4.4 MW<br>Última detección UTC: 2026-09-19 12:44:00"
      }
    },
    {
      "type": "Feature",
      "geometry": {
        "type": "Point",
        "coordinates": [-5.0896, 34.6306]
      },
      "properties": {
        "cluster_id": "ALERT-20260920-105",
        "alerta_operativa": "informativa",
        "score": 4.2,
        "n_focos": 1,
        "n_ultimas_6h": 0,
        "n_ultimas_24h": 0,
        "frp_total_mw": 4,
        "frp_max_mw": 4,
        "edad_min_h": 32.8,
        "ultima_deteccion_utc": "2026-09-19 12:44:00",
        "sensores": "VIIRS_NOAA20_NRT",
        "satellites": "N20",
        "instruments": "VIIRS",
        "popup_label": "<strong>ALERT-20260920-105<\/strong><br>Nivel: informativa<br>Focos: 1<br>Últimas 6 h: 0<br>FRP total: 4 MW<br>Última detección UTC: 2026-09-19 12:44:00"
      }
    },
    {
      "type": "Feature",
      "geometry": {
        "type": "Point",
        "coordinates": [0.4835, 44.4421]
      },
      "properties": {
        "cluster_id": "ALERT-20260920-106",
        "alerta_operativa": "informativa",
        "score": 3.9,
        "n_focos": 1,
        "n_ultimas_6h": 0,
        "n_ultimas_24h": 0,
        "frp_total_mw": 3.3,
        "frp_max_mw": 3.3,
        "edad_min_h": 32.8,
        "ultima_deteccion_utc": "2026-09-19 12:46:00",
        "sensores": "VIIRS_NOAA20_NRT",
        "satellites": "N20",
        "instruments": "VIIRS",
        "popup_label": "<strong>ALERT-20260920-106<\/strong><br>Nivel: informativa<br>Focos: 1<br>Últimas 6 h: 0<br>FRP total: 3.3 MW<br>Última detección UTC: 2026-09-19 12:46:00"
      }
    },
    {
      "type": "Feature",
      "geometry": {
        "type": "Point",
        "coordinates": [-5.7718, 42.3692]
      },
      "properties": {
        "cluster_id": "ALERT-20260920-107",
        "alerta_operativa": "informativa",
        "score": 3.9,
        "n_focos": 2,
        "n_ultimas_6h": 0,
        "n_ultimas_24h": 0,
        "frp_total_mw": 1.6,
        "frp_max_mw": 0.8,
        "edad_min_h": 42.8,
        "ultima_deteccion_utc": "2026-09-19 02:41:00",
        "sensores": "VIIRS_NOAA20_NRT, VIIRS_SNPP_NRT",
        "satellites": "N, N20",
        "instruments": "VIIRS",
        "popup_label": "<strong>ALERT-20260920-107<\/strong><br>Nivel: informativa<br>Focos: 2<br>Últimas 6 h: 0<br>FRP total: 1.6 MW<br>Última detección UTC: 2026-09-19 02:41:00"
      }
    },
    {
      "type": "Feature",
      "geometry": {
        "type": "Point",
        "coordinates": [-0.5387, 44.3423]
      },
      "properties": {
        "cluster_id": "ALERT-20260920-108",
        "alerta_operativa": "informativa",
        "score": 3.8,
        "n_focos": 1,
        "n_ultimas_6h": 0,
        "n_ultimas_24h": 0,
        "frp_total_mw": 3.1,
        "frp_max_mw": 3.1,
        "edad_min_h": 32.8,
        "ultima_deteccion_utc": "2026-09-19 12:46:00",
        "sensores": "VIIRS_NOAA20_NRT",
        "satellites": "N20",
        "instruments": "VIIRS",
        "popup_label": "<strong>ALERT-20260920-108<\/strong><br>Nivel: informativa<br>Focos: 1<br>Últimas 6 h: 0<br>FRP total: 3.1 MW<br>Última detección UTC: 2026-09-19 12:46:00"
      }
    },
    {
      "type": "Feature",
      "geometry": {
        "type": "Point",
        "coordinates": [-9.1524, 30.219]
      },
      "properties": {
        "cluster_id": "ALERT-20260920-109",
        "alerta_operativa": "informativa",
        "score": 3.8,
        "n_focos": 2,
        "n_ultimas_6h": 0,
        "n_ultimas_24h": 0,
        "frp_total_mw": 1.5,
        "frp_max_mw": 0.9,
        "edad_min_h": 42.4,
        "ultima_deteccion_utc": "2026-09-19 03:06:00",
        "sensores": "VIIRS_NOAA20_NRT, VIIRS_SNPP_NRT",
        "satellites": "N, N20",
        "instruments": "VIIRS",
        "popup_label": "<strong>ALERT-20260920-109<\/strong><br>Nivel: informativa<br>Focos: 2<br>Últimas 6 h: 0<br>FRP total: 1.5 MW<br>Última detección UTC: 2026-09-19 03:06:00"
      }
    },
    {
      "type": "Feature",
      "geometry": {
        "type": "Point",
        "coordinates": [-6.423, 32.3027]
      },
      "properties": {
        "cluster_id": "ALERT-20260920-110",
        "alerta_operativa": "informativa",
        "score": 3.6,
        "n_focos": 1,
        "n_ultimas_6h": 0,
        "n_ultimas_24h": 0,
        "frp_total_mw": 2.6,
        "frp_max_mw": 2.6,
        "edad_min_h": 31.5,
        "ultima_deteccion_utc": "2026-09-19 14:03:00",
        "sensores": "VIIRS_SNPP_NRT",
        "satellites": "N",
        "instruments": "VIIRS",
        "popup_label": "<strong>ALERT-20260920-110<\/strong><br>Nivel: informativa<br>Focos: 1<br>Últimas 6 h: 0<br>FRP total: 2.6 MW<br>Última detección UTC: 2026-09-19 14:03:00"
      }
    },
    {
      "type": "Feature",
      "geometry": {
        "type": "Point",
        "coordinates": [0.6179, 41.6341]
      },
      "properties": {
        "cluster_id": "ALERT-20260920-111",
        "alerta_operativa": "informativa",
        "score": 3.5,
        "n_focos": 1,
        "n_ultimas_6h": 0,
        "n_ultimas_24h": 0,
        "frp_total_mw": 2.5,
        "frp_max_mw": 2.5,
        "edad_min_h": 32.8,
        "ultima_deteccion_utc": "2026-09-19 12:44:00",
        "sensores": "VIIRS_NOAA20_NRT",
        "satellites": "N20",
        "instruments": "VIIRS",
        "popup_label": "<strong>ALERT-20260920-111<\/strong><br>Nivel: informativa<br>Focos: 1<br>Últimas 6 h: 0<br>FRP total: 2.5 MW<br>Última detección UTC: 2026-09-19 12:44:00"
      }
    },
    {
      "type": "Feature",
      "geometry": {
        "type": "Point",
        "coordinates": [1.1255, 42.9739]
      },
      "properties": {
        "cluster_id": "ALERT-20260920-112",
        "alerta_operativa": "informativa",
        "score": 3.3,
        "n_focos": 1,
        "n_ultimas_6h": 0,
        "n_ultimas_24h": 0,
        "frp_total_mw": 2.1,
        "frp_max_mw": 2.1,
        "edad_min_h": 32.8,
        "ultima_deteccion_utc": "2026-09-19 12:46:00",
        "sensores": "VIIRS_NOAA20_NRT",
        "satellites": "N20",
        "instruments": "VIIRS",
        "popup_label": "<strong>ALERT-20260920-112<\/strong><br>Nivel: informativa<br>Focos: 1<br>Últimas 6 h: 0<br>FRP total: 2.1 MW<br>Última detección UTC: 2026-09-19 12:46:00"
      }
    },
    {
      "type": "Feature",
      "geometry": {
        "type": "Point",
        "coordinates": [-5.7322, 37.3558]
      },
      "properties": {
        "cluster_id": "ALERT-20260920-113",
        "alerta_operativa": "informativa",
        "score": 3.3,
        "n_focos": 1,
        "n_ultimas_6h": 0,
        "n_ultimas_24h": 0,
        "frp_total_mw": 2.1,
        "frp_max_mw": 2.1,
        "edad_min_h": 32.8,
        "ultima_deteccion_utc": "2026-09-19 12:44:00",
        "sensores": "VIIRS_NOAA20_NRT",
        "satellites": "N20",
        "instruments": "VIIRS",
        "popup_label": "<strong>ALERT-20260920-113<\/strong><br>Nivel: informativa<br>Focos: 1<br>Últimas 6 h: 0<br>FRP total: 2.1 MW<br>Última detección UTC: 2026-09-19 12:44:00"
      }
    },
    {
      "type": "Feature",
      "geometry": {
        "type": "Point",
        "coordinates": [-6.613, 38.6528]
      },
      "properties": {
        "cluster_id": "ALERT-20260920-114",
        "alerta_operativa": "informativa",
        "score": 3.1,
        "n_focos": 1,
        "n_ultimas_6h": 0,
        "n_ultimas_24h": 0,
        "frp_total_mw": 1.8,
        "frp_max_mw": 1.8,
        "edad_min_h": 32.8,
        "ultima_deteccion_utc": "2026-09-19 12:44:00",
        "sensores": "VIIRS_NOAA20_NRT",
        "satellites": "N20",
        "instruments": "VIIRS",
        "popup_label": "<strong>ALERT-20260920-114<\/strong><br>Nivel: informativa<br>Focos: 1<br>Últimas 6 h: 0<br>FRP total: 1.8 MW<br>Última detección UTC: 2026-09-19 12:44:00"
      }
    },
    {
      "type": "Feature",
      "geometry": {
        "type": "Point",
        "coordinates": [0.8847, 42.1688]
      },
      "properties": {
        "cluster_id": "ALERT-20260920-115",
        "alerta_operativa": "informativa",
        "score": 3,
        "n_focos": 1,
        "n_ultimas_6h": 0,
        "n_ultimas_24h": 0,
        "frp_total_mw": 1.7,
        "frp_max_mw": 1.7,
        "edad_min_h": 32.8,
        "ultima_deteccion_utc": "2026-09-19 12:46:00",
        "sensores": "VIIRS_NOAA20_NRT",
        "satellites": "N20",
        "instruments": "VIIRS",
        "popup_label": "<strong>ALERT-20260920-115<\/strong><br>Nivel: informativa<br>Focos: 1<br>Últimas 6 h: 0<br>FRP total: 1.7 MW<br>Última detección UTC: 2026-09-19 12:46:00"
      }
    },
    {
      "type": "Feature",
      "geometry": {
        "type": "Point",
        "coordinates": [0.4321, 44.5482]
      },
      "properties": {
        "cluster_id": "ALERT-20260920-116",
        "alerta_operativa": "informativa",
        "score": 2.9,
        "n_focos": 1,
        "n_ultimas_6h": 0,
        "n_ultimas_24h": 0,
        "frp_total_mw": 1.6,
        "frp_max_mw": 1.6,
        "edad_min_h": 32.8,
        "ultima_deteccion_utc": "2026-09-19 12:46:00",
        "sensores": "VIIRS_NOAA20_NRT",
        "satellites": "N20",
        "instruments": "VIIRS",
        "popup_label": "<strong>ALERT-20260920-116<\/strong><br>Nivel: informativa<br>Focos: 1<br>Últimas 6 h: 0<br>FRP total: 1.6 MW<br>Última detección UTC: 2026-09-19 12:46:00"
      }
    },
    {
      "type": "Feature",
      "geometry": {
        "type": "Point",
        "coordinates": [-0.0184, 43.6391]
      },
      "properties": {
        "cluster_id": "ALERT-20260920-117",
        "alerta_operativa": "informativa",
        "score": 2.7,
        "n_focos": 1,
        "n_ultimas_6h": 0,
        "n_ultimas_24h": 0,
        "frp_total_mw": 1.3,
        "frp_max_mw": 1.3,
        "edad_min_h": 32.8,
        "ultima_deteccion_utc": "2026-09-19 12:46:00",
        "sensores": "VIIRS_NOAA20_NRT",
        "satellites": "N20",
        "instruments": "VIIRS",
        "popup_label": "<strong>ALERT-20260920-117<\/strong><br>Nivel: informativa<br>Focos: 1<br>Últimas 6 h: 0<br>FRP total: 1.3 MW<br>Última detección UTC: 2026-09-19 12:46:00"
      }
    },
    {
      "type": "Feature",
      "geometry": {
        "type": "Point",
        "coordinates": [2.0322, 43.2493]
      },
      "properties": {
        "cluster_id": "ALERT-20260920-118",
        "alerta_operativa": "informativa",
        "score": 2.6,
        "n_focos": 1,
        "n_ultimas_6h": 0,
        "n_ultimas_24h": 0,
        "frp_total_mw": 1.2,
        "frp_max_mw": 1.2,
        "edad_min_h": 32.8,
        "ultima_deteccion_utc": "2026-09-19 12:46:00",
        "sensores": "VIIRS_NOAA20_NRT",
        "satellites": "N20",
        "instruments": "VIIRS",
        "popup_label": "<strong>ALERT-20260920-118<\/strong><br>Nivel: informativa<br>Focos: 1<br>Últimas 6 h: 0<br>FRP total: 1.2 MW<br>Última detección UTC: 2026-09-19 12:46:00"
      }
    },
    {
      "type": "Feature",
      "geometry": {
        "type": "Point",
        "coordinates": [0.6209, 43.6073]
      },
      "properties": {
        "cluster_id": "ALERT-20260920-119",
        "alerta_operativa": "informativa",
        "score": 2.6,
        "n_focos": 1,
        "n_ultimas_6h": 0,
        "n_ultimas_24h": 0,
        "frp_total_mw": 1.2,
        "frp_max_mw": 1.2,
        "edad_min_h": 32.8,
        "ultima_deteccion_utc": "2026-09-19 12:46:00",
        "sensores": "VIIRS_NOAA20_NRT",
        "satellites": "N20",
        "instruments": "VIIRS",
        "popup_label": "<strong>ALERT-20260920-119<\/strong><br>Nivel: informativa<br>Focos: 1<br>Últimas 6 h: 0<br>FRP total: 1.2 MW<br>Última detección UTC: 2026-09-19 12:46:00"
      }
    },
    {
      "type": "Feature",
      "geometry": {
        "type": "Point",
        "coordinates": [2.928, 36.1411]
      },
      "properties": {
        "cluster_id": "ALERT-20260920-120",
        "alerta_operativa": "informativa",
        "score": 2.2,
        "n_focos": 1,
        "n_ultimas_6h": 0,
        "n_ultimas_24h": 0,
        "frp_total_mw": 0.8,
        "frp_max_mw": 0.8,
        "edad_min_h": 44.2,
        "ultima_deteccion_utc": "2026-09-19 01:22:00",
        "sensores": "VIIRS_NOAA20_NRT",
        "satellites": "N20",
        "instruments": "VIIRS",
        "popup_label": "<strong>ALERT-20260920-120<\/strong><br>Nivel: informativa<br>Focos: 1<br>Últimas 6 h: 0<br>FRP total: 0.8 MW<br>Última detección UTC: 2026-09-19 01:22:00"
      }
    },
    {
      "type": "Feature",
      "geometry": {
        "type": "Point",
        "coordinates": [-8.1026, 37.1366]
      },
      "properties": {
        "cluster_id": "ALERT-20260920-121",
        "alerta_operativa": "informativa",
        "score": 2.1,
        "n_focos": 1,
        "n_ultimas_6h": 0,
        "n_ultimas_24h": 0,
        "frp_total_mw": 0.7,
        "frp_max_mw": 0.7,
        "edad_min_h": 42.8,
        "ultima_deteccion_utc": "2026-09-19 02:43:00",
        "sensores": "VIIRS_SNPP_NRT",
        "satellites": "N",
        "instruments": "VIIRS",
        "popup_label": "<strong>ALERT-20260920-121<\/strong><br>Nivel: informativa<br>Focos: 1<br>Últimas 6 h: 0<br>FRP total: 0.7 MW<br>Última detección UTC: 2026-09-19 02:43:00"
      }
    },
    {
      "type": "Feature",
      "geometry": {
        "type": "Point",
        "coordinates": [0.6152, 40.734]
      },
      "properties": {
        "cluster_id": "ALERT-20260920-122",
        "alerta_operativa": "informativa",
        "score": 1.7,
        "n_focos": 1,
        "n_ultimas_6h": 0,
        "n_ultimas_24h": 0,
        "frp_total_mw": 0.4,
        "frp_max_mw": 0.4,
        "edad_min_h": 42.8,
        "ultima_deteccion_utc": "2026-09-19 02:41:00",
        "sensores": "VIIRS_SNPP_NRT",
        "satellites": "N",
        "instruments": "VIIRS",
        "popup_label": "<strong>ALERT-20260920-122<\/strong><br>Nivel: informativa<br>Focos: 1<br>Últimas 6 h: 0<br>FRP total: 0.4 MW<br>Última detección UTC: 2026-09-19 02:41:00"
      }
    },
    {
      "type": "Feature",
      "geometry": {
        "type": "Point",
        "coordinates": [-11.4429, 27.1839]
      },
      "properties": {
        "cluster_id": "ALERT-20260920-123",
        "alerta_operativa": "informativa",
        "score": 1.4,
        "n_focos": 1,
        "n_ultimas_6h": 0,
        "n_ultimas_24h": 0,
        "frp_total_mw": 0.2,
        "frp_max_mw": 0.2,
        "edad_min_h": 31.2,
        "ultima_deteccion_utc": "2026-09-19 14:22:00",
        "sensores": "VIIRS_NOAA20_NRT",
        "satellites": "N20",
        "instruments": "VIIRS",
        "popup_label": "<strong>ALERT-20260920-123<\/strong><br>Nivel: informativa<br>Focos: 1<br>Últimas 6 h: 0<br>FRP total: 0.2 MW<br>Última detección UTC: 2026-09-19 14:22:00"
      }
    }
  ]
}
