{
  "type": "FeatureCollection",
  "features": [
    {
      "type": "Feature",
      "geometry": {
        "type": "Point",
        "coordinates": [3.2224, 32.9071]
      },
      "properties": {
        "cluster_id": "ALERT-20261003-001",
        "alerta_operativa": "media",
        "score": 89.8,
        "n_focos": 61,
        "n_ultimas_6h": 0,
        "n_ultimas_24h": 10,
        "frp_total_mw": 80.4,
        "frp_max_mw": 4.2,
        "edad_min_h": 6.9,
        "ultima_deteccion_utc": "2026-10-03 13:21:00",
        "sensores": "VIIRS_NOAA20_NRT, VIIRS_SNPP_NRT",
        "satellites": "N, N20",
        "instruments": "VIIRS",
        "popup_label": "<strong>ALERT-20261003-001<\/strong><br>Nivel: media<br>Focos: 61<br>Últimas 6 h: 0<br>FRP total: 80.4 MW<br>Última detección UTC: 2026-10-03 13:21:00"
      }
    },
    {
      "type": "Feature",
      "geometry": {
        "type": "Point",
        "coordinates": [-0.2537, 35.8019]
      },
      "properties": {
        "cluster_id": "ALERT-20261003-002",
        "alerta_operativa": "media",
        "score": 68.2,
        "n_focos": 20,
        "n_ultimas_6h": 0,
        "n_ultimas_24h": 20,
        "frp_total_mw": 58.1,
        "frp_max_mw": 10,
        "edad_min_h": 7.2,
        "ultima_deteccion_utc": "2026-10-03 13:01:00",
        "sensores": "VIIRS_NOAA20_NRT, VIIRS_SNPP_NRT",
        "satellites": "N, N20",
        "instruments": "VIIRS",
        "popup_label": "<strong>ALERT-20261003-002<\/strong><br>Nivel: media<br>Focos: 20<br>Últimas 6 h: 0<br>FRP total: 58.1 MW<br>Última detección UTC: 2026-10-03 13:01:00"
      }
    },
    {
      "type": "Feature",
      "geometry": {
        "type": "Point",
        "coordinates": [4.891, 43.442]
      },
      "properties": {
        "cluster_id": "ALERT-20261003-003",
        "alerta_operativa": "media",
        "score": 57.6,
        "n_focos": 28,
        "n_ultimas_6h": 0,
        "n_ultimas_24h": 11,
        "frp_total_mw": 44.2,
        "frp_max_mw": 5.3,
        "edad_min_h": 18.3,
        "ultima_deteccion_utc": "2026-10-03 01:58:00",
        "sensores": "VIIRS_NOAA20_NRT, VIIRS_SNPP_NRT",
        "satellites": "N, N20",
        "instruments": "VIIRS",
        "popup_label": "<strong>ALERT-20261003-003<\/strong><br>Nivel: media<br>Focos: 28<br>Últimas 6 h: 0<br>FRP total: 44.2 MW<br>Última detección UTC: 2026-10-03 01:58:00"
      }
    },
    {
      "type": "Feature",
      "geometry": {
        "type": "Point",
        "coordinates": [3.9864, 32.277]
      },
      "properties": {
        "cluster_id": "ALERT-20261003-004",
        "alerta_operativa": "media",
        "score": 54.9,
        "n_focos": 25,
        "n_ultimas_6h": 0,
        "n_ultimas_24h": 10,
        "frp_total_mw": 138.6,
        "frp_max_mw": 16.4,
        "edad_min_h": 6.9,
        "ultima_deteccion_utc": "2026-10-03 13:21:00",
        "sensores": "VIIRS_NOAA20_NRT, VIIRS_SNPP_NRT",
        "satellites": "N, N20",
        "instruments": "VIIRS",
        "popup_label": "<strong>ALERT-20261003-004<\/strong><br>Nivel: media<br>Focos: 25<br>Últimas 6 h: 0<br>FRP total: 138.6 MW<br>Última detección UTC: 2026-10-03 13:21:00"
      }
    },
    {
      "type": "Feature",
      "geometry": {
        "type": "Point",
        "coordinates": [3.1677, 32.555]
      },
      "properties": {
        "cluster_id": "ALERT-20261003-005",
        "alerta_operativa": "media",
        "score": 37.8,
        "n_focos": 16,
        "n_ultimas_6h": 0,
        "n_ultimas_24h": 7,
        "frp_total_mw": 49,
        "frp_max_mw": 5.6,
        "edad_min_h": 6.9,
        "ultima_deteccion_utc": "2026-10-03 13:21:00",
        "sensores": "VIIRS_NOAA20_NRT, VIIRS_SNPP_NRT",
        "satellites": "N, N20",
        "instruments": "VIIRS",
        "popup_label": "<strong>ALERT-20261003-005<\/strong><br>Nivel: media<br>Focos: 16<br>Últimas 6 h: 0<br>FRP total: 49 MW<br>Última detección UTC: 2026-10-03 13:21:00"
      }
    },
    {
      "type": "Feature",
      "geometry": {
        "type": "Point",
        "coordinates": [-7.4655, 40.2023]
      },
      "properties": {
        "cluster_id": "ALERT-20261003-006",
        "alerta_operativa": "media",
        "score": 32.8,
        "n_focos": 11,
        "n_ultimas_6h": 0,
        "n_ultimas_24h": 7,
        "frp_total_mw": 47.3,
        "frp_max_mw": 6.8,
        "edad_min_h": 6.9,
        "ultima_deteccion_utc": "2026-10-03 13:23:00",
        "sensores": "VIIRS_NOAA20_NRT, VIIRS_SNPP_NRT",
        "satellites": "N, N20",
        "instruments": "VIIRS",
        "popup_label": "<strong>ALERT-20261003-006<\/strong><br>Nivel: media<br>Focos: 11<br>Últimas 6 h: 0<br>FRP total: 47.3 MW<br>Última detección UTC: 2026-10-03 13:23:00"
      }
    },
    {
      "type": "Feature",
      "geometry": {
        "type": "Point",
        "coordinates": [-0.5169, 28.2002]
      },
      "properties": {
        "cluster_id": "ALERT-20261003-007",
        "alerta_operativa": "media",
        "score": 27.2,
        "n_focos": 10,
        "n_ultimas_6h": 0,
        "n_ultimas_24h": 5,
        "frp_total_mw": 35.3,
        "frp_max_mw": 5.6,
        "edad_min_h": 6.9,
        "ultima_deteccion_utc": "2026-10-03 13:21:00",
        "sensores": "VIIRS_NOAA20_NRT, VIIRS_SNPP_NRT",
        "satellites": "N, N20",
        "instruments": "VIIRS",
        "popup_label": "<strong>ALERT-20261003-007<\/strong><br>Nivel: media<br>Focos: 10<br>Últimas 6 h: 0<br>FRP total: 35.3 MW<br>Última detección UTC: 2026-10-03 13:21:00"
      }
    },
    {
      "type": "Feature",
      "geometry": {
        "type": "Point",
        "coordinates": [3.317, 33.1286]
      },
      "properties": {
        "cluster_id": "ALERT-20261003-008",
        "alerta_operativa": "media",
        "score": 27.2,
        "n_focos": 17,
        "n_ultimas_6h": 0,
        "n_ultimas_24h": 2,
        "frp_total_mw": 21,
        "frp_max_mw": 3,
        "edad_min_h": 7.2,
        "ultima_deteccion_utc": "2026-10-03 13:01:00",
        "sensores": "VIIRS_NOAA20_NRT, VIIRS_SNPP_NRT",
        "satellites": "N, N20",
        "instruments": "VIIRS",
        "popup_label": "<strong>ALERT-20261003-008<\/strong><br>Nivel: media<br>Focos: 17<br>Últimas 6 h: 0<br>FRP total: 21 MW<br>Última detección UTC: 2026-10-03 13:01:00"
      }
    },
    {
      "type": "Feature",
      "geometry": {
        "type": "Point",
        "coordinates": [0.2364, 27.8237]
      },
      "properties": {
        "cluster_id": "ALERT-20261003-009",
        "alerta_operativa": "media",
        "score": 24.4,
        "n_focos": 6,
        "n_ultimas_6h": 0,
        "n_ultimas_24h": 6,
        "frp_total_mw": 23.2,
        "frp_max_mw": 6.2,
        "edad_min_h": 6.9,
        "ultima_deteccion_utc": "2026-10-03 13:21:00",
        "sensores": "VIIRS_NOAA20_NRT, VIIRS_SNPP_NRT",
        "satellites": "N, N20",
        "instruments": "VIIRS",
        "popup_label": "<strong>ALERT-20261003-009<\/strong><br>Nivel: media<br>Focos: 6<br>Últimas 6 h: 0<br>FRP total: 23.2 MW<br>Última detección UTC: 2026-10-03 13:21:00"
      }
    },
    {
      "type": "Feature",
      "geometry": {
        "type": "Point",
        "coordinates": [0.0531, 28.2745]
      },
      "properties": {
        "cluster_id": "ALERT-20261003-010",
        "alerta_operativa": "media",
        "score": 19,
        "n_focos": 4,
        "n_ultimas_6h": 0,
        "n_ultimas_24h": 4,
        "frp_total_mw": 32.2,
        "frp_max_mw": 13.2,
        "edad_min_h": 6.9,
        "ultima_deteccion_utc": "2026-10-03 13:21:00",
        "sensores": "VIIRS_NOAA20_NRT, VIIRS_SNPP_NRT",
        "satellites": "N, N20",
        "instruments": "VIIRS",
        "popup_label": "<strong>ALERT-20261003-010<\/strong><br>Nivel: media<br>Focos: 4<br>Últimas 6 h: 0<br>FRP total: 32.2 MW<br>Última detección UTC: 2026-10-03 13:21:00"
      }
    },
    {
      "type": "Feature",
      "geometry": {
        "type": "Point",
        "coordinates": [-8.554, 40.8117]
      },
      "properties": {
        "cluster_id": "ALERT-20261003-011",
        "alerta_operativa": "media",
        "score": 17.6,
        "n_focos": 4,
        "n_ultimas_6h": 0,
        "n_ultimas_24h": 4,
        "frp_total_mw": 15.4,
        "frp_max_mw": 4.4,
        "edad_min_h": 6.9,
        "ultima_deteccion_utc": "2026-10-03 13:23:00",
        "sensores": "VIIRS_NOAA20_NRT",
        "satellites": "N20",
        "instruments": "VIIRS",
        "popup_label": "<strong>ALERT-20261003-011<\/strong><br>Nivel: media<br>Focos: 4<br>Últimas 6 h: 0<br>FRP total: 15.4 MW<br>Última detección UTC: 2026-10-03 13:23:00"
      }
    },
    {
      "type": "Feature",
      "geometry": {
        "type": "Point",
        "coordinates": [-6.9738, 43.0005]
      },
      "properties": {
        "cluster_id": "ALERT-20261003-012",
        "alerta_operativa": "media",
        "score": 17.2,
        "n_focos": 3,
        "n_ultimas_6h": 0,
        "n_ultimas_24h": 3,
        "frp_total_mw": 60.3,
        "frp_max_mw": 23.8,
        "edad_min_h": 6.8,
        "ultima_deteccion_utc": "2026-10-03 13:25:00",
        "sensores": "VIIRS_NOAA20_NRT, VIIRS_SNPP_NRT",
        "satellites": "N, N20",
        "instruments": "VIIRS",
        "popup_label": "<strong>ALERT-20261003-012<\/strong><br>Nivel: media<br>Focos: 3<br>Últimas 6 h: 0<br>FRP total: 60.3 MW<br>Última detección UTC: 2026-10-03 13:25:00"
      }
    },
    {
      "type": "Feature",
      "geometry": {
        "type": "Point",
        "coordinates": [4.005, 32.4028]
      },
      "properties": {
        "cluster_id": "ALERT-20261003-013",
        "alerta_operativa": "media",
        "score": 15,
        "n_focos": 7,
        "n_ultimas_6h": 0,
        "n_ultimas_24h": 2,
        "frp_total_mw": 6.4,
        "frp_max_mw": 1.2,
        "edad_min_h": 18.2,
        "ultima_deteccion_utc": "2026-10-03 02:02:00",
        "sensores": "VIIRS_NOAA20_NRT, VIIRS_SNPP_NRT",
        "satellites": "N, N20",
        "instruments": "VIIRS",
        "popup_label": "<strong>ALERT-20261003-013<\/strong><br>Nivel: media<br>Focos: 7<br>Últimas 6 h: 0<br>FRP total: 6.4 MW<br>Última detección UTC: 2026-10-03 02:02:00"
      }
    },
    {
      "type": "Feature",
      "geometry": {
        "type": "Point",
        "coordinates": [3.0984, 36.6257]
      },
      "properties": {
        "cluster_id": "ALERT-20261003-014",
        "alerta_operativa": "media",
        "score": 13.3,
        "n_focos": 3,
        "n_ultimas_6h": 0,
        "n_ultimas_24h": 3,
        "frp_total_mw": 7.7,
        "frp_max_mw": 3,
        "edad_min_h": 6.9,
        "ultima_deteccion_utc": "2026-10-03 13:23:00",
        "sensores": "VIIRS_NOAA20_NRT, VIIRS_SNPP_NRT",
        "satellites": "N, N20",
        "instruments": "VIIRS",
        "popup_label": "<strong>ALERT-20261003-014<\/strong><br>Nivel: media<br>Focos: 3<br>Últimas 6 h: 0<br>FRP total: 7.7 MW<br>Última detección UTC: 2026-10-03 13:23:00"
      }
    },
    {
      "type": "Feature",
      "geometry": {
        "type": "Point",
        "coordinates": [-6.9957, 39.6498]
      },
      "properties": {
        "cluster_id": "ALERT-20261003-015",
        "alerta_operativa": "media",
        "score": 12.8,
        "n_focos": 3,
        "n_ultimas_6h": 0,
        "n_ultimas_24h": 2,
        "frp_total_mw": 17.1,
        "frp_max_mw": 8.7,
        "edad_min_h": 6.9,
        "ultima_deteccion_utc": "2026-10-03 13:23:00",
        "sensores": "VIIRS_NOAA20_NRT, VIIRS_SNPP_NRT",
        "satellites": "N, N20",
        "instruments": "VIIRS",
        "popup_label": "<strong>ALERT-20261003-015<\/strong><br>Nivel: media<br>Focos: 3<br>Últimas 6 h: 0<br>FRP total: 17.1 MW<br>Última detección UTC: 2026-10-03 13:23:00"
      }
    },
    {
      "type": "Feature",
      "geometry": {
        "type": "Point",
        "coordinates": [1.2408, 36.1287]
      },
      "properties": {
        "cluster_id": "ALERT-20261003-016",
        "alerta_operativa": "media",
        "score": 12.8,
        "n_focos": 3,
        "n_ultimas_6h": 0,
        "n_ultimas_24h": 3,
        "frp_total_mw": 5.7,
        "frp_max_mw": 2.5,
        "edad_min_h": 18.2,
        "ultima_deteccion_utc": "2026-10-03 02:02:00",
        "sensores": "VIIRS_NOAA20_NRT, VIIRS_SNPP_NRT",
        "satellites": "N, N20",
        "instruments": "VIIRS",
        "popup_label": "<strong>ALERT-20261003-016<\/strong><br>Nivel: media<br>Focos: 3<br>Últimas 6 h: 0<br>FRP total: 5.7 MW<br>Última detección UTC: 2026-10-03 02:02:00"
      }
    },
    {
      "type": "Feature",
      "geometry": {
        "type": "Point",
        "coordinates": [3.394, 32.8426]
      },
      "properties": {
        "cluster_id": "ALERT-20261003-017",
        "alerta_operativa": "media",
        "score": 11.7,
        "n_focos": 3,
        "n_ultimas_6h": 0,
        "n_ultimas_24h": 2,
        "frp_total_mw": 9.3,
        "frp_max_mw": 4,
        "edad_min_h": 6.9,
        "ultima_deteccion_utc": "2026-10-03 13:21:00",
        "sensores": "VIIRS_NOAA20_NRT, VIIRS_SNPP_NRT",
        "satellites": "N, N20",
        "instruments": "VIIRS",
        "popup_label": "<strong>ALERT-20261003-017<\/strong><br>Nivel: media<br>Focos: 3<br>Últimas 6 h: 0<br>FRP total: 9.3 MW<br>Última detección UTC: 2026-10-03 13:21:00"
      }
    },
    {
      "type": "Feature",
      "geometry": {
        "type": "Point",
        "coordinates": [-2.3473, 34.5965]
      },
      "properties": {
        "cluster_id": "ALERT-20261003-018",
        "alerta_operativa": "media",
        "score": 11.6,
        "n_focos": 3,
        "n_ultimas_6h": 0,
        "n_ultimas_24h": 3,
        "frp_total_mw": 2.6,
        "frp_max_mw": 1,
        "edad_min_h": 18.2,
        "ultima_deteccion_utc": "2026-10-03 02:02:00",
        "sensores": "VIIRS_NOAA20_NRT, VIIRS_SNPP_NRT",
        "satellites": "N, N20",
        "instruments": "VIIRS",
        "popup_label": "<strong>ALERT-20261003-018<\/strong><br>Nivel: media<br>Focos: 3<br>Últimas 6 h: 0<br>FRP total: 2.6 MW<br>Última detección UTC: 2026-10-03 02:02:00"
      }
    },
    {
      "type": "Feature",
      "geometry": {
        "type": "Point",
        "coordinates": [-0.9389, 35.5666]
      },
      "properties": {
        "cluster_id": "ALERT-20261003-019",
        "alerta_operativa": "media",
        "score": 11,
        "n_focos": 3,
        "n_ultimas_6h": 0,
        "n_ultimas_24h": 3,
        "frp_total_mw": 1.7,
        "frp_max_mw": 0.7,
        "edad_min_h": 18.2,
        "ultima_deteccion_utc": "2026-10-03 02:02:00",
        "sensores": "VIIRS_NOAA20_NRT, VIIRS_SNPP_NRT",
        "satellites": "N, N20",
        "instruments": "VIIRS",
        "popup_label": "<strong>ALERT-20261003-019<\/strong><br>Nivel: media<br>Focos: 3<br>Últimas 6 h: 0<br>FRP total: 1.7 MW<br>Última detección UTC: 2026-10-03 02:02:00"
      }
    },
    {
      "type": "Feature",
      "geometry": {
        "type": "Point",
        "coordinates": [4.4759, 35.7086]
      },
      "properties": {
        "cluster_id": "ALERT-20261003-020",
        "alerta_operativa": "media",
        "score": 10.6,
        "n_focos": 4,
        "n_ultimas_6h": 0,
        "n_ultimas_24h": 2,
        "frp_total_mw": 2.6,
        "frp_max_mw": 1.2,
        "edad_min_h": 18.2,
        "ultima_deteccion_utc": "2026-10-03 02:02:00",
        "sensores": "VIIRS_NOAA20_NRT, VIIRS_SNPP_NRT",
        "satellites": "N, N20",
        "instruments": "VIIRS",
        "popup_label": "<strong>ALERT-20261003-020<\/strong><br>Nivel: media<br>Focos: 4<br>Últimas 6 h: 0<br>FRP total: 2.6 MW<br>Última detección UTC: 2026-10-03 02:02:00"
      }
    },
    {
      "type": "Feature",
      "geometry": {
        "type": "Point",
        "coordinates": [-8.7388, 42.2075]
      },
      "properties": {
        "cluster_id": "ALERT-20261003-021",
        "alerta_operativa": "media",
        "score": 10.5,
        "n_focos": 2,
        "n_ultimas_6h": 0,
        "n_ultimas_24h": 2,
        "frp_total_mw": 8.6,
        "frp_max_mw": 6.2,
        "edad_min_h": 6.8,
        "ultima_deteccion_utc": "2026-10-03 13:25:00",
        "sensores": "VIIRS_NOAA20_NRT",
        "satellites": "N20",
        "instruments": "VIIRS",
        "popup_label": "<strong>ALERT-20261003-021<\/strong><br>Nivel: media<br>Focos: 2<br>Últimas 6 h: 0<br>FRP total: 8.6 MW<br>Última detección UTC: 2026-10-03 13:25:00"
      }
    },
    {
      "type": "Feature",
      "geometry": {
        "type": "Point",
        "coordinates": [-0.1594, 28.2129]
      },
      "properties": {
        "cluster_id": "ALERT-20261003-022",
        "alerta_operativa": "media",
        "score": 9,
        "n_focos": 3,
        "n_ultimas_6h": 0,
        "n_ultimas_24h": 2,
        "frp_total_mw": 1.7,
        "frp_max_mw": 0.7,
        "edad_min_h": 18.2,
        "ultima_deteccion_utc": "2026-10-03 02:04:00",
        "sensores": "VIIRS_NOAA20_NRT, VIIRS_SNPP_NRT",
        "satellites": "N, N20",
        "instruments": "VIIRS",
        "popup_label": "<strong>ALERT-20261003-022<\/strong><br>Nivel: media<br>Focos: 3<br>Últimas 6 h: 0<br>FRP total: 1.7 MW<br>Última detección UTC: 2026-10-03 02:04:00"
      }
    },
    {
      "type": "Feature",
      "geometry": {
        "type": "Point",
        "coordinates": [-1.3428, 35.3114]
      },
      "properties": {
        "cluster_id": "ALERT-20261003-023",
        "alerta_operativa": "media",
        "score": 7.4,
        "n_focos": 2,
        "n_ultimas_6h": 0,
        "n_ultimas_24h": 2,
        "frp_total_mw": 1,
        "frp_max_mw": 0.6,
        "edad_min_h": 18.2,
        "ultima_deteccion_utc": "2026-10-03 02:02:00",
        "sensores": "VIIRS_NOAA20_NRT, VIIRS_SNPP_NRT",
        "satellites": "N, N20",
        "instruments": "VIIRS",
        "popup_label": "<strong>ALERT-20261003-023<\/strong><br>Nivel: media<br>Focos: 2<br>Últimas 6 h: 0<br>FRP total: 1 MW<br>Última detección UTC: 2026-10-03 02:02:00"
      }
    },
    {
      "type": "Feature",
      "geometry": {
        "type": "Point",
        "coordinates": [-3.4741, 40.245]
      },
      "properties": {
        "cluster_id": "ALERT-20261003-024",
        "alerta_operativa": "seguimiento",
        "score": 12,
        "n_focos": 5,
        "n_ultimas_6h": 0,
        "n_ultimas_24h": 1,
        "frp_total_mw": 11.4,
        "frp_max_mw": 3.4,
        "edad_min_h": 18.6,
        "ultima_deteccion_utc": "2026-10-03 01:39:00",
        "sensores": "VIIRS_NOAA20_NRT, VIIRS_SNPP_NRT",
        "satellites": "N, N20",
        "instruments": "VIIRS",
        "popup_label": "<strong>ALERT-20261003-024<\/strong><br>Nivel: seguimiento<br>Focos: 5<br>Últimas 6 h: 0<br>FRP total: 11.4 MW<br>Última detección UTC: 2026-10-03 01:39:00"
      }
    },
    {
      "type": "Feature",
      "geometry": {
        "type": "Point",
        "coordinates": [1.0167, 35.5401]
      },
      "properties": {
        "cluster_id": "ALERT-20261003-025",
        "alerta_operativa": "seguimiento",
        "score": 8,
        "n_focos": 1,
        "n_ultimas_6h": 0,
        "n_ultimas_24h": 1,
        "frp_total_mw": 10.9,
        "frp_max_mw": 10.9,
        "edad_min_h": 7.2,
        "ultima_deteccion_utc": "2026-10-03 13:01:00",
        "sensores": "VIIRS_SNPP_NRT",
        "satellites": "N",
        "instruments": "VIIRS",
        "popup_label": "<strong>ALERT-20261003-025<\/strong><br>Nivel: seguimiento<br>Focos: 1<br>Últimas 6 h: 0<br>FRP total: 10.9 MW<br>Última detección UTC: 2026-10-03 13:01:00"
      }
    },
    {
      "type": "Feature",
      "geometry": {
        "type": "Point",
        "coordinates": [4.4186, 36.4826]
      },
      "properties": {
        "cluster_id": "ALERT-20261003-026",
        "alerta_operativa": "seguimiento",
        "score": 7.8,
        "n_focos": 1,
        "n_ultimas_6h": 0,
        "n_ultimas_24h": 1,
        "frp_total_mw": 10.1,
        "frp_max_mw": 10.1,
        "edad_min_h": 7.2,
        "ultima_deteccion_utc": "2026-10-03 13:01:00",
        "sensores": "VIIRS_SNPP_NRT",
        "satellites": "N",
        "instruments": "VIIRS",
        "popup_label": "<strong>ALERT-20261003-026<\/strong><br>Nivel: seguimiento<br>Focos: 1<br>Últimas 6 h: 0<br>FRP total: 10.1 MW<br>Última detección UTC: 2026-10-03 13:01:00"
      }
    },
    {
      "type": "Feature",
      "geometry": {
        "type": "Point",
        "coordinates": [0.0199, 27.5312]
      },
      "properties": {
        "cluster_id": "ALERT-20261003-027",
        "alerta_operativa": "seguimiento",
        "score": 7.2,
        "n_focos": 1,
        "n_ultimas_6h": 0,
        "n_ultimas_24h": 1,
        "frp_total_mw": 7,
        "frp_max_mw": 7,
        "edad_min_h": 6.9,
        "ultima_deteccion_utc": "2026-10-03 13:21:00",
        "sensores": "VIIRS_NOAA20_NRT",
        "satellites": "N20",
        "instruments": "VIIRS",
        "popup_label": "<strong>ALERT-20261003-027<\/strong><br>Nivel: seguimiento<br>Focos: 1<br>Últimas 6 h: 0<br>FRP total: 7 MW<br>Última detección UTC: 2026-10-03 13:21:00"
      }
    },
    {
      "type": "Feature",
      "geometry": {
        "type": "Point",
        "coordinates": [-7.4729, 41.0194]
      },
      "properties": {
        "cluster_id": "ALERT-20261003-028",
        "alerta_operativa": "seguimiento",
        "score": 6.8,
        "n_focos": 1,
        "n_ultimas_6h": 0,
        "n_ultimas_24h": 1,
        "frp_total_mw": 5.8,
        "frp_max_mw": 5.8,
        "edad_min_h": 6.9,
        "ultima_deteccion_utc": "2026-10-03 13:23:00",
        "sensores": "VIIRS_NOAA20_NRT",
        "satellites": "N20",
        "instruments": "VIIRS",
        "popup_label": "<strong>ALERT-20261003-028<\/strong><br>Nivel: seguimiento<br>Focos: 1<br>Últimas 6 h: 0<br>FRP total: 5.8 MW<br>Última detección UTC: 2026-10-03 13:23:00"
      }
    },
    {
      "type": "Feature",
      "geometry": {
        "type": "Point",
        "coordinates": [-6.2708, 37.3533]
      },
      "properties": {
        "cluster_id": "ALERT-20261003-029",
        "alerta_operativa": "seguimiento",
        "score": 6.7,
        "n_focos": 1,
        "n_ultimas_6h": 0,
        "n_ultimas_24h": 1,
        "frp_total_mw": 5.4,
        "frp_max_mw": 5.4,
        "edad_min_h": 6.9,
        "ultima_deteccion_utc": "2026-10-03 13:23:00",
        "sensores": "VIIRS_NOAA20_NRT",
        "satellites": "N20",
        "instruments": "VIIRS",
        "popup_label": "<strong>ALERT-20261003-029<\/strong><br>Nivel: seguimiento<br>Focos: 1<br>Últimas 6 h: 0<br>FRP total: 5.4 MW<br>Última detección UTC: 2026-10-03 13:23:00"
      }
    },
    {
      "type": "Feature",
      "geometry": {
        "type": "Point",
        "coordinates": [2.8778, 36.596]
      },
      "properties": {
        "cluster_id": "ALERT-20261003-030",
        "alerta_operativa": "seguimiento",
        "score": 6.6,
        "n_focos": 2,
        "n_ultimas_6h": 0,
        "n_ultimas_24h": 1,
        "frp_total_mw": 2.6,
        "frp_max_mw": 2,
        "edad_min_h": 7.2,
        "ultima_deteccion_utc": "2026-10-03 13:01:00",
        "sensores": "VIIRS_SNPP_NRT",
        "satellites": "N",
        "instruments": "VIIRS",
        "popup_label": "<strong>ALERT-20261003-030<\/strong><br>Nivel: seguimiento<br>Focos: 2<br>Últimas 6 h: 0<br>FRP total: 2.6 MW<br>Última detección UTC: 2026-10-03 13:01:00"
      }
    },
    {
      "type": "Feature",
      "geometry": {
        "type": "Point",
        "coordinates": [-8.3961, 40.548]
      },
      "properties": {
        "cluster_id": "ALERT-20261003-031",
        "alerta_operativa": "seguimiento",
        "score": 6.5,
        "n_focos": 1,
        "n_ultimas_6h": 0,
        "n_ultimas_24h": 1,
        "frp_total_mw": 4.9,
        "frp_max_mw": 4.9,
        "edad_min_h": 6.9,
        "ultima_deteccion_utc": "2026-10-03 13:23:00",
        "sensores": "VIIRS_NOAA20_NRT",
        "satellites": "N20",
        "instruments": "VIIRS",
        "popup_label": "<strong>ALERT-20261003-031<\/strong><br>Nivel: seguimiento<br>Focos: 1<br>Últimas 6 h: 0<br>FRP total: 4.9 MW<br>Última detección UTC: 2026-10-03 13:23:00"
      }
    },
    {
      "type": "Feature",
      "geometry": {
        "type": "Point",
        "coordinates": [-1.2207, 35.421]
      },
      "properties": {
        "cluster_id": "ALERT-20261003-032",
        "alerta_operativa": "seguimiento",
        "score": 6.4,
        "n_focos": 1,
        "n_ultimas_6h": 0,
        "n_ultimas_24h": 1,
        "frp_total_mw": 4.6,
        "frp_max_mw": 4.6,
        "edad_min_h": 6.9,
        "ultima_deteccion_utc": "2026-10-03 13:23:00",
        "sensores": "VIIRS_NOAA20_NRT",
        "satellites": "N20",
        "instruments": "VIIRS",
        "popup_label": "<strong>ALERT-20261003-032<\/strong><br>Nivel: seguimiento<br>Focos: 1<br>Últimas 6 h: 0<br>FRP total: 4.6 MW<br>Última detección UTC: 2026-10-03 13:23:00"
      }
    },
    {
      "type": "Feature",
      "geometry": {
        "type": "Point",
        "coordinates": [-7.7006, 40.0193]
      },
      "properties": {
        "cluster_id": "ALERT-20261003-033",
        "alerta_operativa": "seguimiento",
        "score": 6.3,
        "n_focos": 1,
        "n_ultimas_6h": 0,
        "n_ultimas_24h": 1,
        "frp_total_mw": 4.3,
        "frp_max_mw": 4.3,
        "edad_min_h": 6.9,
        "ultima_deteccion_utc": "2026-10-03 13:23:00",
        "sensores": "VIIRS_NOAA20_NRT",
        "satellites": "N20",
        "instruments": "VIIRS",
        "popup_label": "<strong>ALERT-20261003-033<\/strong><br>Nivel: seguimiento<br>Focos: 1<br>Últimas 6 h: 0<br>FRP total: 4.3 MW<br>Última detección UTC: 2026-10-03 13:23:00"
      }
    },
    {
      "type": "Feature",
      "geometry": {
        "type": "Point",
        "coordinates": [-7.6646, 39.6604]
      },
      "properties": {
        "cluster_id": "ALERT-20261003-034",
        "alerta_operativa": "seguimiento",
        "score": 5.9,
        "n_focos": 1,
        "n_ultimas_6h": 0,
        "n_ultimas_24h": 1,
        "frp_total_mw": 3.3,
        "frp_max_mw": 3.3,
        "edad_min_h": 6.9,
        "ultima_deteccion_utc": "2026-10-03 13:23:00",
        "sensores": "VIIRS_NOAA20_NRT",
        "satellites": "N20",
        "instruments": "VIIRS",
        "popup_label": "<strong>ALERT-20261003-034<\/strong><br>Nivel: seguimiento<br>Focos: 1<br>Últimas 6 h: 0<br>FRP total: 3.3 MW<br>Última detección UTC: 2026-10-03 13:23:00"
      }
    },
    {
      "type": "Feature",
      "geometry": {
        "type": "Point",
        "coordinates": [-8.4206, 40.2895]
      },
      "properties": {
        "cluster_id": "ALERT-20261003-035",
        "alerta_operativa": "seguimiento",
        "score": 5.9,
        "n_focos": 2,
        "n_ultimas_6h": 0,
        "n_ultimas_24h": 1,
        "frp_total_mw": 1.6,
        "frp_max_mw": 1,
        "edad_min_h": 16.6,
        "ultima_deteccion_utc": "2026-10-03 03:40:00",
        "sensores": "VIIRS_NOAA20_NRT",
        "satellites": "N20",
        "instruments": "VIIRS",
        "popup_label": "<strong>ALERT-20261003-035<\/strong><br>Nivel: seguimiento<br>Focos: 2<br>Últimas 6 h: 0<br>FRP total: 1.6 MW<br>Última detección UTC: 2026-10-03 03:40:00"
      }
    },
    {
      "type": "Feature",
      "geometry": {
        "type": "Point",
        "coordinates": [-5.8909, 34.3382]
      },
      "properties": {
        "cluster_id": "ALERT-20261003-036",
        "alerta_operativa": "seguimiento",
        "score": 5.4,
        "n_focos": 1,
        "n_ultimas_6h": 0,
        "n_ultimas_24h": 1,
        "frp_total_mw": 2.4,
        "frp_max_mw": 2.4,
        "edad_min_h": 6.9,
        "ultima_deteccion_utc": "2026-10-03 13:23:00",
        "sensores": "VIIRS_NOAA20_NRT",
        "satellites": "N20",
        "instruments": "VIIRS",
        "popup_label": "<strong>ALERT-20261003-036<\/strong><br>Nivel: seguimiento<br>Focos: 1<br>Últimas 6 h: 0<br>FRP total: 2.4 MW<br>Última detección UTC: 2026-10-03 13:23:00"
      }
    },
    {
      "type": "Feature",
      "geometry": {
        "type": "Point",
        "coordinates": [-8.6559, 39.9498]
      },
      "properties": {
        "cluster_id": "ALERT-20261003-037",
        "alerta_operativa": "seguimiento",
        "score": 5.3,
        "n_focos": 1,
        "n_ultimas_6h": 0,
        "n_ultimas_24h": 1,
        "frp_total_mw": 2.1,
        "frp_max_mw": 2.1,
        "edad_min_h": 6.9,
        "ultima_deteccion_utc": "2026-10-03 13:23:00",
        "sensores": "VIIRS_NOAA20_NRT",
        "satellites": "N20",
        "instruments": "VIIRS",
        "popup_label": "<strong>ALERT-20261003-037<\/strong><br>Nivel: seguimiento<br>Focos: 1<br>Últimas 6 h: 0<br>FRP total: 2.1 MW<br>Última detección UTC: 2026-10-03 13:23:00"
      }
    },
    {
      "type": "Feature",
      "geometry": {
        "type": "Point",
        "coordinates": [-7.0852, 33.3842]
      },
      "properties": {
        "cluster_id": "ALERT-20261003-038",
        "alerta_operativa": "seguimiento",
        "score": 4.5,
        "n_focos": 1,
        "n_ultimas_6h": 0,
        "n_ultimas_24h": 1,
        "frp_total_mw": 1.1,
        "frp_max_mw": 1.1,
        "edad_min_h": 18.6,
        "ultima_deteccion_utc": "2026-10-03 01:41:00",
        "sensores": "VIIRS_SNPP_NRT",
        "satellites": "N",
        "instruments": "VIIRS",
        "popup_label": "<strong>ALERT-20261003-038<\/strong><br>Nivel: seguimiento<br>Focos: 1<br>Últimas 6 h: 0<br>FRP total: 1.1 MW<br>Última detección UTC: 2026-10-03 01:41:00"
      }
    },
    {
      "type": "Feature",
      "geometry": {
        "type": "Point",
        "coordinates": [-0.5448, 38.3784]
      },
      "properties": {
        "cluster_id": "ALERT-20261003-039",
        "alerta_operativa": "seguimiento",
        "score": 4.4,
        "n_focos": 1,
        "n_ultimas_6h": 0,
        "n_ultimas_24h": 1,
        "frp_total_mw": 1,
        "frp_max_mw": 1,
        "edad_min_h": 18.3,
        "ultima_deteccion_utc": "2026-10-03 02:00:00",
        "sensores": "VIIRS_NOAA20_NRT",
        "satellites": "N20",
        "instruments": "VIIRS",
        "popup_label": "<strong>ALERT-20261003-039<\/strong><br>Nivel: seguimiento<br>Focos: 1<br>Últimas 6 h: 0<br>FRP total: 1 MW<br>Última detección UTC: 2026-10-03 02:00:00"
      }
    },
    {
      "type": "Feature",
      "geometry": {
        "type": "Point",
        "coordinates": [0.1257, 36.0179]
      },
      "properties": {
        "cluster_id": "ALERT-20261003-040",
        "alerta_operativa": "seguimiento",
        "score": 4.2,
        "n_focos": 1,
        "n_ultimas_6h": 0,
        "n_ultimas_24h": 1,
        "frp_total_mw": 0.8,
        "frp_max_mw": 0.8,
        "edad_min_h": 18.2,
        "ultima_deteccion_utc": "2026-10-03 02:02:00",
        "sensores": "VIIRS_NOAA20_NRT",
        "satellites": "N20",
        "instruments": "VIIRS",
        "popup_label": "<strong>ALERT-20261003-040<\/strong><br>Nivel: seguimiento<br>Focos: 1<br>Últimas 6 h: 0<br>FRP total: 0.8 MW<br>Última detección UTC: 2026-10-03 02:02:00"
      }
    },
    {
      "type": "Feature",
      "geometry": {
        "type": "Point",
        "coordinates": [-2.2186, 43.0415]
      },
      "properties": {
        "cluster_id": "ALERT-20261003-041",
        "alerta_operativa": "seguimiento",
        "score": 3.9,
        "n_focos": 1,
        "n_ultimas_6h": 0,
        "n_ultimas_24h": 1,
        "frp_total_mw": 0.6,
        "frp_max_mw": 0.6,
        "edad_min_h": 18.3,
        "ultima_deteccion_utc": "2026-10-03 02:00:00",
        "sensores": "VIIRS_NOAA20_NRT",
        "satellites": "N20",
        "instruments": "VIIRS",
        "popup_label": "<strong>ALERT-20261003-041<\/strong><br>Nivel: seguimiento<br>Focos: 1<br>Últimas 6 h: 0<br>FRP total: 0.6 MW<br>Última detección UTC: 2026-10-03 02:00:00"
      }
    },
    {
      "type": "Feature",
      "geometry": {
        "type": "Point",
        "coordinates": [-0.2777, 35.5319]
      },
      "properties": {
        "cluster_id": "ALERT-20261003-042",
        "alerta_operativa": "seguimiento",
        "score": 3.8,
        "n_focos": 1,
        "n_ultimas_6h": 0,
        "n_ultimas_24h": 1,
        "frp_total_mw": 0.5,
        "frp_max_mw": 0.5,
        "edad_min_h": 18.2,
        "ultima_deteccion_utc": "2026-10-03 02:02:00",
        "sensores": "VIIRS_NOAA20_NRT",
        "satellites": "N20",
        "instruments": "VIIRS",
        "popup_label": "<strong>ALERT-20261003-042<\/strong><br>Nivel: seguimiento<br>Focos: 1<br>Últimas 6 h: 0<br>FRP total: 0.5 MW<br>Última detección UTC: 2026-10-03 02:02:00"
      }
    },
    {
      "type": "Feature",
      "geometry": {
        "type": "Point",
        "coordinates": [1.6602, 41.3122]
      },
      "properties": {
        "cluster_id": "ALERT-20261003-043",
        "alerta_operativa": "seguimiento",
        "score": 3.8,
        "n_focos": 1,
        "n_ultimas_6h": 0,
        "n_ultimas_24h": 1,
        "frp_total_mw": 0.5,
        "frp_max_mw": 0.5,
        "edad_min_h": 18.3,
        "ultima_deteccion_utc": "2026-10-03 02:00:00",
        "sensores": "VIIRS_NOAA20_NRT",
        "satellites": "N20",
        "instruments": "VIIRS",
        "popup_label": "<strong>ALERT-20261003-043<\/strong><br>Nivel: seguimiento<br>Focos: 1<br>Últimas 6 h: 0<br>FRP total: 0.5 MW<br>Última detección UTC: 2026-10-03 02:00:00"
      }
    },
    {
      "type": "Feature",
      "geometry": {
        "type": "Point",
        "coordinates": [-2.0846, 34.9784]
      },
      "properties": {
        "cluster_id": "ALERT-20261003-044",
        "alerta_operativa": "seguimiento",
        "score": 3.7,
        "n_focos": 1,
        "n_ultimas_6h": 0,
        "n_ultimas_24h": 1,
        "frp_total_mw": 0.4,
        "frp_max_mw": 0.4,
        "edad_min_h": 18.2,
        "ultima_deteccion_utc": "2026-10-03 02:02:00",
        "sensores": "VIIRS_NOAA20_NRT",
        "satellites": "N20",
        "instruments": "VIIRS",
        "popup_label": "<strong>ALERT-20261003-044<\/strong><br>Nivel: seguimiento<br>Focos: 1<br>Últimas 6 h: 0<br>FRP total: 0.4 MW<br>Última detección UTC: 2026-10-03 02:02:00"
      }
    },
    {
      "type": "Feature",
      "geometry": {
        "type": "Point",
        "coordinates": [-5.796, 43.537]
      },
      "properties": {
        "cluster_id": "ALERT-20261003-045",
        "alerta_operativa": "informativa",
        "score": 18.1,
        "n_focos": 12,
        "n_ultimas_6h": 0,
        "n_ultimas_24h": 0,
        "frp_total_mw": 19.9,
        "frp_max_mw": 4,
        "edad_min_h": 30.9,
        "ultima_deteccion_utc": "2026-10-02 13:23:00",
        "sensores": "VIIRS_NOAA20_NRT, VIIRS_SNPP_NRT",
        "satellites": "N, N20",
        "instruments": "VIIRS",
        "popup_label": "<strong>ALERT-20261003-045<\/strong><br>Nivel: informativa<br>Focos: 12<br>Últimas 6 h: 0<br>FRP total: 19.9 MW<br>Última detección UTC: 2026-10-02 13:23:00"
      }
    },
    {
      "type": "Feature",
      "geometry": {
        "type": "Point",
        "coordinates": [-5.6152, 38.3346]
      },
      "properties": {
        "cluster_id": "ALERT-20261003-046",
        "alerta_operativa": "informativa",
        "score": 10.5,
        "n_focos": 4,
        "n_ultimas_6h": 0,
        "n_ultimas_24h": 0,
        "frp_total_mw": 25.4,
        "frp_max_mw": 7.4,
        "edad_min_h": 30.6,
        "ultima_deteccion_utc": "2026-10-02 13:40:00",
        "sensores": "VIIRS_NOAA20_NRT, VIIRS_SNPP_NRT",
        "satellites": "N, N20",
        "instruments": "VIIRS",
        "popup_label": "<strong>ALERT-20261003-046<\/strong><br>Nivel: informativa<br>Focos: 4<br>Últimas 6 h: 0<br>FRP total: 25.4 MW<br>Última detección UTC: 2026-10-02 13:40:00"
      }
    },
    {
      "type": "Feature",
      "geometry": {
        "type": "Point",
        "coordinates": [-7.6595, 43.5604]
      },
      "properties": {
        "cluster_id": "ALERT-20261003-047",
        "alerta_operativa": "informativa",
        "score": 7.9,
        "n_focos": 3,
        "n_ultimas_6h": 0,
        "n_ultimas_24h": 0,
        "frp_total_mw": 10.4,
        "frp_max_mw": 5.3,
        "edad_min_h": 42,
        "ultima_deteccion_utc": "2026-10-02 02:17:00",
        "sensores": "VIIRS_NOAA20_NRT, VIIRS_SNPP_NRT",
        "satellites": "N, N20",
        "instruments": "VIIRS",
        "popup_label": "<strong>ALERT-20261003-047<\/strong><br>Nivel: informativa<br>Focos: 3<br>Últimas 6 h: 0<br>FRP total: 10.4 MW<br>Última detección UTC: 2026-10-02 02:17:00"
      }
    },
    {
      "type": "Feature",
      "geometry": {
        "type": "Point",
        "coordinates": [-0.3443, 33.4758]
      },
      "properties": {
        "cluster_id": "ALERT-20261003-048",
        "alerta_operativa": "informativa",
        "score": 7.7,
        "n_focos": 4,
        "n_ultimas_6h": 0,
        "n_ultimas_24h": 0,
        "frp_total_mw": 5.3,
        "frp_max_mw": 1.9,
        "edad_min_h": 41.9,
        "ultima_deteccion_utc": "2026-10-02 02:19:00",
        "sensores": "VIIRS_NOAA20_NRT, VIIRS_SNPP_NRT",
        "satellites": "N, N20",
        "instruments": "VIIRS",
        "popup_label": "<strong>ALERT-20261003-048<\/strong><br>Nivel: informativa<br>Focos: 4<br>Últimas 6 h: 0<br>FRP total: 5.3 MW<br>Última detección UTC: 2026-10-02 02:19:00"
      }
    },
    {
      "type": "Feature",
      "geometry": {
        "type": "Point",
        "coordinates": [-5.773, 38.948]
      },
      "properties": {
        "cluster_id": "ALERT-20261003-049",
        "alerta_operativa": "informativa",
        "score": 7.5,
        "n_focos": 1,
        "n_ultimas_6h": 0,
        "n_ultimas_24h": 0,
        "frp_total_mw": 24.8,
        "frp_max_mw": 24.8,
        "edad_min_h": 30.9,
        "ultima_deteccion_utc": "2026-10-02 13:23:00",
        "sensores": "VIIRS_SNPP_NRT",
        "satellites": "N",
        "instruments": "VIIRS",
        "popup_label": "<strong>ALERT-20261003-049<\/strong><br>Nivel: informativa<br>Focos: 1<br>Últimas 6 h: 0<br>FRP total: 24.8 MW<br>Última detección UTC: 2026-10-02 13:23:00"
      }
    },
    {
      "type": "Feature",
      "geometry": {
        "type": "Point",
        "coordinates": [-13.1861, 27.1039]
      },
      "properties": {
        "cluster_id": "ALERT-20261003-050",
        "alerta_operativa": "informativa",
        "score": 6.6,
        "n_focos": 3,
        "n_ultimas_6h": 0,
        "n_ultimas_24h": 0,
        "frp_total_mw": 5.2,
        "frp_max_mw": 2.4,
        "edad_min_h": 41.9,
        "ultima_deteccion_utc": "2026-10-02 02:21:00",
        "sensores": "VIIRS_NOAA20_NRT, VIIRS_SNPP_NRT",
        "satellites": "N, N20",
        "instruments": "VIIRS",
        "popup_label": "<strong>ALERT-20261003-050<\/strong><br>Nivel: informativa<br>Focos: 3<br>Últimas 6 h: 0<br>FRP total: 5.2 MW<br>Última detección UTC: 2026-10-02 02:21:00"
      }
    },
    {
      "type": "Feature",
      "geometry": {
        "type": "Point",
        "coordinates": [-3.8946, 39.6607]
      },
      "properties": {
        "cluster_id": "ALERT-20261003-051",
        "alerta_operativa": "informativa",
        "score": 5.9,
        "n_focos": 1,
        "n_ultimas_6h": 0,
        "n_ultimas_24h": 0,
        "frp_total_mw": 10.8,
        "frp_max_mw": 10.8,
        "edad_min_h": 30.6,
        "ultima_deteccion_utc": "2026-10-02 13:42:00",
        "sensores": "VIIRS_NOAA20_NRT",
        "satellites": "N20",
        "instruments": "VIIRS",
        "popup_label": "<strong>ALERT-20261003-051<\/strong><br>Nivel: informativa<br>Focos: 1<br>Últimas 6 h: 0<br>FRP total: 10.8 MW<br>Última detección UTC: 2026-10-02 13:42:00"
      }
    },
    {
      "type": "Feature",
      "geometry": {
        "type": "Point",
        "coordinates": [-5.1161, 37.5523]
      },
      "properties": {
        "cluster_id": "ALERT-20261003-052",
        "alerta_operativa": "informativa",
        "score": 5.9,
        "n_focos": 2,
        "n_ultimas_6h": 0,
        "n_ultimas_24h": 0,
        "frp_total_mw": 6.2,
        "frp_max_mw": 5.8,
        "edad_min_h": 30.6,
        "ultima_deteccion_utc": "2026-10-02 13:40:00",
        "sensores": "VIIRS_NOAA20_NRT, VIIRS_SNPP_NRT",
        "satellites": "N, N20",
        "instruments": "VIIRS",
        "popup_label": "<strong>ALERT-20261003-052<\/strong><br>Nivel: informativa<br>Focos: 2<br>Últimas 6 h: 0<br>FRP total: 6.2 MW<br>Última detección UTC: 2026-10-02 13:40:00"
      }
    },
    {
      "type": "Feature",
      "geometry": {
        "type": "Point",
        "coordinates": [-5.6618, 39.815]
      },
      "properties": {
        "cluster_id": "ALERT-20261003-053",
        "alerta_operativa": "informativa",
        "score": 5.7,
        "n_focos": 2,
        "n_ultimas_6h": 0,
        "n_ultimas_24h": 0,
        "frp_total_mw": 5.4,
        "frp_max_mw": 2.7,
        "edad_min_h": 30.9,
        "ultima_deteccion_utc": "2026-10-02 13:23:00",
        "sensores": "VIIRS_SNPP_NRT",
        "satellites": "N",
        "instruments": "VIIRS",
        "popup_label": "<strong>ALERT-20261003-053<\/strong><br>Nivel: informativa<br>Focos: 2<br>Últimas 6 h: 0<br>FRP total: 5.4 MW<br>Última detección UTC: 2026-10-02 13:23:00"
      }
    },
    {
      "type": "Feature",
      "geometry": {
        "type": "Point",
        "coordinates": [-7.2441, 40.4379]
      },
      "properties": {
        "cluster_id": "ALERT-20261003-054",
        "alerta_operativa": "informativa",
        "score": 4.7,
        "n_focos": 1,
        "n_ultimas_6h": 0,
        "n_ultimas_24h": 0,
        "frp_total_mw": 5.5,
        "frp_max_mw": 5.5,
        "edad_min_h": 30.9,
        "ultima_deteccion_utc": "2026-10-02 13:23:00",
        "sensores": "VIIRS_SNPP_NRT",
        "satellites": "N",
        "instruments": "VIIRS",
        "popup_label": "<strong>ALERT-20261003-054<\/strong><br>Nivel: informativa<br>Focos: 1<br>Últimas 6 h: 0<br>FRP total: 5.5 MW<br>Última detección UTC: 2026-10-02 13:23:00"
      }
    },
    {
      "type": "Feature",
      "geometry": {
        "type": "Point",
        "coordinates": [-7.4337, 39.8417]
      },
      "properties": {
        "cluster_id": "ALERT-20261003-055",
        "alerta_operativa": "informativa",
        "score": 4.2,
        "n_focos": 1,
        "n_ultimas_6h": 0,
        "n_ultimas_24h": 0,
        "frp_total_mw": 3.9,
        "frp_max_mw": 3.9,
        "edad_min_h": 30.9,
        "ultima_deteccion_utc": "2026-10-02 13:23:00",
        "sensores": "VIIRS_SNPP_NRT",
        "satellites": "N",
        "instruments": "VIIRS",
        "popup_label": "<strong>ALERT-20261003-055<\/strong><br>Nivel: informativa<br>Focos: 1<br>Últimas 6 h: 0<br>FRP total: 3.9 MW<br>Última detección UTC: 2026-10-02 13:23:00"
      }
    },
    {
      "type": "Feature",
      "geometry": {
        "type": "Point",
        "coordinates": [-9.7365, 29.6926]
      },
      "properties": {
        "cluster_id": "ALERT-20261003-056",
        "alerta_operativa": "informativa",
        "score": 4.2,
        "n_focos": 2,
        "n_ultimas_6h": 0,
        "n_ultimas_24h": 0,
        "frp_total_mw": 2,
        "frp_max_mw": 1.8,
        "edad_min_h": 41.9,
        "ultima_deteccion_utc": "2026-10-02 02:21:00",
        "sensores": "VIIRS_NOAA20_NRT, VIIRS_SNPP_NRT",
        "satellites": "N, N20",
        "instruments": "VIIRS",
        "popup_label": "<strong>ALERT-20261003-056<\/strong><br>Nivel: informativa<br>Focos: 2<br>Últimas 6 h: 0<br>FRP total: 2 MW<br>Última detección UTC: 2026-10-02 02:21:00"
      }
    },
    {
      "type": "Feature",
      "geometry": {
        "type": "Point",
        "coordinates": [4.4475, 35.8791]
      },
      "properties": {
        "cluster_id": "ALERT-20261003-057",
        "alerta_operativa": "informativa",
        "score": 4.2,
        "n_focos": 2,
        "n_ultimas_6h": 0,
        "n_ultimas_24h": 0,
        "frp_total_mw": 2,
        "frp_max_mw": 1,
        "edad_min_h": 41.9,
        "ultima_deteccion_utc": "2026-10-02 02:19:00",
        "sensores": "VIIRS_NOAA20_NRT, VIIRS_SNPP_NRT",
        "satellites": "N, N20",
        "instruments": "VIIRS",
        "popup_label": "<strong>ALERT-20261003-057<\/strong><br>Nivel: informativa<br>Focos: 2<br>Últimas 6 h: 0<br>FRP total: 2 MW<br>Última detección UTC: 2026-10-02 02:19:00"
      }
    },
    {
      "type": "Feature",
      "geometry": {
        "type": "Point",
        "coordinates": [-8.9069, 39.6868]
      },
      "properties": {
        "cluster_id": "ALERT-20261003-058",
        "alerta_operativa": "informativa",
        "score": 3.9,
        "n_focos": 2,
        "n_ultimas_6h": 0,
        "n_ultimas_24h": 0,
        "frp_total_mw": 1.6,
        "frp_max_mw": 0.9,
        "edad_min_h": 40.6,
        "ultima_deteccion_utc": "2026-10-02 03:40:00",
        "sensores": "VIIRS_NOAA20_NRT, VIIRS_SNPP_NRT",
        "satellites": "N, N20",
        "instruments": "VIIRS",
        "popup_label": "<strong>ALERT-20261003-058<\/strong><br>Nivel: informativa<br>Focos: 2<br>Últimas 6 h: 0<br>FRP total: 1.6 MW<br>Última detección UTC: 2026-10-02 03:40:00"
      }
    },
    {
      "type": "Feature",
      "geometry": {
        "type": "Point",
        "coordinates": [-3.6606, 37.1498]
      },
      "properties": {
        "cluster_id": "ALERT-20261003-059",
        "alerta_operativa": "informativa",
        "score": 3.8,
        "n_focos": 2,
        "n_ultimas_6h": 0,
        "n_ultimas_24h": 0,
        "frp_total_mw": 1.5,
        "frp_max_mw": 0.8,
        "edad_min_h": 41.9,
        "ultima_deteccion_utc": "2026-10-02 02:19:00",
        "sensores": "VIIRS_NOAA20_NRT, VIIRS_SNPP_NRT",
        "satellites": "N, N20",
        "instruments": "VIIRS",
        "popup_label": "<strong>ALERT-20261003-059<\/strong><br>Nivel: informativa<br>Focos: 2<br>Últimas 6 h: 0<br>FRP total: 1.5 MW<br>Última detección UTC: 2026-10-02 02:19:00"
      }
    },
    {
      "type": "Feature",
      "geometry": {
        "type": "Point",
        "coordinates": [-5.5921, 38.193]
      },
      "properties": {
        "cluster_id": "ALERT-20261003-060",
        "alerta_operativa": "informativa",
        "score": 3.8,
        "n_focos": 2,
        "n_ultimas_6h": 0,
        "n_ultimas_24h": 0,
        "frp_total_mw": 1.4,
        "frp_max_mw": 0.7,
        "edad_min_h": 41.9,
        "ultima_deteccion_utc": "2026-10-02 02:19:00",
        "sensores": "VIIRS_NOAA20_NRT, VIIRS_SNPP_NRT",
        "satellites": "N, N20",
        "instruments": "VIIRS",
        "popup_label": "<strong>ALERT-20261003-060<\/strong><br>Nivel: informativa<br>Focos: 2<br>Últimas 6 h: 0<br>FRP total: 1.4 MW<br>Última detección UTC: 2026-10-02 02:19:00"
      }
    },
    {
      "type": "Feature",
      "geometry": {
        "type": "Point",
        "coordinates": [-5.7192, 38.4348]
      },
      "properties": {
        "cluster_id": "ALERT-20261003-061",
        "alerta_operativa": "informativa",
        "score": 3.8,
        "n_focos": 2,
        "n_ultimas_6h": 0,
        "n_ultimas_24h": 0,
        "frp_total_mw": 1.4,
        "frp_max_mw": 1,
        "edad_min_h": 41.9,
        "ultima_deteccion_utc": "2026-10-02 02:19:00",
        "sensores": "VIIRS_NOAA20_NRT, VIIRS_SNPP_NRT",
        "satellites": "N, N20",
        "instruments": "VIIRS",
        "popup_label": "<strong>ALERT-20261003-061<\/strong><br>Nivel: informativa<br>Focos: 2<br>Últimas 6 h: 0<br>FRP total: 1.4 MW<br>Última detección UTC: 2026-10-02 02:19:00"
      }
    },
    {
      "type": "Feature",
      "geometry": {
        "type": "Point",
        "coordinates": [-6.152, 34.6124]
      },
      "properties": {
        "cluster_id": "ALERT-20261003-062",
        "alerta_operativa": "informativa",
        "score": 3.6,
        "n_focos": 1,
        "n_ultimas_6h": 0,
        "n_ultimas_24h": 0,
        "frp_total_mw": 2.6,
        "frp_max_mw": 2.6,
        "edad_min_h": 30.6,
        "ultima_deteccion_utc": "2026-10-02 13:40:00",
        "sensores": "VIIRS_NOAA20_NRT",
        "satellites": "N20",
        "instruments": "VIIRS",
        "popup_label": "<strong>ALERT-20261003-062<\/strong><br>Nivel: informativa<br>Focos: 1<br>Últimas 6 h: 0<br>FRP total: 2.6 MW<br>Última detección UTC: 2026-10-02 13:40:00"
      }
    },
    {
      "type": "Feature",
      "geometry": {
        "type": "Point",
        "coordinates": [-8.4365, 43.3462]
      },
      "properties": {
        "cluster_id": "ALERT-20261003-063",
        "alerta_operativa": "informativa",
        "score": 3.6,
        "n_focos": 2,
        "n_ultimas_6h": 0,
        "n_ultimas_24h": 0,
        "frp_total_mw": 1.2,
        "frp_max_mw": 0.6,
        "edad_min_h": 42.3,
        "ultima_deteccion_utc": "2026-10-02 01:58:00",
        "sensores": "VIIRS_SNPP_NRT",
        "satellites": "N",
        "instruments": "VIIRS",
        "popup_label": "<strong>ALERT-20261003-063<\/strong><br>Nivel: informativa<br>Focos: 2<br>Últimas 6 h: 0<br>FRP total: 1.2 MW<br>Última detección UTC: 2026-10-02 01:58:00"
      }
    },
    {
      "type": "Feature",
      "geometry": {
        "type": "Point",
        "coordinates": [3.3986, 35.7571]
      },
      "properties": {
        "cluster_id": "ALERT-20261003-064",
        "alerta_operativa": "informativa",
        "score": 2.7,
        "n_focos": 1,
        "n_ultimas_6h": 0,
        "n_ultimas_24h": 0,
        "frp_total_mw": 1.3,
        "frp_max_mw": 1.3,
        "edad_min_h": 30.6,
        "ultima_deteccion_utc": "2026-10-02 13:40:00",
        "sensores": "VIIRS_NOAA20_NRT",
        "satellites": "N20",
        "instruments": "VIIRS",
        "popup_label": "<strong>ALERT-20261003-064<\/strong><br>Nivel: informativa<br>Focos: 1<br>Últimas 6 h: 0<br>FRP total: 1.3 MW<br>Última detección UTC: 2026-10-02 13:40:00"
      }
    },
    {
      "type": "Feature",
      "geometry": {
        "type": "Point",
        "coordinates": [-6.7203, 38.3212]
      },
      "properties": {
        "cluster_id": "ALERT-20261003-065",
        "alerta_operativa": "informativa",
        "score": 2.7,
        "n_focos": 1,
        "n_ultimas_6h": 0,
        "n_ultimas_24h": 0,
        "frp_total_mw": 1.3,
        "frp_max_mw": 1.3,
        "edad_min_h": 41.9,
        "ultima_deteccion_utc": "2026-10-02 02:19:00",
        "sensores": "VIIRS_NOAA20_NRT",
        "satellites": "N20",
        "instruments": "VIIRS",
        "popup_label": "<strong>ALERT-20261003-065<\/strong><br>Nivel: informativa<br>Focos: 1<br>Últimas 6 h: 0<br>FRP total: 1.3 MW<br>Última detección UTC: 2026-10-02 02:19:00"
      }
    },
    {
      "type": "Feature",
      "geometry": {
        "type": "Point",
        "coordinates": [-4.5486, 37.7034]
      },
      "properties": {
        "cluster_id": "ALERT-20261003-066",
        "alerta_operativa": "informativa",
        "score": 2.2,
        "n_focos": 1,
        "n_ultimas_6h": 0,
        "n_ultimas_24h": 0,
        "frp_total_mw": 0.8,
        "frp_max_mw": 0.8,
        "edad_min_h": 42.3,
        "ultima_deteccion_utc": "2026-10-02 02:00:00",
        "sensores": "VIIRS_SNPP_NRT",
        "satellites": "N",
        "instruments": "VIIRS",
        "popup_label": "<strong>ALERT-20261003-066<\/strong><br>Nivel: informativa<br>Focos: 1<br>Últimas 6 h: 0<br>FRP total: 0.8 MW<br>Última detección UTC: 2026-10-02 02:00:00"
      }
    },
    {
      "type": "Feature",
      "geometry": {
        "type": "Point",
        "coordinates": [1.5576, 35.5411]
      },
      "properties": {
        "cluster_id": "ALERT-20261003-067",
        "alerta_operativa": "informativa",
        "score": 2.1,
        "n_focos": 1,
        "n_ultimas_6h": 0,
        "n_ultimas_24h": 0,
        "frp_total_mw": 0.7,
        "frp_max_mw": 0.7,
        "edad_min_h": 42.3,
        "ultima_deteccion_utc": "2026-10-02 02:00:00",
        "sensores": "VIIRS_SNPP_NRT",
        "satellites": "N",
        "instruments": "VIIRS",
        "popup_label": "<strong>ALERT-20261003-067<\/strong><br>Nivel: informativa<br>Focos: 1<br>Últimas 6 h: 0<br>FRP total: 0.7 MW<br>Última detección UTC: 2026-10-02 02:00:00"
      }
    },
    {
      "type": "Feature",
      "geometry": {
        "type": "Point",
        "coordinates": [-9.1508, 30.2213]
      },
      "properties": {
        "cluster_id": "ALERT-20261003-068",
        "alerta_operativa": "informativa",
        "score": 2.1,
        "n_focos": 1,
        "n_ultimas_6h": 0,
        "n_ultimas_24h": 0,
        "frp_total_mw": 0.7,
        "frp_max_mw": 0.7,
        "edad_min_h": 41.9,
        "ultima_deteccion_utc": "2026-10-02 02:21:00",
        "sensores": "VIIRS_NOAA20_NRT",
        "satellites": "N20",
        "instruments": "VIIRS",
        "popup_label": "<strong>ALERT-20261003-068<\/strong><br>Nivel: informativa<br>Focos: 1<br>Últimas 6 h: 0<br>FRP total: 0.7 MW<br>Última detección UTC: 2026-10-02 02:21:00"
      }
    },
    {
      "type": "Feature",
      "geometry": {
        "type": "Point",
        "coordinates": [-6.4862, 38.3788]
      },
      "properties": {
        "cluster_id": "ALERT-20261003-069",
        "alerta_operativa": "informativa",
        "score": 2.1,
        "n_focos": 1,
        "n_ultimas_6h": 0,
        "n_ultimas_24h": 0,
        "frp_total_mw": 0.7,
        "frp_max_mw": 0.7,
        "edad_min_h": 41.9,
        "ultima_deteccion_utc": "2026-10-02 02:19:00",
        "sensores": "VIIRS_NOAA20_NRT",
        "satellites": "N20",
        "instruments": "VIIRS",
        "popup_label": "<strong>ALERT-20261003-069<\/strong><br>Nivel: informativa<br>Focos: 1<br>Últimas 6 h: 0<br>FRP total: 0.7 MW<br>Última detección UTC: 2026-10-02 02:19:00"
      }
    },
    {
      "type": "Feature",
      "geometry": {
        "type": "Point",
        "coordinates": [4.8472, 43.9984]
      },
      "properties": {
        "cluster_id": "ALERT-20261003-070",
        "alerta_operativa": "informativa",
        "score": 1.9,
        "n_focos": 1,
        "n_ultimas_6h": 0,
        "n_ultimas_24h": 0,
        "frp_total_mw": 0.6,
        "frp_max_mw": 0.6,
        "edad_min_h": 42.3,
        "ultima_deteccion_utc": "2026-10-02 01:58:00",
        "sensores": "VIIRS_SNPP_NRT",
        "satellites": "N",
        "instruments": "VIIRS",
        "popup_label": "<strong>ALERT-20261003-070<\/strong><br>Nivel: informativa<br>Focos: 1<br>Últimas 6 h: 0<br>FRP total: 0.6 MW<br>Última detección UTC: 2026-10-02 01:58:00"
      }
    },
    {
      "type": "Feature",
      "geometry": {
        "type": "Point",
        "coordinates": [-5.422, 36.1775]
      },
      "properties": {
        "cluster_id": "ALERT-20261003-071",
        "alerta_operativa": "informativa",
        "score": 1.9,
        "n_focos": 1,
        "n_ultimas_6h": 0,
        "n_ultimas_24h": 0,
        "frp_total_mw": 0.6,
        "frp_max_mw": 0.6,
        "edad_min_h": 41.9,
        "ultima_deteccion_utc": "2026-10-02 02:19:00",
        "sensores": "VIIRS_NOAA20_NRT",
        "satellites": "N20",
        "instruments": "VIIRS",
        "popup_label": "<strong>ALERT-20261003-071<\/strong><br>Nivel: informativa<br>Focos: 1<br>Últimas 6 h: 0<br>FRP total: 0.6 MW<br>Última detección UTC: 2026-10-02 02:19:00"
      }
    },
    {
      "type": "Feature",
      "geometry": {
        "type": "Point",
        "coordinates": [-8.9361, 38.5036]
      },
      "properties": {
        "cluster_id": "ALERT-20261003-072",
        "alerta_operativa": "informativa",
        "score": 1.9,
        "n_focos": 1,
        "n_ultimas_6h": 0,
        "n_ultimas_24h": 0,
        "frp_total_mw": 0.6,
        "frp_max_mw": 0.6,
        "edad_min_h": 41.9,
        "ultima_deteccion_utc": "2026-10-02 02:19:00",
        "sensores": "VIIRS_NOAA20_NRT",
        "satellites": "N20",
        "instruments": "VIIRS",
        "popup_label": "<strong>ALERT-20261003-072<\/strong><br>Nivel: informativa<br>Focos: 1<br>Últimas 6 h: 0<br>FRP total: 0.6 MW<br>Última detección UTC: 2026-10-02 02:19:00"
      }
    },
    {
      "type": "Feature",
      "geometry": {
        "type": "Point",
        "coordinates": [-9.5376, 30.3377]
      },
      "properties": {
        "cluster_id": "ALERT-20261003-073",
        "alerta_operativa": "informativa",
        "score": 1.7,
        "n_focos": 1,
        "n_ultimas_6h": 0,
        "n_ultimas_24h": 0,
        "frp_total_mw": 0.4,
        "frp_max_mw": 0.4,
        "edad_min_h": 42.2,
        "ultima_deteccion_utc": "2026-10-02 02:02:00",
        "sensores": "VIIRS_SNPP_NRT",
        "satellites": "N",
        "instruments": "VIIRS",
        "popup_label": "<strong>ALERT-20261003-073<\/strong><br>Nivel: informativa<br>Focos: 1<br>Últimas 6 h: 0<br>FRP total: 0.4 MW<br>Última detección UTC: 2026-10-02 02:02:00"
      }
    },
    {
      "type": "Feature",
      "geometry": {
        "type": "Point",
        "coordinates": [-5.9145, 35.6463]
      },
      "properties": {
        "cluster_id": "ALERT-20261003-074",
        "alerta_operativa": "informativa",
        "score": 1.5,
        "n_focos": 1,
        "n_ultimas_6h": 0,
        "n_ultimas_24h": 0,
        "frp_total_mw": 0.3,
        "frp_max_mw": 0.3,
        "edad_min_h": 42.3,
        "ultima_deteccion_utc": "2026-10-02 02:00:00",
        "sensores": "VIIRS_SNPP_NRT",
        "satellites": "N",
        "instruments": "VIIRS",
        "popup_label": "<strong>ALERT-20261003-074<\/strong><br>Nivel: informativa<br>Focos: 1<br>Últimas 6 h: 0<br>FRP total: 0.3 MW<br>Última detección UTC: 2026-10-02 02:00:00"
      }
    },
    {
      "type": "Feature",
      "geometry": {
        "type": "Point",
        "coordinates": [-4.3289, 37.8808]
      },
      "properties": {
        "cluster_id": "ALERT-20261003-075",
        "alerta_operativa": "informativa",
        "score": 1.5,
        "n_focos": 1,
        "n_ultimas_6h": 0,
        "n_ultimas_24h": 0,
        "frp_total_mw": 0.3,
        "frp_max_mw": 0.3,
        "edad_min_h": 41.9,
        "ultima_deteccion_utc": "2026-10-02 02:19:00",
        "sensores": "VIIRS_NOAA20_NRT",
        "satellites": "N20",
        "instruments": "VIIRS",
        "popup_label": "<strong>ALERT-20261003-075<\/strong><br>Nivel: informativa<br>Focos: 1<br>Últimas 6 h: 0<br>FRP total: 0.3 MW<br>Última detección UTC: 2026-10-02 02:19:00"
      }
    }
  ]
}
