{
  "type": "FeatureCollection",
  "features": [
    {
      "type": "Feature",
      "geometry": {
        "type": "Point",
        "coordinates": [3.2238, 32.9111]
      },
      "properties": {
        "cluster_id": "ALERT-20260909-001",
        "alerta_operativa": "alta",
        "score": 164,
        "n_focos": 53,
        "n_ultimas_6h": 10,
        "n_ultimas_24h": 26,
        "frp_total_mw": 87.7,
        "frp_max_mw": 7.1,
        "edad_min_h": 4.9,
        "ultima_deteccion_utc": "2026-09-09 02:32:00",
        "sensores": "VIIRS_NOAA20_NRT, VIIRS_SNPP_NRT",
        "satellites": "N, N20",
        "instruments": "VIIRS",
        "popup_label": "<strong>ALERT-20260909-001<\/strong><br>Nivel: alta<br>Focos: 53<br>Últimas 6 h: 10<br>FRP total: 87.7 MW<br>Última detección UTC: 2026-09-09 02:32:00"
      }
    },
    {
      "type": "Feature",
      "geometry": {
        "type": "Point",
        "coordinates": [-0.2718, 35.8056]
      },
      "properties": {
        "cluster_id": "ALERT-20260909-002",
        "alerta_operativa": "alta",
        "score": 149.9,
        "n_focos": 43,
        "n_ultimas_6h": 12,
        "n_ultimas_24h": 19,
        "frp_total_mw": 86.7,
        "frp_max_mw": 5.7,
        "edad_min_h": 4.6,
        "ultima_deteccion_utc": "2026-09-09 02:49:00",
        "sensores": "VIIRS_NOAA20_NRT, VIIRS_SNPP_NRT",
        "satellites": "N, N20",
        "instruments": "VIIRS",
        "popup_label": "<strong>ALERT-20260909-002<\/strong><br>Nivel: alta<br>Focos: 43<br>Últimas 6 h: 12<br>FRP total: 86.7 MW<br>Última detección UTC: 2026-09-09 02:49:00"
      }
    },
    {
      "type": "Feature",
      "geometry": {
        "type": "Point",
        "coordinates": [3.3296, 33.1272]
      },
      "properties": {
        "cluster_id": "ALERT-20260909-003",
        "alerta_operativa": "alta",
        "score": 130.1,
        "n_focos": 44,
        "n_ultimas_6h": 5,
        "n_ultimas_24h": 26,
        "frp_total_mw": 91.4,
        "frp_max_mw": 19,
        "edad_min_h": 4.9,
        "ultima_deteccion_utc": "2026-09-09 02:32:00",
        "sensores": "VIIRS_NOAA20_NRT, VIIRS_SNPP_NRT",
        "satellites": "N, N20",
        "instruments": "VIIRS",
        "popup_label": "<strong>ALERT-20260909-003<\/strong><br>Nivel: alta<br>Focos: 44<br>Últimas 6 h: 5<br>FRP total: 91.4 MW<br>Última detección UTC: 2026-09-09 02:32:00"
      }
    },
    {
      "type": "Feature",
      "geometry": {
        "type": "Point",
        "coordinates": [-3.1115, 37.5103]
      },
      "properties": {
        "cluster_id": "ALERT-20260909-004",
        "alerta_operativa": "alta",
        "score": 99.6,
        "n_focos": 12,
        "n_ultimas_6h": 11,
        "n_ultimas_24h": 12,
        "frp_total_mw": 71.9,
        "frp_max_mw": 14.5,
        "edad_min_h": 4.6,
        "ultima_deteccion_utc": "2026-09-09 02:49:00",
        "sensores": "VIIRS_NOAA20_NRT, VIIRS_SNPP_NRT",
        "satellites": "N, N20",
        "instruments": "VIIRS",
        "popup_label": "<strong>ALERT-20260909-004<\/strong><br>Nivel: alta<br>Focos: 12<br>Últimas 6 h: 11<br>FRP total: 71.9 MW<br>Última detección UTC: 2026-09-09 02:49:00"
      }
    },
    {
      "type": "Feature",
      "geometry": {
        "type": "Point",
        "coordinates": [3.123, 36.6695]
      },
      "properties": {
        "cluster_id": "ALERT-20260909-005",
        "alerta_operativa": "alta",
        "score": 82.4,
        "n_focos": 20,
        "n_ultimas_6h": 6,
        "n_ultimas_24h": 13,
        "frp_total_mw": 23.3,
        "frp_max_mw": 1.8,
        "edad_min_h": 4.6,
        "ultima_deteccion_utc": "2026-09-09 02:49:00",
        "sensores": "VIIRS_NOAA20_NRT, VIIRS_SNPP_NRT",
        "satellites": "N, N20",
        "instruments": "VIIRS",
        "popup_label": "<strong>ALERT-20260909-005<\/strong><br>Nivel: alta<br>Focos: 20<br>Últimas 6 h: 6<br>FRP total: 23.3 MW<br>Última detección UTC: 2026-09-09 02:49:00"
      }
    },
    {
      "type": "Feature",
      "geometry": {
        "type": "Point",
        "coordinates": [3.9867, 32.2774]
      },
      "properties": {
        "cluster_id": "ALERT-20260909-006",
        "alerta_operativa": "alta",
        "score": 56.9,
        "n_focos": 14,
        "n_ultimas_6h": 3,
        "n_ultimas_24h": 10,
        "frp_total_mw": 51.5,
        "frp_max_mw": 6.7,
        "edad_min_h": 4.9,
        "ultima_deteccion_utc": "2026-09-09 02:32:00",
        "sensores": "VIIRS_NOAA20_NRT, VIIRS_SNPP_NRT",
        "satellites": "N, N20",
        "instruments": "VIIRS",
        "popup_label": "<strong>ALERT-20260909-006<\/strong><br>Nivel: alta<br>Focos: 14<br>Últimas 6 h: 3<br>FRP total: 51.5 MW<br>Última detección UTC: 2026-09-09 02:32:00"
      }
    },
    {
      "type": "Feature",
      "geometry": {
        "type": "Point",
        "coordinates": [-6.2289, 34.3604]
      },
      "properties": {
        "cluster_id": "ALERT-20260909-007",
        "alerta_operativa": "alta",
        "score": 48.5,
        "n_focos": 5,
        "n_ultimas_6h": 5,
        "n_ultimas_24h": 5,
        "frp_total_mw": 68.3,
        "frp_max_mw": 21.9,
        "edad_min_h": 4.5,
        "ultima_deteccion_utc": "2026-09-09 02:51:00",
        "sensores": "VIIRS_NOAA20_NRT, VIIRS_SNPP_NRT",
        "satellites": "N, N20",
        "instruments": "VIIRS",
        "popup_label": "<strong>ALERT-20260909-007<\/strong><br>Nivel: alta<br>Focos: 5<br>Últimas 6 h: 5<br>FRP total: 68.3 MW<br>Última detección UTC: 2026-09-09 02:51:00"
      }
    },
    {
      "type": "Feature",
      "geometry": {
        "type": "Point",
        "coordinates": [4.4845, 36.6124]
      },
      "properties": {
        "cluster_id": "ALERT-20260909-008",
        "alerta_operativa": "alta",
        "score": 45.3,
        "n_focos": 8,
        "n_ultimas_6h": 3,
        "n_ultimas_24h": 8,
        "frp_total_mw": 22,
        "frp_max_mw": 5.3,
        "edad_min_h": 4.9,
        "ultima_deteccion_utc": "2026-09-09 02:32:00",
        "sensores": "VIIRS_NOAA20_NRT, VIIRS_SNPP_NRT",
        "satellites": "N, N20",
        "instruments": "VIIRS",
        "popup_label": "<strong>ALERT-20260909-008<\/strong><br>Nivel: alta<br>Focos: 8<br>Últimas 6 h: 3<br>FRP total: 22 MW<br>Última detección UTC: 2026-09-09 02:32:00"
      }
    },
    {
      "type": "Feature",
      "geometry": {
        "type": "Point",
        "coordinates": [-0.5176, 28.2009]
      },
      "properties": {
        "cluster_id": "ALERT-20260909-009",
        "alerta_operativa": "alta",
        "score": 45.2,
        "n_focos": 11,
        "n_ultimas_6h": 3,
        "n_ultimas_24h": 6,
        "frp_total_mw": 36.4,
        "frp_max_mw": 10.7,
        "edad_min_h": 4.5,
        "ultima_deteccion_utc": "2026-09-09 02:51:00",
        "sensores": "VIIRS_NOAA20_NRT, VIIRS_SNPP_NRT",
        "satellites": "N, N20",
        "instruments": "VIIRS",
        "popup_label": "<strong>ALERT-20260909-009<\/strong><br>Nivel: alta<br>Focos: 11<br>Últimas 6 h: 3<br>FRP total: 36.4 MW<br>Última detección UTC: 2026-09-09 02:51:00"
      }
    },
    {
      "type": "Feature",
      "geometry": {
        "type": "Point",
        "coordinates": [3.1677, 32.5552]
      },
      "properties": {
        "cluster_id": "ALERT-20260909-010",
        "alerta_operativa": "alta",
        "score": 43.7,
        "n_focos": 13,
        "n_ultimas_6h": 2,
        "n_ultimas_24h": 7,
        "frp_total_mw": 27.8,
        "frp_max_mw": 3.5,
        "edad_min_h": 4.9,
        "ultima_deteccion_utc": "2026-09-09 02:32:00",
        "sensores": "VIIRS_NOAA20_NRT, VIIRS_SNPP_NRT",
        "satellites": "N, N20",
        "instruments": "VIIRS",
        "popup_label": "<strong>ALERT-20260909-010<\/strong><br>Nivel: alta<br>Focos: 13<br>Últimas 6 h: 2<br>FRP total: 27.8 MW<br>Última detección UTC: 2026-09-09 02:32:00"
      }
    },
    {
      "type": "Feature",
      "geometry": {
        "type": "Point",
        "coordinates": [-0.1591, 28.2126]
      },
      "properties": {
        "cluster_id": "ALERT-20260909-011",
        "alerta_operativa": "alta",
        "score": 40.6,
        "n_focos": 7,
        "n_ultimas_6h": 3,
        "n_ultimas_24h": 6,
        "frp_total_mw": 26.2,
        "frp_max_mw": 11.5,
        "edad_min_h": 4.5,
        "ultima_deteccion_utc": "2026-09-09 02:51:00",
        "sensores": "VIIRS_NOAA20_NRT, VIIRS_SNPP_NRT",
        "satellites": "N, N20",
        "instruments": "VIIRS",
        "popup_label": "<strong>ALERT-20260909-011<\/strong><br>Nivel: alta<br>Focos: 7<br>Últimas 6 h: 3<br>FRP total: 26.2 MW<br>Última detección UTC: 2026-09-09 02:51:00"
      }
    },
    {
      "type": "Feature",
      "geometry": {
        "type": "Point",
        "coordinates": [-0.1484, 38.633]
      },
      "properties": {
        "cluster_id": "ALERT-20260909-012",
        "alerta_operativa": "alta",
        "score": 34.3,
        "n_focos": 8,
        "n_ultimas_6h": 0,
        "n_ultimas_24h": 8,
        "frp_total_mw": 167.4,
        "frp_max_mw": 56.9,
        "edad_min_h": 18.6,
        "ultima_deteccion_utc": "2026-09-08 12:49:00",
        "sensores": "VIIRS_NOAA20_NRT, VIIRS_SNPP_NRT",
        "satellites": "N, N20",
        "instruments": "VIIRS",
        "popup_label": "<strong>ALERT-20260909-012<\/strong><br>Nivel: alta<br>Focos: 8<br>Últimas 6 h: 0<br>FRP total: 167.4 MW<br>Última detección UTC: 2026-09-08 12:49:00"
      }
    },
    {
      "type": "Feature",
      "geometry": {
        "type": "Point",
        "coordinates": [-0.3955, 35.4584]
      },
      "properties": {
        "cluster_id": "ALERT-20260909-013",
        "alerta_operativa": "alta",
        "score": 31.3,
        "n_focos": 6,
        "n_ultimas_6h": 3,
        "n_ultimas_24h": 3,
        "frp_total_mw": 7.6,
        "frp_max_mw": 2,
        "edad_min_h": 4.6,
        "ultima_deteccion_utc": "2026-09-09 02:49:00",
        "sensores": "VIIRS_NOAA20_NRT, VIIRS_SNPP_NRT",
        "satellites": "N, N20",
        "instruments": "VIIRS",
        "popup_label": "<strong>ALERT-20260909-013<\/strong><br>Nivel: alta<br>Focos: 6<br>Últimas 6 h: 3<br>FRP total: 7.6 MW<br>Última detección UTC: 2026-09-09 02:49:00"
      }
    },
    {
      "type": "Feature",
      "geometry": {
        "type": "Point",
        "coordinates": [4.4761, 35.708]
      },
      "properties": {
        "cluster_id": "ALERT-20260909-014",
        "alerta_operativa": "alta",
        "score": 29.9,
        "n_focos": 7,
        "n_ultimas_6h": 2,
        "n_ultimas_24h": 4,
        "frp_total_mw": 10.5,
        "frp_max_mw": 2.1,
        "edad_min_h": 4.9,
        "ultima_deteccion_utc": "2026-09-09 02:32:00",
        "sensores": "VIIRS_NOAA20_NRT, VIIRS_SNPP_NRT",
        "satellites": "N, N20",
        "instruments": "VIIRS",
        "popup_label": "<strong>ALERT-20260909-014<\/strong><br>Nivel: alta<br>Focos: 7<br>Últimas 6 h: 2<br>FRP total: 10.5 MW<br>Última detección UTC: 2026-09-09 02:32:00"
      }
    },
    {
      "type": "Feature",
      "geometry": {
        "type": "Point",
        "coordinates": [-3.2271, 39.1641]
      },
      "properties": {
        "cluster_id": "ALERT-20260909-015",
        "alerta_operativa": "alta",
        "score": 29.5,
        "n_focos": 3,
        "n_ultimas_6h": 3,
        "n_ultimas_24h": 3,
        "frp_total_mw": 14.9,
        "frp_max_mw": 5,
        "edad_min_h": 4.9,
        "ultima_deteccion_utc": "2026-09-09 02:30:00",
        "sensores": "VIIRS_SNPP_NRT",
        "satellites": "N",
        "instruments": "VIIRS",
        "popup_label": "<strong>ALERT-20260909-015<\/strong><br>Nivel: alta<br>Focos: 3<br>Últimas 6 h: 3<br>FRP total: 14.9 MW<br>Última detección UTC: 2026-09-09 02:30:00"
      }
    },
    {
      "type": "Feature",
      "geometry": {
        "type": "Point",
        "coordinates": [1.2421, 36.1271]
      },
      "properties": {
        "cluster_id": "ALERT-20260909-016",
        "alerta_operativa": "alta",
        "score": 28.4,
        "n_focos": 7,
        "n_ultimas_6h": 2,
        "n_ultimas_24h": 3,
        "frp_total_mw": 14.2,
        "frp_max_mw": 3.8,
        "edad_min_h": 4.6,
        "ultima_deteccion_utc": "2026-09-09 02:49:00",
        "sensores": "VIIRS_NOAA20_NRT, VIIRS_SNPP_NRT",
        "satellites": "N, N20",
        "instruments": "VIIRS",
        "popup_label": "<strong>ALERT-20260909-016<\/strong><br>Nivel: alta<br>Focos: 7<br>Últimas 6 h: 2<br>FRP total: 14.2 MW<br>Última detección UTC: 2026-09-09 02:49:00"
      }
    },
    {
      "type": "Feature",
      "geometry": {
        "type": "Point",
        "coordinates": [-6.5741, 34.2836]
      },
      "properties": {
        "cluster_id": "ALERT-20260909-017",
        "alerta_operativa": "alta",
        "score": 26.5,
        "n_focos": 6,
        "n_ultimas_6h": 2,
        "n_ultimas_24h": 3,
        "frp_total_mw": 8.5,
        "frp_max_mw": 2.4,
        "edad_min_h": 4.5,
        "ultima_deteccion_utc": "2026-09-09 02:51:00",
        "sensores": "VIIRS_NOAA20_NRT, VIIRS_SNPP_NRT",
        "satellites": "N, N20",
        "instruments": "VIIRS",
        "popup_label": "<strong>ALERT-20260909-017<\/strong><br>Nivel: alta<br>Focos: 6<br>Últimas 6 h: 2<br>FRP total: 8.5 MW<br>Última detección UTC: 2026-09-09 02:51:00"
      }
    },
    {
      "type": "Feature",
      "geometry": {
        "type": "Point",
        "coordinates": [4.6959, 36.7058]
      },
      "properties": {
        "cluster_id": "ALERT-20260909-018",
        "alerta_operativa": "alta",
        "score": 24.8,
        "n_focos": 3,
        "n_ultimas_6h": 2,
        "n_ultimas_24h": 3,
        "frp_total_mw": 17.2,
        "frp_max_mw": 13.7,
        "edad_min_h": 4.9,
        "ultima_deteccion_utc": "2026-09-09 02:32:00",
        "sensores": "VIIRS_NOAA20_NRT, VIIRS_SNPP_NRT",
        "satellites": "N, N20",
        "instruments": "VIIRS",
        "popup_label": "<strong>ALERT-20260909-018<\/strong><br>Nivel: alta<br>Focos: 3<br>Últimas 6 h: 2<br>FRP total: 17.2 MW<br>Última detección UTC: 2026-09-09 02:32:00"
      }
    },
    {
      "type": "Feature",
      "geometry": {
        "type": "Point",
        "coordinates": [0.5405, 35.7834]
      },
      "properties": {
        "cluster_id": "ALERT-20260909-019",
        "alerta_operativa": "alta",
        "score": 23.2,
        "n_focos": 4,
        "n_ultimas_6h": 2,
        "n_ultimas_24h": 3,
        "frp_total_mw": 4,
        "frp_max_mw": 1.4,
        "edad_min_h": 4.9,
        "ultima_deteccion_utc": "2026-09-09 02:32:00",
        "sensores": "VIIRS_NOAA20_NRT, VIIRS_SNPP_NRT",
        "satellites": "N, N20",
        "instruments": "VIIRS",
        "popup_label": "<strong>ALERT-20260909-019<\/strong><br>Nivel: alta<br>Focos: 4<br>Últimas 6 h: 2<br>FRP total: 4 MW<br>Última detección UTC: 2026-09-09 02:32:00"
      }
    },
    {
      "type": "Feature",
      "geometry": {
        "type": "Point",
        "coordinates": [-8.4704, 32.4168]
      },
      "properties": {
        "cluster_id": "ALERT-20260909-020",
        "alerta_operativa": "alta",
        "score": 22,
        "n_focos": 4,
        "n_ultimas_6h": 2,
        "n_ultimas_24h": 2,
        "frp_total_mw": 6.3,
        "frp_max_mw": 2.3,
        "edad_min_h": 4.5,
        "ultima_deteccion_utc": "2026-09-09 02:51:00",
        "sensores": "VIIRS_NOAA20_NRT, VIIRS_SNPP_NRT",
        "satellites": "N, N20",
        "instruments": "VIIRS",
        "popup_label": "<strong>ALERT-20260909-020<\/strong><br>Nivel: alta<br>Focos: 4<br>Últimas 6 h: 2<br>FRP total: 6.3 MW<br>Última detección UTC: 2026-09-09 02:51:00"
      }
    },
    {
      "type": "Feature",
      "geometry": {
        "type": "Point",
        "coordinates": [-2.9557, 35.1374]
      },
      "properties": {
        "cluster_id": "ALERT-20260909-021",
        "alerta_operativa": "alta",
        "score": 19.2,
        "n_focos": 2,
        "n_ultimas_6h": 2,
        "n_ultimas_24h": 2,
        "frp_total_mw": 3.9,
        "frp_max_mw": 2.7,
        "edad_min_h": 4.5,
        "ultima_deteccion_utc": "2026-09-09 02:51:00",
        "sensores": "VIIRS_NOAA20_NRT, VIIRS_SNPP_NRT",
        "satellites": "N, N20",
        "instruments": "VIIRS",
        "popup_label": "<strong>ALERT-20260909-021<\/strong><br>Nivel: alta<br>Focos: 2<br>Últimas 6 h: 2<br>FRP total: 3.9 MW<br>Última detección UTC: 2026-09-09 02:51:00"
      }
    },
    {
      "type": "Feature",
      "geometry": {
        "type": "Point",
        "coordinates": [-5.2513, 37.291]
      },
      "properties": {
        "cluster_id": "ALERT-20260909-022",
        "alerta_operativa": "alta",
        "score": 18.4,
        "n_focos": 2,
        "n_ultimas_6h": 2,
        "n_ultimas_24h": 2,
        "frp_total_mw": 2.4,
        "frp_max_mw": 1.2,
        "edad_min_h": 4.9,
        "ultima_deteccion_utc": "2026-09-09 02:32:00",
        "sensores": "VIIRS_SNPP_NRT",
        "satellites": "N",
        "instruments": "VIIRS",
        "popup_label": "<strong>ALERT-20260909-022<\/strong><br>Nivel: alta<br>Focos: 2<br>Últimas 6 h: 2<br>FRP total: 2.4 MW<br>Última detección UTC: 2026-09-09 02:32:00"
      }
    },
    {
      "type": "Feature",
      "geometry": {
        "type": "Point",
        "coordinates": [-6.2808, 37.4581]
      },
      "properties": {
        "cluster_id": "ALERT-20260909-023",
        "alerta_operativa": "alta",
        "score": 18.1,
        "n_focos": 2,
        "n_ultimas_6h": 2,
        "n_ultimas_24h": 2,
        "frp_total_mw": 1.8,
        "frp_max_mw": 1,
        "edad_min_h": 4.6,
        "ultima_deteccion_utc": "2026-09-09 02:49:00",
        "sensores": "VIIRS_NOAA20_NRT, VIIRS_SNPP_NRT",
        "satellites": "N, N20",
        "instruments": "VIIRS",
        "popup_label": "<strong>ALERT-20260909-023<\/strong><br>Nivel: alta<br>Focos: 2<br>Últimas 6 h: 2<br>FRP total: 1.8 MW<br>Última detección UTC: 2026-09-09 02:49:00"
      }
    },
    {
      "type": "Feature",
      "geometry": {
        "type": "Point",
        "coordinates": [-5.8654, 37.3603]
      },
      "properties": {
        "cluster_id": "ALERT-20260909-024",
        "alerta_operativa": "alta",
        "score": 17.9,
        "n_focos": 2,
        "n_ultimas_6h": 2,
        "n_ultimas_24h": 2,
        "frp_total_mw": 1.6,
        "frp_max_mw": 0.9,
        "edad_min_h": 4.6,
        "ultima_deteccion_utc": "2026-09-09 02:49:00",
        "sensores": "VIIRS_NOAA20_NRT, VIIRS_SNPP_NRT",
        "satellites": "N, N20",
        "instruments": "VIIRS",
        "popup_label": "<strong>ALERT-20260909-024<\/strong><br>Nivel: alta<br>Focos: 2<br>Últimas 6 h: 2<br>FRP total: 1.6 MW<br>Última detección UTC: 2026-09-09 02:49:00"
      }
    },
    {
      "type": "Feature",
      "geometry": {
        "type": "Point",
        "coordinates": [0.4531, 42.9056]
      },
      "properties": {
        "cluster_id": "ALERT-20260909-025",
        "alerta_operativa": "media",
        "score": 46,
        "n_focos": 27,
        "n_ultimas_6h": 0,
        "n_ultimas_24h": 5,
        "frp_total_mw": 88.3,
        "frp_max_mw": 8.3,
        "edad_min_h": 18.5,
        "ultima_deteccion_utc": "2026-09-08 12:51:00",
        "sensores": "VIIRS_NOAA20_NRT, VIIRS_SNPP_NRT",
        "satellites": "N, N20",
        "instruments": "VIIRS",
        "popup_label": "<strong>ALERT-20260909-025<\/strong><br>Nivel: media<br>Focos: 27<br>Últimas 6 h: 0<br>FRP total: 88.3 MW<br>Última detección UTC: 2026-09-08 12:51:00"
      }
    },
    {
      "type": "Feature",
      "geometry": {
        "type": "Point",
        "coordinates": [4.4463, 35.8787]
      },
      "properties": {
        "cluster_id": "ALERT-20260909-026",
        "alerta_operativa": "media",
        "score": 30.5,
        "n_focos": 10,
        "n_ultimas_6h": 1,
        "n_ultimas_24h": 5,
        "frp_total_mw": 14.8,
        "frp_max_mw": 2,
        "edad_min_h": 4.9,
        "ultima_deteccion_utc": "2026-09-09 02:32:00",
        "sensores": "VIIRS_NOAA20_NRT, VIIRS_SNPP_NRT",
        "satellites": "N, N20",
        "instruments": "VIIRS",
        "popup_label": "<strong>ALERT-20260909-026<\/strong><br>Nivel: media<br>Focos: 10<br>Últimas 6 h: 1<br>FRP total: 14.8 MW<br>Última detección UTC: 2026-09-09 02:32:00"
      }
    },
    {
      "type": "Feature",
      "geometry": {
        "type": "Point",
        "coordinates": [2.8778, 36.5968]
      },
      "properties": {
        "cluster_id": "ALERT-20260909-027",
        "alerta_operativa": "media",
        "score": 27.2,
        "n_focos": 7,
        "n_ultimas_6h": 1,
        "n_ultimas_24h": 5,
        "frp_total_mw": 12.2,
        "frp_max_mw": 3.7,
        "edad_min_h": 4.9,
        "ultima_deteccion_utc": "2026-09-09 02:32:00",
        "sensores": "VIIRS_NOAA20_NRT, VIIRS_SNPP_NRT",
        "satellites": "N, N20",
        "instruments": "VIIRS",
        "popup_label": "<strong>ALERT-20260909-027<\/strong><br>Nivel: media<br>Focos: 7<br>Últimas 6 h: 1<br>FRP total: 12.2 MW<br>Última detección UTC: 2026-09-09 02:32:00"
      }
    },
    {
      "type": "Feature",
      "geometry": {
        "type": "Point",
        "coordinates": [2.8601, 43.8352]
      },
      "properties": {
        "cluster_id": "ALERT-20260909-028",
        "alerta_operativa": "media",
        "score": 25.2,
        "n_focos": 6,
        "n_ultimas_6h": 0,
        "n_ultimas_24h": 6,
        "frp_total_mw": 35,
        "frp_max_mw": 10,
        "edad_min_h": 18.5,
        "ultima_deteccion_utc": "2026-09-08 12:51:00",
        "sensores": "VIIRS_NOAA20_NRT, VIIRS_SNPP_NRT",
        "satellites": "N, N20",
        "instruments": "VIIRS",
        "popup_label": "<strong>ALERT-20260909-028<\/strong><br>Nivel: media<br>Focos: 6<br>Últimas 6 h: 0<br>FRP total: 35 MW<br>Última detección UTC: 2026-09-08 12:51:00"
      }
    },
    {
      "type": "Feature",
      "geometry": {
        "type": "Point",
        "coordinates": [-0.5217, 38.9246]
      },
      "properties": {
        "cluster_id": "ALERT-20260909-029",
        "alerta_operativa": "media",
        "score": 19.4,
        "n_focos": 6,
        "n_ultimas_6h": 0,
        "n_ultimas_24h": 4,
        "frp_total_mw": 14.1,
        "frp_max_mw": 3.5,
        "edad_min_h": 6.2,
        "ultima_deteccion_utc": "2026-09-09 01:09:00",
        "sensores": "VIIRS_NOAA20_NRT",
        "satellites": "N20",
        "instruments": "VIIRS",
        "popup_label": "<strong>ALERT-20260909-029<\/strong><br>Nivel: media<br>Focos: 6<br>Últimas 6 h: 0<br>FRP total: 14.1 MW<br>Última detección UTC: 2026-09-09 01:09:00"
      }
    },
    {
      "type": "Feature",
      "geometry": {
        "type": "Point",
        "coordinates": [4.0047, 32.4013]
      },
      "properties": {
        "cluster_id": "ALERT-20260909-030",
        "alerta_operativa": "media",
        "score": 15.8,
        "n_focos": 4,
        "n_ultimas_6h": 1,
        "n_ultimas_24h": 2,
        "frp_total_mw": 3.1,
        "frp_max_mw": 1.1,
        "edad_min_h": 4.9,
        "ultima_deteccion_utc": "2026-09-09 02:32:00",
        "sensores": "VIIRS_NOAA20_NRT, VIIRS_SNPP_NRT",
        "satellites": "N, N20",
        "instruments": "VIIRS",
        "popup_label": "<strong>ALERT-20260909-030<\/strong><br>Nivel: media<br>Focos: 4<br>Últimas 6 h: 1<br>FRP total: 3.1 MW<br>Última detección UTC: 2026-09-09 02:32:00"
      }
    },
    {
      "type": "Feature",
      "geometry": {
        "type": "Point",
        "coordinates": [2.928, 36.1405]
      },
      "properties": {
        "cluster_id": "ALERT-20260909-031",
        "alerta_operativa": "media",
        "score": 15.6,
        "n_focos": 4,
        "n_ultimas_6h": 1,
        "n_ultimas_24h": 2,
        "frp_total_mw": 2.6,
        "frp_max_mw": 0.9,
        "edad_min_h": 4.9,
        "ultima_deteccion_utc": "2026-09-09 02:32:00",
        "sensores": "VIIRS_NOAA20_NRT, VIIRS_SNPP_NRT",
        "satellites": "N, N20",
        "instruments": "VIIRS",
        "popup_label": "<strong>ALERT-20260909-031<\/strong><br>Nivel: media<br>Focos: 4<br>Últimas 6 h: 1<br>FRP total: 2.6 MW<br>Última detección UTC: 2026-09-09 02:32:00"
      }
    },
    {
      "type": "Feature",
      "geometry": {
        "type": "Point",
        "coordinates": [-6.711, 37.2898]
      },
      "properties": {
        "cluster_id": "ALERT-20260909-032",
        "alerta_operativa": "media",
        "score": 15.5,
        "n_focos": 6,
        "n_ultimas_6h": 0,
        "n_ultimas_24h": 0,
        "frp_total_mw": 115.6,
        "frp_max_mw": 46.5,
        "edad_min_h": 28.2,
        "ultima_deteccion_utc": "2026-09-08 03:10:00",
        "sensores": "VIIRS_NOAA20_NRT, VIIRS_SNPP_NRT",
        "satellites": "N, N20",
        "instruments": "VIIRS",
        "popup_label": "<strong>ALERT-20260909-032<\/strong><br>Nivel: media<br>Focos: 6<br>Últimas 6 h: 0<br>FRP total: 115.6 MW<br>Última detección UTC: 2026-09-08 03:10:00"
      }
    },
    {
      "type": "Feature",
      "geometry": {
        "type": "Point",
        "coordinates": [-5.6027, 37.3268]
      },
      "properties": {
        "cluster_id": "ALERT-20260909-033",
        "alerta_operativa": "media",
        "score": 14.7,
        "n_focos": 3,
        "n_ultimas_6h": 0,
        "n_ultimas_24h": 3,
        "frp_total_mw": 16.4,
        "frp_max_mw": 6.8,
        "edad_min_h": 16.9,
        "ultima_deteccion_utc": "2026-09-08 14:29:00",
        "sensores": "VIIRS_NOAA20_NRT",
        "satellites": "N20",
        "instruments": "VIIRS",
        "popup_label": "<strong>ALERT-20260909-033<\/strong><br>Nivel: media<br>Focos: 3<br>Últimas 6 h: 0<br>FRP total: 16.4 MW<br>Última detección UTC: 2026-09-08 14:29:00"
      }
    },
    {
      "type": "Feature",
      "geometry": {
        "type": "Point",
        "coordinates": [-0.5906, 38.3431]
      },
      "properties": {
        "cluster_id": "ALERT-20260909-034",
        "alerta_operativa": "media",
        "score": 13.1,
        "n_focos": 2,
        "n_ultimas_6h": 1,
        "n_ultimas_24h": 2,
        "frp_total_mw": 1.9,
        "frp_max_mw": 1.2,
        "edad_min_h": 4.6,
        "ultima_deteccion_utc": "2026-09-09 02:49:00",
        "sensores": "VIIRS_NOAA20_NRT",
        "satellites": "N20",
        "instruments": "VIIRS",
        "popup_label": "<strong>ALERT-20260909-034<\/strong><br>Nivel: media<br>Focos: 2<br>Últimas 6 h: 1<br>FRP total: 1.9 MW<br>Última detección UTC: 2026-09-09 02:49:00"
      }
    },
    {
      "type": "Feature",
      "geometry": {
        "type": "Point",
        "coordinates": [-2.3473, 34.5963]
      },
      "properties": {
        "cluster_id": "ALERT-20260909-035",
        "alerta_operativa": "media",
        "score": 12.5,
        "n_focos": 3,
        "n_ultimas_6h": 1,
        "n_ultimas_24h": 1,
        "frp_total_mw": 2.5,
        "frp_max_mw": 1,
        "edad_min_h": 4.9,
        "ultima_deteccion_utc": "2026-09-09 02:32:00",
        "sensores": "VIIRS_NOAA20_NRT, VIIRS_SNPP_NRT",
        "satellites": "N, N20",
        "instruments": "VIIRS",
        "popup_label": "<strong>ALERT-20260909-035<\/strong><br>Nivel: media<br>Focos: 3<br>Últimas 6 h: 1<br>FRP total: 2.5 MW<br>Última detección UTC: 2026-09-09 02:32:00"
      }
    },
    {
      "type": "Feature",
      "geometry": {
        "type": "Point",
        "coordinates": [-6.7689, 42.5518]
      },
      "properties": {
        "cluster_id": "ALERT-20260909-036",
        "alerta_operativa": "media",
        "score": 12.3,
        "n_focos": 3,
        "n_ultimas_6h": 1,
        "n_ultimas_24h": 1,
        "frp_total_mw": 2.1,
        "frp_max_mw": 0.9,
        "edad_min_h": 4.9,
        "ultima_deteccion_utc": "2026-09-09 02:30:00",
        "sensores": "VIIRS_NOAA20_NRT, VIIRS_SNPP_NRT",
        "satellites": "N, N20",
        "instruments": "VIIRS",
        "popup_label": "<strong>ALERT-20260909-036<\/strong><br>Nivel: media<br>Focos: 3<br>Últimas 6 h: 1<br>FRP total: 2.1 MW<br>Última detección UTC: 2026-09-09 02:30:00"
      }
    },
    {
      "type": "Feature",
      "geometry": {
        "type": "Point",
        "coordinates": [-0.2776, 35.5281]
      },
      "properties": {
        "cluster_id": "ALERT-20260909-037",
        "alerta_operativa": "media",
        "score": 11.6,
        "n_focos": 2,
        "n_ultimas_6h": 1,
        "n_ultimas_24h": 1,
        "frp_total_mw": 2.7,
        "frp_max_mw": 1.5,
        "edad_min_h": 4.9,
        "ultima_deteccion_utc": "2026-09-09 02:32:00",
        "sensores": "VIIRS_SNPP_NRT",
        "satellites": "N",
        "instruments": "VIIRS",
        "popup_label": "<strong>ALERT-20260909-037<\/strong><br>Nivel: media<br>Focos: 2<br>Últimas 6 h: 1<br>FRP total: 2.7 MW<br>Última detección UTC: 2026-09-09 02:32:00"
      }
    },
    {
      "type": "Feature",
      "geometry": {
        "type": "Point",
        "coordinates": [-9.0094, 38.922]
      },
      "properties": {
        "cluster_id": "ALERT-20260909-038",
        "alerta_operativa": "media",
        "score": 11.4,
        "n_focos": 2,
        "n_ultimas_6h": 1,
        "n_ultimas_24h": 1,
        "frp_total_mw": 2.3,
        "frp_max_mw": 1.2,
        "edad_min_h": 4.9,
        "ultima_deteccion_utc": "2026-09-09 02:32:00",
        "sensores": "VIIRS_SNPP_NRT",
        "satellites": "N",
        "instruments": "VIIRS",
        "popup_label": "<strong>ALERT-20260909-038<\/strong><br>Nivel: media<br>Focos: 2<br>Últimas 6 h: 1<br>FRP total: 2.3 MW<br>Última detección UTC: 2026-09-09 02:32:00"
      }
    },
    {
      "type": "Feature",
      "geometry": {
        "type": "Point",
        "coordinates": [-4.3301, 36.7136]
      },
      "properties": {
        "cluster_id": "ALERT-20260909-039",
        "alerta_operativa": "media",
        "score": 11.2,
        "n_focos": 2,
        "n_ultimas_6h": 1,
        "n_ultimas_24h": 1,
        "frp_total_mw": 2,
        "frp_max_mw": 1.3,
        "edad_min_h": 4.9,
        "ultima_deteccion_utc": "2026-09-09 02:32:00",
        "sensores": "VIIRS_SNPP_NRT",
        "satellites": "N",
        "instruments": "VIIRS",
        "popup_label": "<strong>ALERT-20260909-039<\/strong><br>Nivel: media<br>Focos: 2<br>Últimas 6 h: 1<br>FRP total: 2 MW<br>Última detección UTC: 2026-09-09 02:32:00"
      }
    },
    {
      "type": "Feature",
      "geometry": {
        "type": "Point",
        "coordinates": [-1.0986, 41.7852]
      },
      "properties": {
        "cluster_id": "ALERT-20260909-040",
        "alerta_operativa": "media",
        "score": 11.1,
        "n_focos": 2,
        "n_ultimas_6h": 0,
        "n_ultimas_24h": 2,
        "frp_total_mw": 12,
        "frp_max_mw": 7.2,
        "edad_min_h": 18.5,
        "ultima_deteccion_utc": "2026-09-08 12:51:00",
        "sensores": "VIIRS_NOAA20_NRT, VIIRS_SNPP_NRT",
        "satellites": "N, N20",
        "instruments": "VIIRS",
        "popup_label": "<strong>ALERT-20260909-040<\/strong><br>Nivel: media<br>Focos: 2<br>Últimas 6 h: 0<br>FRP total: 12 MW<br>Última detección UTC: 2026-09-08 12:51:00"
      }
    },
    {
      "type": "Feature",
      "geometry": {
        "type": "Point",
        "coordinates": [-4.6902, 37.6786]
      },
      "properties": {
        "cluster_id": "ALERT-20260909-041",
        "alerta_operativa": "media",
        "score": 11.1,
        "n_focos": 2,
        "n_ultimas_6h": 0,
        "n_ultimas_24h": 2,
        "frp_total_mw": 11.5,
        "frp_max_mw": 6.3,
        "edad_min_h": 6.2,
        "ultima_deteccion_utc": "2026-09-09 01:09:00",
        "sensores": "VIIRS_NOAA20_NRT, VIIRS_SNPP_NRT",
        "satellites": "N, N20",
        "instruments": "VIIRS",
        "popup_label": "<strong>ALERT-20260909-041<\/strong><br>Nivel: media<br>Focos: 2<br>Últimas 6 h: 0<br>FRP total: 11.5 MW<br>Última detección UTC: 2026-09-09 01:09:00"
      }
    },
    {
      "type": "Feature",
      "geometry": {
        "type": "Point",
        "coordinates": [-7.0458, 37.2556]
      },
      "properties": {
        "cluster_id": "ALERT-20260909-042",
        "alerta_operativa": "media",
        "score": 10.9,
        "n_focos": 2,
        "n_ultimas_6h": 0,
        "n_ultimas_24h": 2,
        "frp_total_mw": 10.8,
        "frp_max_mw": 5.6,
        "edad_min_h": 16.9,
        "ultima_deteccion_utc": "2026-09-08 14:29:00",
        "sensores": "VIIRS_NOAA20_NRT, VIIRS_SNPP_NRT",
        "satellites": "N, N20",
        "instruments": "VIIRS",
        "popup_label": "<strong>ALERT-20260909-042<\/strong><br>Nivel: media<br>Focos: 2<br>Últimas 6 h: 0<br>FRP total: 10.8 MW<br>Última detección UTC: 2026-09-08 14:29:00"
      }
    },
    {
      "type": "Feature",
      "geometry": {
        "type": "Point",
        "coordinates": [-4.2381, 36.8269]
      },
      "properties": {
        "cluster_id": "ALERT-20260909-043",
        "alerta_operativa": "media",
        "score": 10.9,
        "n_focos": 2,
        "n_ultimas_6h": 0,
        "n_ultimas_24h": 2,
        "frp_total_mw": 10.5,
        "frp_max_mw": 5.2,
        "edad_min_h": 17.2,
        "ultima_deteccion_utc": "2026-09-08 14:10:00",
        "sensores": "VIIRS_SNPP_NRT",
        "satellites": "N",
        "instruments": "VIIRS",
        "popup_label": "<strong>ALERT-20260909-043<\/strong><br>Nivel: media<br>Focos: 2<br>Últimas 6 h: 0<br>FRP total: 10.5 MW<br>Última detección UTC: 2026-09-08 14:10:00"
      }
    },
    {
      "type": "Feature",
      "geometry": {
        "type": "Point",
        "coordinates": [1.4021, 41.6127]
      },
      "properties": {
        "cluster_id": "ALERT-20260909-044",
        "alerta_operativa": "media",
        "score": 10.7,
        "n_focos": 2,
        "n_ultimas_6h": 0,
        "n_ultimas_24h": 2,
        "frp_total_mw": 9.3,
        "frp_max_mw": 4.7,
        "edad_min_h": 18.6,
        "ultima_deteccion_utc": "2026-09-08 12:49:00",
        "sensores": "VIIRS_NOAA20_NRT",
        "satellites": "N20",
        "instruments": "VIIRS",
        "popup_label": "<strong>ALERT-20260909-044<\/strong><br>Nivel: media<br>Focos: 2<br>Últimas 6 h: 0<br>FRP total: 9.3 MW<br>Última detección UTC: 2026-09-08 12:49:00"
      }
    },
    {
      "type": "Feature",
      "geometry": {
        "type": "Point",
        "coordinates": [-6.1561, 39.1957]
      },
      "properties": {
        "cluster_id": "ALERT-20260909-045",
        "alerta_operativa": "media",
        "score": 9.6,
        "n_focos": 1,
        "n_ultimas_6h": 1,
        "n_ultimas_24h": 1,
        "frp_total_mw": 1.2,
        "frp_max_mw": 1.2,
        "edad_min_h": 4.6,
        "ultima_deteccion_utc": "2026-09-09 02:49:00",
        "sensores": "VIIRS_NOAA20_NRT",
        "satellites": "N20",
        "instruments": "VIIRS",
        "popup_label": "<strong>ALERT-20260909-045<\/strong><br>Nivel: media<br>Focos: 1<br>Últimas 6 h: 1<br>FRP total: 1.2 MW<br>Última detección UTC: 2026-09-09 02:49:00"
      }
    },
    {
      "type": "Feature",
      "geometry": {
        "type": "Point",
        "coordinates": [0.3296, 34.7986]
      },
      "properties": {
        "cluster_id": "ALERT-20260909-046",
        "alerta_operativa": "media",
        "score": 9.4,
        "n_focos": 1,
        "n_ultimas_6h": 1,
        "n_ultimas_24h": 1,
        "frp_total_mw": 1,
        "frp_max_mw": 1,
        "edad_min_h": 4.9,
        "ultima_deteccion_utc": "2026-09-09 02:32:00",
        "sensores": "VIIRS_SNPP_NRT",
        "satellites": "N",
        "instruments": "VIIRS",
        "popup_label": "<strong>ALERT-20260909-046<\/strong><br>Nivel: media<br>Focos: 1<br>Últimas 6 h: 1<br>FRP total: 1 MW<br>Última detección UTC: 2026-09-09 02:32:00"
      }
    },
    {
      "type": "Feature",
      "geometry": {
        "type": "Point",
        "coordinates": [-9.1514, 30.2203]
      },
      "properties": {
        "cluster_id": "ALERT-20260909-047",
        "alerta_operativa": "media",
        "score": 9.4,
        "n_focos": 1,
        "n_ultimas_6h": 1,
        "n_ultimas_24h": 1,
        "frp_total_mw": 1,
        "frp_max_mw": 1,
        "edad_min_h": 4.5,
        "ultima_deteccion_utc": "2026-09-09 02:51:00",
        "sensores": "VIIRS_NOAA20_NRT",
        "satellites": "N20",
        "instruments": "VIIRS",
        "popup_label": "<strong>ALERT-20260909-047<\/strong><br>Nivel: media<br>Focos: 1<br>Últimas 6 h: 1<br>FRP total: 1 MW<br>Última detección UTC: 2026-09-09 02:51:00"
      }
    },
    {
      "type": "Feature",
      "geometry": {
        "type": "Point",
        "coordinates": [-7.5341, 33.0543]
      },
      "properties": {
        "cluster_id": "ALERT-20260909-048",
        "alerta_operativa": "media",
        "score": 9.3,
        "n_focos": 1,
        "n_ultimas_6h": 1,
        "n_ultimas_24h": 1,
        "frp_total_mw": 0.9,
        "frp_max_mw": 0.9,
        "edad_min_h": 4.9,
        "ultima_deteccion_utc": "2026-09-09 02:32:00",
        "sensores": "VIIRS_SNPP_NRT",
        "satellites": "N",
        "instruments": "VIIRS",
        "popup_label": "<strong>ALERT-20260909-048<\/strong><br>Nivel: media<br>Focos: 1<br>Últimas 6 h: 1<br>FRP total: 0.9 MW<br>Última detección UTC: 2026-09-09 02:32:00"
      }
    },
    {
      "type": "Feature",
      "geometry": {
        "type": "Point",
        "coordinates": [-5.7959, 37.555]
      },
      "properties": {
        "cluster_id": "ALERT-20260909-049",
        "alerta_operativa": "media",
        "score": 9.3,
        "n_focos": 1,
        "n_ultimas_6h": 1,
        "n_ultimas_24h": 1,
        "frp_total_mw": 0.9,
        "frp_max_mw": 0.9,
        "edad_min_h": 4.6,
        "ultima_deteccion_utc": "2026-09-09 02:49:00",
        "sensores": "VIIRS_NOAA20_NRT",
        "satellites": "N20",
        "instruments": "VIIRS",
        "popup_label": "<strong>ALERT-20260909-049<\/strong><br>Nivel: media<br>Focos: 1<br>Últimas 6 h: 1<br>FRP total: 0.9 MW<br>Última detección UTC: 2026-09-09 02:49:00"
      }
    },
    {
      "type": "Feature",
      "geometry": {
        "type": "Point",
        "coordinates": [-6.1367, 32.5676]
      },
      "properties": {
        "cluster_id": "ALERT-20260909-050",
        "alerta_operativa": "media",
        "score": 9.2,
        "n_focos": 1,
        "n_ultimas_6h": 1,
        "n_ultimas_24h": 1,
        "frp_total_mw": 0.8,
        "frp_max_mw": 0.8,
        "edad_min_h": 4.9,
        "ultima_deteccion_utc": "2026-09-09 02:32:00",
        "sensores": "VIIRS_SNPP_NRT",
        "satellites": "N",
        "instruments": "VIIRS",
        "popup_label": "<strong>ALERT-20260909-050<\/strong><br>Nivel: media<br>Focos: 1<br>Últimas 6 h: 1<br>FRP total: 0.8 MW<br>Última detección UTC: 2026-09-09 02:32:00"
      }
    },
    {
      "type": "Feature",
      "geometry": {
        "type": "Point",
        "coordinates": [-5.4257, 36.1791]
      },
      "properties": {
        "cluster_id": "ALERT-20260909-051",
        "alerta_operativa": "media",
        "score": 9.2,
        "n_focos": 1,
        "n_ultimas_6h": 1,
        "n_ultimas_24h": 1,
        "frp_total_mw": 0.8,
        "frp_max_mw": 0.8,
        "edad_min_h": 4.9,
        "ultima_deteccion_utc": "2026-09-09 02:32:00",
        "sensores": "VIIRS_SNPP_NRT",
        "satellites": "N",
        "instruments": "VIIRS",
        "popup_label": "<strong>ALERT-20260909-051<\/strong><br>Nivel: media<br>Focos: 1<br>Últimas 6 h: 1<br>FRP total: 0.8 MW<br>Última detección UTC: 2026-09-09 02:32:00"
      }
    },
    {
      "type": "Feature",
      "geometry": {
        "type": "Point",
        "coordinates": [-6.3476, 39.4966]
      },
      "properties": {
        "cluster_id": "ALERT-20260909-052",
        "alerta_operativa": "media",
        "score": 9.2,
        "n_focos": 1,
        "n_ultimas_6h": 1,
        "n_ultimas_24h": 1,
        "frp_total_mw": 0.8,
        "frp_max_mw": 0.8,
        "edad_min_h": 4.9,
        "ultima_deteccion_utc": "2026-09-09 02:32:00",
        "sensores": "VIIRS_SNPP_NRT",
        "satellites": "N",
        "instruments": "VIIRS",
        "popup_label": "<strong>ALERT-20260909-052<\/strong><br>Nivel: media<br>Focos: 1<br>Últimas 6 h: 1<br>FRP total: 0.8 MW<br>Última detección UTC: 2026-09-09 02:32:00"
      }
    },
    {
      "type": "Feature",
      "geometry": {
        "type": "Point",
        "coordinates": [-8.5955, 33.1588]
      },
      "properties": {
        "cluster_id": "ALERT-20260909-053",
        "alerta_operativa": "media",
        "score": 9.1,
        "n_focos": 1,
        "n_ultimas_6h": 1,
        "n_ultimas_24h": 1,
        "frp_total_mw": 0.7,
        "frp_max_mw": 0.7,
        "edad_min_h": 4.9,
        "ultima_deteccion_utc": "2026-09-09 02:32:00",
        "sensores": "VIIRS_SNPP_NRT",
        "satellites": "N",
        "instruments": "VIIRS",
        "popup_label": "<strong>ALERT-20260909-053<\/strong><br>Nivel: media<br>Focos: 1<br>Últimas 6 h: 1<br>FRP total: 0.7 MW<br>Última detección UTC: 2026-09-09 02:32:00"
      }
    },
    {
      "type": "Feature",
      "geometry": {
        "type": "Point",
        "coordinates": [-6.1256, 36.6692]
      },
      "properties": {
        "cluster_id": "ALERT-20260909-054",
        "alerta_operativa": "media",
        "score": 9.1,
        "n_focos": 1,
        "n_ultimas_6h": 1,
        "n_ultimas_24h": 1,
        "frp_total_mw": 0.7,
        "frp_max_mw": 0.7,
        "edad_min_h": 4.6,
        "ultima_deteccion_utc": "2026-09-09 02:49:00",
        "sensores": "VIIRS_NOAA20_NRT",
        "satellites": "N20",
        "instruments": "VIIRS",
        "popup_label": "<strong>ALERT-20260909-054<\/strong><br>Nivel: media<br>Focos: 1<br>Últimas 6 h: 1<br>FRP total: 0.7 MW<br>Última detección UTC: 2026-09-09 02:49:00"
      }
    },
    {
      "type": "Feature",
      "geometry": {
        "type": "Point",
        "coordinates": [1.8988, 30.9111]
      },
      "properties": {
        "cluster_id": "ALERT-20260909-055",
        "alerta_operativa": "media",
        "score": 8.9,
        "n_focos": 1,
        "n_ultimas_6h": 1,
        "n_ultimas_24h": 1,
        "frp_total_mw": 0.6,
        "frp_max_mw": 0.6,
        "edad_min_h": 4.9,
        "ultima_deteccion_utc": "2026-09-09 02:32:00",
        "sensores": "VIIRS_SNPP_NRT",
        "satellites": "N",
        "instruments": "VIIRS",
        "popup_label": "<strong>ALERT-20260909-055<\/strong><br>Nivel: media<br>Focos: 1<br>Últimas 6 h: 1<br>FRP total: 0.6 MW<br>Última detección UTC: 2026-09-09 02:32:00"
      }
    },
    {
      "type": "Feature",
      "geometry": {
        "type": "Point",
        "coordinates": [-1.3423, 35.3124]
      },
      "properties": {
        "cluster_id": "ALERT-20260909-056",
        "alerta_operativa": "media",
        "score": 8.8,
        "n_focos": 1,
        "n_ultimas_6h": 1,
        "n_ultimas_24h": 1,
        "frp_total_mw": 0.5,
        "frp_max_mw": 0.5,
        "edad_min_h": 4.9,
        "ultima_deteccion_utc": "2026-09-09 02:32:00",
        "sensores": "VIIRS_SNPP_NRT",
        "satellites": "N",
        "instruments": "VIIRS",
        "popup_label": "<strong>ALERT-20260909-056<\/strong><br>Nivel: media<br>Focos: 1<br>Últimas 6 h: 1<br>FRP total: 0.5 MW<br>Última detección UTC: 2026-09-09 02:32:00"
      }
    },
    {
      "type": "Feature",
      "geometry": {
        "type": "Point",
        "coordinates": [-5.5827, 33.8892]
      },
      "properties": {
        "cluster_id": "ALERT-20260909-057",
        "alerta_operativa": "media",
        "score": 8.8,
        "n_focos": 1,
        "n_ultimas_6h": 1,
        "n_ultimas_24h": 1,
        "frp_total_mw": 0.5,
        "frp_max_mw": 0.5,
        "edad_min_h": 4.5,
        "ultima_deteccion_utc": "2026-09-09 02:51:00",
        "sensores": "VIIRS_NOAA20_NRT",
        "satellites": "N20",
        "instruments": "VIIRS",
        "popup_label": "<strong>ALERT-20260909-057<\/strong><br>Nivel: media<br>Focos: 1<br>Últimas 6 h: 1<br>FRP total: 0.5 MW<br>Última detección UTC: 2026-09-09 02:51:00"
      }
    },
    {
      "type": "Feature",
      "geometry": {
        "type": "Point",
        "coordinates": [-2.551, 37.7438]
      },
      "properties": {
        "cluster_id": "ALERT-20260909-058",
        "alerta_operativa": "media",
        "score": 8.7,
        "n_focos": 2,
        "n_ultimas_6h": 0,
        "n_ultimas_24h": 2,
        "frp_total_mw": 2.8,
        "frp_max_mw": 1.4,
        "edad_min_h": 6.2,
        "ultima_deteccion_utc": "2026-09-09 01:09:00",
        "sensores": "VIIRS_NOAA20_NRT",
        "satellites": "N20",
        "instruments": "VIIRS",
        "popup_label": "<strong>ALERT-20260909-058<\/strong><br>Nivel: media<br>Focos: 2<br>Últimas 6 h: 0<br>FRP total: 2.8 MW<br>Última detección UTC: 2026-09-09 01:09:00"
      }
    },
    {
      "type": "Feature",
      "geometry": {
        "type": "Point",
        "coordinates": [-0.0513, 28.2689]
      },
      "properties": {
        "cluster_id": "ALERT-20260909-059",
        "alerta_operativa": "seguimiento",
        "score": 9.6,
        "n_focos": 1,
        "n_ultimas_6h": 0,
        "n_ultimas_24h": 1,
        "frp_total_mw": 26,
        "frp_max_mw": 26,
        "edad_min_h": 18.6,
        "ultima_deteccion_utc": "2026-09-08 12:49:00",
        "sensores": "VIIRS_NOAA20_NRT",
        "satellites": "N20",
        "instruments": "VIIRS",
        "popup_label": "<strong>ALERT-20260909-059<\/strong><br>Nivel: seguimiento<br>Focos: 1<br>Últimas 6 h: 0<br>FRP total: 26 MW<br>Última detección UTC: 2026-09-08 12:49:00"
      }
    },
    {
      "type": "Feature",
      "geometry": {
        "type": "Point",
        "coordinates": [3.3727, 32.906]
      },
      "properties": {
        "cluster_id": "ALERT-20260909-060",
        "alerta_operativa": "seguimiento",
        "score": 9.2,
        "n_focos": 1,
        "n_ultimas_6h": 0,
        "n_ultimas_24h": 1,
        "frp_total_mw": 21.6,
        "frp_max_mw": 21.6,
        "edad_min_h": 18.9,
        "ultima_deteccion_utc": "2026-09-08 12:29:00",
        "sensores": "VIIRS_SNPP_NRT",
        "satellites": "N",
        "instruments": "VIIRS",
        "popup_label": "<strong>ALERT-20260909-060<\/strong><br>Nivel: seguimiento<br>Focos: 1<br>Últimas 6 h: 0<br>FRP total: 21.6 MW<br>Última detección UTC: 2026-09-08 12:29:00"
      }
    },
    {
      "type": "Feature",
      "geometry": {
        "type": "Point",
        "coordinates": [3.5926, 44.3691]
      },
      "properties": {
        "cluster_id": "ALERT-20260909-061",
        "alerta_operativa": "seguimiento",
        "score": 7.6,
        "n_focos": 1,
        "n_ultimas_6h": 0,
        "n_ultimas_24h": 1,
        "frp_total_mw": 8.8,
        "frp_max_mw": 8.8,
        "edad_min_h": 18.5,
        "ultima_deteccion_utc": "2026-09-08 12:51:00",
        "sensores": "VIIRS_NOAA20_NRT",
        "satellites": "N20",
        "instruments": "VIIRS",
        "popup_label": "<strong>ALERT-20260909-061<\/strong><br>Nivel: seguimiento<br>Focos: 1<br>Últimas 6 h: 0<br>FRP total: 8.8 MW<br>Última detección UTC: 2026-09-08 12:51:00"
      }
    },
    {
      "type": "Feature",
      "geometry": {
        "type": "Point",
        "coordinates": [-4.0642, 35.1394]
      },
      "properties": {
        "cluster_id": "ALERT-20260909-062",
        "alerta_operativa": "seguimiento",
        "score": 6.9,
        "n_focos": 1,
        "n_ultimas_6h": 0,
        "n_ultimas_24h": 1,
        "frp_total_mw": 6,
        "frp_max_mw": 6,
        "edad_min_h": 18.6,
        "ultima_deteccion_utc": "2026-09-08 12:49:00",
        "sensores": "VIIRS_NOAA20_NRT",
        "satellites": "N20",
        "instruments": "VIIRS",
        "popup_label": "<strong>ALERT-20260909-062<\/strong><br>Nivel: seguimiento<br>Focos: 1<br>Últimas 6 h: 0<br>FRP total: 6 MW<br>Última detección UTC: 2026-09-08 12:49:00"
      }
    },
    {
      "type": "Feature",
      "geometry": {
        "type": "Point",
        "coordinates": [3.3359, 35.0138]
      },
      "properties": {
        "cluster_id": "ALERT-20260909-063",
        "alerta_operativa": "seguimiento",
        "score": 6.6,
        "n_focos": 1,
        "n_ultimas_6h": 0,
        "n_ultimas_24h": 1,
        "frp_total_mw": 5.1,
        "frp_max_mw": 5.1,
        "edad_min_h": 18.9,
        "ultima_deteccion_utc": "2026-09-08 12:29:00",
        "sensores": "VIIRS_SNPP_NRT",
        "satellites": "N",
        "instruments": "VIIRS",
        "popup_label": "<strong>ALERT-20260909-063<\/strong><br>Nivel: seguimiento<br>Focos: 1<br>Últimas 6 h: 0<br>FRP total: 5.1 MW<br>Última detección UTC: 2026-09-08 12:29:00"
      }
    },
    {
      "type": "Feature",
      "geometry": {
        "type": "Point",
        "coordinates": [-6.277, 34.9052]
      },
      "properties": {
        "cluster_id": "ALERT-20260909-064",
        "alerta_operativa": "seguimiento",
        "score": 6.5,
        "n_focos": 1,
        "n_ultimas_6h": 0,
        "n_ultimas_24h": 1,
        "frp_total_mw": 4.7,
        "frp_max_mw": 4.7,
        "edad_min_h": 17.2,
        "ultima_deteccion_utc": "2026-09-08 14:10:00",
        "sensores": "VIIRS_SNPP_NRT",
        "satellites": "N",
        "instruments": "VIIRS",
        "popup_label": "<strong>ALERT-20260909-064<\/strong><br>Nivel: seguimiento<br>Focos: 1<br>Últimas 6 h: 0<br>FRP total: 4.7 MW<br>Última detección UTC: 2026-09-08 14:10:00"
      }
    },
    {
      "type": "Feature",
      "geometry": {
        "type": "Point",
        "coordinates": [1.4944, 35.375]
      },
      "properties": {
        "cluster_id": "ALERT-20260909-065",
        "alerta_operativa": "seguimiento",
        "score": 6.4,
        "n_focos": 1,
        "n_ultimas_6h": 0,
        "n_ultimas_24h": 1,
        "frp_total_mw": 4.6,
        "frp_max_mw": 4.6,
        "edad_min_h": 18.6,
        "ultima_deteccion_utc": "2026-09-08 12:49:00",
        "sensores": "VIIRS_NOAA20_NRT",
        "satellites": "N20",
        "instruments": "VIIRS",
        "popup_label": "<strong>ALERT-20260909-065<\/strong><br>Nivel: seguimiento<br>Focos: 1<br>Últimas 6 h: 0<br>FRP total: 4.6 MW<br>Última detección UTC: 2026-09-08 12:49:00"
      }
    },
    {
      "type": "Feature",
      "geometry": {
        "type": "Point",
        "coordinates": [0.1255, 36.0166]
      },
      "properties": {
        "cluster_id": "ALERT-20260909-066",
        "alerta_operativa": "seguimiento",
        "score": 6.2,
        "n_focos": 1,
        "n_ultimas_6h": 0,
        "n_ultimas_24h": 1,
        "frp_total_mw": 4,
        "frp_max_mw": 4,
        "edad_min_h": 18.6,
        "ultima_deteccion_utc": "2026-09-08 12:49:00",
        "sensores": "VIIRS_NOAA20_NRT",
        "satellites": "N20",
        "instruments": "VIIRS",
        "popup_label": "<strong>ALERT-20260909-066<\/strong><br>Nivel: seguimiento<br>Focos: 1<br>Últimas 6 h: 0<br>FRP total: 4 MW<br>Última detección UTC: 2026-09-08 12:49:00"
      }
    },
    {
      "type": "Feature",
      "geometry": {
        "type": "Point",
        "coordinates": [-1.4099, 38.417]
      },
      "properties": {
        "cluster_id": "ALERT-20260909-067",
        "alerta_operativa": "seguimiento",
        "score": 5.9,
        "n_focos": 1,
        "n_ultimas_6h": 0,
        "n_ultimas_24h": 1,
        "frp_total_mw": 3.3,
        "frp_max_mw": 3.3,
        "edad_min_h": 17.2,
        "ultima_deteccion_utc": "2026-09-08 14:12:00",
        "sensores": "VIIRS_SNPP_NRT",
        "satellites": "N",
        "instruments": "VIIRS",
        "popup_label": "<strong>ALERT-20260909-067<\/strong><br>Nivel: seguimiento<br>Focos: 1<br>Últimas 6 h: 0<br>FRP total: 3.3 MW<br>Última detección UTC: 2026-09-08 14:12:00"
      }
    },
    {
      "type": "Feature",
      "geometry": {
        "type": "Point",
        "coordinates": [4.9146, 43.6426]
      },
      "properties": {
        "cluster_id": "ALERT-20260909-068",
        "alerta_operativa": "seguimiento",
        "score": 5.9,
        "n_focos": 1,
        "n_ultimas_6h": 0,
        "n_ultimas_24h": 1,
        "frp_total_mw": 3.2,
        "frp_max_mw": 3.2,
        "edad_min_h": 18.5,
        "ultima_deteccion_utc": "2026-09-08 12:51:00",
        "sensores": "VIIRS_NOAA20_NRT",
        "satellites": "N20",
        "instruments": "VIIRS",
        "popup_label": "<strong>ALERT-20260909-068<\/strong><br>Nivel: seguimiento<br>Focos: 1<br>Últimas 6 h: 0<br>FRP total: 3.2 MW<br>Última detección UTC: 2026-09-08 12:51:00"
      }
    },
    {
      "type": "Feature",
      "geometry": {
        "type": "Point",
        "coordinates": [-0.5955, 38.6152]
      },
      "properties": {
        "cluster_id": "ALERT-20260909-069",
        "alerta_operativa": "seguimiento",
        "score": 5.6,
        "n_focos": 1,
        "n_ultimas_6h": 0,
        "n_ultimas_24h": 1,
        "frp_total_mw": 2.7,
        "frp_max_mw": 2.7,
        "edad_min_h": 18.6,
        "ultima_deteccion_utc": "2026-09-08 12:49:00",
        "sensores": "VIIRS_NOAA20_NRT",
        "satellites": "N20",
        "instruments": "VIIRS",
        "popup_label": "<strong>ALERT-20260909-069<\/strong><br>Nivel: seguimiento<br>Focos: 1<br>Últimas 6 h: 0<br>FRP total: 2.7 MW<br>Última detección UTC: 2026-09-08 12:49:00"
      }
    },
    {
      "type": "Feature",
      "geometry": {
        "type": "Point",
        "coordinates": [-4.8422, 37.8037]
      },
      "properties": {
        "cluster_id": "ALERT-20260909-070",
        "alerta_operativa": "seguimiento",
        "score": 5.4,
        "n_focos": 1,
        "n_ultimas_6h": 0,
        "n_ultimas_24h": 1,
        "frp_total_mw": 2.4,
        "frp_max_mw": 2.4,
        "edad_min_h": 17.2,
        "ultima_deteccion_utc": "2026-09-08 14:12:00",
        "sensores": "VIIRS_SNPP_NRT",
        "satellites": "N",
        "instruments": "VIIRS",
        "popup_label": "<strong>ALERT-20260909-070<\/strong><br>Nivel: seguimiento<br>Focos: 1<br>Últimas 6 h: 0<br>FRP total: 2.4 MW<br>Última detección UTC: 2026-09-08 14:12:00"
      }
    },
    {
      "type": "Feature",
      "geometry": {
        "type": "Point",
        "coordinates": [-9.2511, 32.1203]
      },
      "properties": {
        "cluster_id": "ALERT-20260909-071",
        "alerta_operativa": "seguimiento",
        "score": 5,
        "n_focos": 1,
        "n_ultimas_6h": 0,
        "n_ultimas_24h": 1,
        "frp_total_mw": 1.7,
        "frp_max_mw": 1.7,
        "edad_min_h": 17.2,
        "ultima_deteccion_utc": "2026-09-08 14:10:00",
        "sensores": "VIIRS_SNPP_NRT",
        "satellites": "N",
        "instruments": "VIIRS",
        "popup_label": "<strong>ALERT-20260909-071<\/strong><br>Nivel: seguimiento<br>Focos: 1<br>Últimas 6 h: 0<br>FRP total: 1.7 MW<br>Última detección UTC: 2026-09-08 14:10:00"
      }
    },
    {
      "type": "Feature",
      "geometry": {
        "type": "Point",
        "coordinates": [2.0565, 34.4402]
      },
      "properties": {
        "cluster_id": "ALERT-20260909-072",
        "alerta_operativa": "seguimiento",
        "score": 4.7,
        "n_focos": 1,
        "n_ultimas_6h": 0,
        "n_ultimas_24h": 1,
        "frp_total_mw": 1.3,
        "frp_max_mw": 1.3,
        "edad_min_h": 6.2,
        "ultima_deteccion_utc": "2026-09-09 01:09:00",
        "sensores": "VIIRS_NOAA20_NRT",
        "satellites": "N20",
        "instruments": "VIIRS",
        "popup_label": "<strong>ALERT-20260909-072<\/strong><br>Nivel: seguimiento<br>Focos: 1<br>Últimas 6 h: 0<br>FRP total: 1.3 MW<br>Última detección UTC: 2026-09-09 01:09:00"
      }
    },
    {
      "type": "Feature",
      "geometry": {
        "type": "Point",
        "coordinates": [3.6409, 36.7198]
      },
      "properties": {
        "cluster_id": "ALERT-20260909-073",
        "alerta_operativa": "seguimiento",
        "score": 4.5,
        "n_focos": 1,
        "n_ultimas_6h": 0,
        "n_ultimas_24h": 1,
        "frp_total_mw": 1.1,
        "frp_max_mw": 1.1,
        "edad_min_h": 18.9,
        "ultima_deteccion_utc": "2026-09-08 12:29:00",
        "sensores": "VIIRS_SNPP_NRT",
        "satellites": "N",
        "instruments": "VIIRS",
        "popup_label": "<strong>ALERT-20260909-073<\/strong><br>Nivel: seguimiento<br>Focos: 1<br>Últimas 6 h: 0<br>FRP total: 1.1 MW<br>Última detección UTC: 2026-09-08 12:29:00"
      }
    },
    {
      "type": "Feature",
      "geometry": {
        "type": "Point",
        "coordinates": [-2.5284, 42.9706]
      },
      "properties": {
        "cluster_id": "ALERT-20260909-074",
        "alerta_operativa": "informativa",
        "score": 15.3,
        "n_focos": 9,
        "n_ultimas_6h": 0,
        "n_ultimas_24h": 0,
        "frp_total_mw": 22.3,
        "frp_max_mw": 3.9,
        "edad_min_h": 28.3,
        "ultima_deteccion_utc": "2026-09-08 03:08:00",
        "sensores": "VIIRS_NOAA20_NRT, VIIRS_SNPP_NRT",
        "satellites": "N, N20",
        "instruments": "VIIRS",
        "popup_label": "<strong>ALERT-20260909-074<\/strong><br>Nivel: informativa<br>Focos: 9<br>Últimas 6 h: 0<br>FRP total: 22.3 MW<br>Última detección UTC: 2026-09-08 03:08:00"
      }
    },
    {
      "type": "Feature",
      "geometry": {
        "type": "Point",
        "coordinates": [4.893, 43.4438]
      },
      "properties": {
        "cluster_id": "ALERT-20260909-075",
        "alerta_operativa": "informativa",
        "score": 13.5,
        "n_focos": 8,
        "n_ultimas_6h": 0,
        "n_ultimas_24h": 0,
        "frp_total_mw": 14.5,
        "frp_max_mw": 3.2,
        "edad_min_h": 28.6,
        "ultima_deteccion_utc": "2026-09-08 02:47:00",
        "sensores": "VIIRS_NOAA20_NRT, VIIRS_SNPP_NRT",
        "satellites": "N, N20",
        "instruments": "VIIRS",
        "popup_label": "<strong>ALERT-20260909-075<\/strong><br>Nivel: informativa<br>Focos: 8<br>Últimas 6 h: 0<br>FRP total: 14.5 MW<br>Última detección UTC: 2026-09-08 02:47:00"
      }
    },
    {
      "type": "Feature",
      "geometry": {
        "type": "Point",
        "coordinates": [-3.7833, 39.0447]
      },
      "properties": {
        "cluster_id": "ALERT-20260909-076",
        "alerta_operativa": "informativa",
        "score": 11.2,
        "n_focos": 7,
        "n_ultimas_6h": 0,
        "n_ultimas_24h": 0,
        "frp_total_mw": 7.3,
        "frp_max_mw": 1.4,
        "edad_min_h": 28.3,
        "ultima_deteccion_utc": "2026-09-08 03:08:00",
        "sensores": "VIIRS_NOAA20_NRT, VIIRS_SNPP_NRT",
        "satellites": "N, N20",
        "instruments": "VIIRS",
        "popup_label": "<strong>ALERT-20260909-076<\/strong><br>Nivel: informativa<br>Focos: 7<br>Últimas 6 h: 0<br>FRP total: 7.3 MW<br>Última detección UTC: 2026-09-08 03:08:00"
      }
    },
    {
      "type": "Feature",
      "geometry": {
        "type": "Point",
        "coordinates": [-5.3345, 43.1389]
      },
      "properties": {
        "cluster_id": "ALERT-20260909-077",
        "alerta_operativa": "informativa",
        "score": 8.9,
        "n_focos": 4,
        "n_ultimas_6h": 0,
        "n_ultimas_24h": 0,
        "frp_total_mw": 10.6,
        "frp_max_mw": 3.5,
        "edad_min_h": 28.6,
        "ultima_deteccion_utc": "2026-09-08 02:47:00",
        "sensores": "VIIRS_NOAA20_NRT, VIIRS_SNPP_NRT",
        "satellites": "N, N20",
        "instruments": "VIIRS",
        "popup_label": "<strong>ALERT-20260909-077<\/strong><br>Nivel: informativa<br>Focos: 4<br>Últimas 6 h: 0<br>FRP total: 10.6 MW<br>Última detección UTC: 2026-09-08 02:47:00"
      }
    },
    {
      "type": "Feature",
      "geometry": {
        "type": "Point",
        "coordinates": [-3.3802, 38.7496]
      },
      "properties": {
        "cluster_id": "ALERT-20260909-078",
        "alerta_operativa": "informativa",
        "score": 8.4,
        "n_focos": 3,
        "n_ultimas_6h": 0,
        "n_ultimas_24h": 0,
        "frp_total_mw": 13.7,
        "frp_max_mw": 7,
        "edad_min_h": 30.2,
        "ultima_deteccion_utc": "2026-09-08 01:09:00",
        "sensores": "VIIRS_SNPP_NRT",
        "satellites": "N",
        "instruments": "VIIRS",
        "popup_label": "<strong>ALERT-20260909-078<\/strong><br>Nivel: informativa<br>Focos: 3<br>Últimas 6 h: 0<br>FRP total: 13.7 MW<br>Última detección UTC: 2026-09-08 01:09:00"
      }
    },
    {
      "type": "Feature",
      "geometry": {
        "type": "Point",
        "coordinates": [3.7496, 36.1797]
      },
      "properties": {
        "cluster_id": "ALERT-20260909-079",
        "alerta_operativa": "informativa",
        "score": 8.3,
        "n_focos": 4,
        "n_ultimas_6h": 0,
        "n_ultimas_24h": 0,
        "frp_total_mw": 7.8,
        "frp_max_mw": 3,
        "edad_min_h": 28.6,
        "ultima_deteccion_utc": "2026-09-08 02:49:00",
        "sensores": "VIIRS_NOAA20_NRT, VIIRS_SNPP_NRT",
        "satellites": "N, N20",
        "instruments": "VIIRS",
        "popup_label": "<strong>ALERT-20260909-079<\/strong><br>Nivel: informativa<br>Focos: 4<br>Últimas 6 h: 0<br>FRP total: 7.8 MW<br>Última detección UTC: 2026-09-08 02:49:00"
      }
    },
    {
      "type": "Feature",
      "geometry": {
        "type": "Point",
        "coordinates": [2.9634, 30.4472]
      },
      "properties": {
        "cluster_id": "ALERT-20260909-080",
        "alerta_operativa": "informativa",
        "score": 6.9,
        "n_focos": 3,
        "n_ultimas_6h": 0,
        "n_ultimas_24h": 0,
        "frp_total_mw": 5.9,
        "frp_max_mw": 3.8,
        "edad_min_h": 28.5,
        "ultima_deteccion_utc": "2026-09-08 02:51:00",
        "sensores": "VIIRS_NOAA20_NRT, VIIRS_SNPP_NRT",
        "satellites": "N, N20",
        "instruments": "VIIRS",
        "popup_label": "<strong>ALERT-20260909-080<\/strong><br>Nivel: informativa<br>Focos: 3<br>Últimas 6 h: 0<br>FRP total: 5.9 MW<br>Última detección UTC: 2026-09-08 02:51:00"
      }
    },
    {
      "type": "Feature",
      "geometry": {
        "type": "Point",
        "coordinates": [-0.2141, 38.8297]
      },
      "properties": {
        "cluster_id": "ALERT-20260909-081",
        "alerta_operativa": "informativa",
        "score": 6,
        "n_focos": 3,
        "n_ultimas_6h": 0,
        "n_ultimas_24h": 0,
        "frp_total_mw": 3.5,
        "frp_max_mw": 2,
        "edad_min_h": 28.6,
        "ultima_deteccion_utc": "2026-09-08 02:49:00",
        "sensores": "VIIRS_NOAA20_NRT, VIIRS_SNPP_NRT",
        "satellites": "N, N20",
        "instruments": "VIIRS",
        "popup_label": "<strong>ALERT-20260909-081<\/strong><br>Nivel: informativa<br>Focos: 3<br>Últimas 6 h: 0<br>FRP total: 3.5 MW<br>Última detección UTC: 2026-09-08 02:49:00"
      }
    },
    {
      "type": "Feature",
      "geometry": {
        "type": "Point",
        "coordinates": [-5.6749, 41.001]
      },
      "properties": {
        "cluster_id": "ALERT-20260909-082",
        "alerta_operativa": "informativa",
        "score": 5.9,
        "n_focos": 3,
        "n_ultimas_6h": 0,
        "n_ultimas_24h": 0,
        "frp_total_mw": 3.2,
        "frp_max_mw": 1.6,
        "edad_min_h": 28.3,
        "ultima_deteccion_utc": "2026-09-08 03:08:00",
        "sensores": "VIIRS_NOAA20_NRT",
        "satellites": "N20",
        "instruments": "VIIRS",
        "popup_label": "<strong>ALERT-20260909-082<\/strong><br>Nivel: informativa<br>Focos: 3<br>Últimas 6 h: 0<br>FRP total: 3.2 MW<br>Última detección UTC: 2026-09-08 03:08:00"
      }
    },
    {
      "type": "Feature",
      "geometry": {
        "type": "Point",
        "coordinates": [-1.9066, 36.9668]
      },
      "properties": {
        "cluster_id": "ALERT-20260909-083",
        "alerta_operativa": "informativa",
        "score": 5.3,
        "n_focos": 2,
        "n_ultimas_6h": 0,
        "n_ultimas_24h": 0,
        "frp_total_mw": 4.1,
        "frp_max_mw": 2.1,
        "edad_min_h": 28.6,
        "ultima_deteccion_utc": "2026-09-08 02:49:00",
        "sensores": "VIIRS_NOAA20_NRT, VIIRS_SNPP_NRT",
        "satellites": "N, N20",
        "instruments": "VIIRS",
        "popup_label": "<strong>ALERT-20260909-083<\/strong><br>Nivel: informativa<br>Focos: 2<br>Últimas 6 h: 0<br>FRP total: 4.1 MW<br>Última detección UTC: 2026-09-08 02:49:00"
      }
    },
    {
      "type": "Feature",
      "geometry": {
        "type": "Point",
        "coordinates": [-0.9148, 37.5718]
      },
      "properties": {
        "cluster_id": "ALERT-20260909-084",
        "alerta_operativa": "informativa",
        "score": 5,
        "n_focos": 2,
        "n_ultimas_6h": 0,
        "n_ultimas_24h": 0,
        "frp_total_mw": 3.5,
        "frp_max_mw": 2.2,
        "edad_min_h": 28.6,
        "ultima_deteccion_utc": "2026-09-08 02:49:00",
        "sensores": "VIIRS_NOAA20_NRT, VIIRS_SNPP_NRT",
        "satellites": "N, N20",
        "instruments": "VIIRS",
        "popup_label": "<strong>ALERT-20260909-084<\/strong><br>Nivel: informativa<br>Focos: 2<br>Últimas 6 h: 0<br>FRP total: 3.5 MW<br>Última detección UTC: 2026-09-08 02:49:00"
      }
    },
    {
      "type": "Feature",
      "geometry": {
        "type": "Point",
        "coordinates": [0.5404, 40.5767]
      },
      "properties": {
        "cluster_id": "ALERT-20260909-085",
        "alerta_operativa": "informativa",
        "score": 4.9,
        "n_focos": 2,
        "n_ultimas_6h": 0,
        "n_ultimas_24h": 0,
        "frp_total_mw": 3.2,
        "frp_max_mw": 2.1,
        "edad_min_h": 29.9,
        "ultima_deteccion_utc": "2026-09-08 01:28:00",
        "sensores": "VIIRS_NOAA20_NRT, VIIRS_SNPP_NRT",
        "satellites": "N, N20",
        "instruments": "VIIRS",
        "popup_label": "<strong>ALERT-20260909-085<\/strong><br>Nivel: informativa<br>Focos: 2<br>Últimas 6 h: 0<br>FRP total: 3.2 MW<br>Última detección UTC: 2026-09-08 01:28:00"
      }
    },
    {
      "type": "Feature",
      "geometry": {
        "type": "Point",
        "coordinates": [-5.699, 38.2418]
      },
      "properties": {
        "cluster_id": "ALERT-20260909-086",
        "alerta_operativa": "informativa",
        "score": 4,
        "n_focos": 1,
        "n_ultimas_6h": 0,
        "n_ultimas_24h": 0,
        "frp_total_mw": 3.4,
        "frp_max_mw": 3.4,
        "edad_min_h": 29.9,
        "ultima_deteccion_utc": "2026-09-08 01:28:00",
        "sensores": "VIIRS_NOAA20_NRT",
        "satellites": "N20",
        "instruments": "VIIRS",
        "popup_label": "<strong>ALERT-20260909-086<\/strong><br>Nivel: informativa<br>Focos: 1<br>Últimas 6 h: 0<br>FRP total: 3.4 MW<br>Última detección UTC: 2026-09-08 01:28:00"
      }
    },
    {
      "type": "Feature",
      "geometry": {
        "type": "Point",
        "coordinates": [-6.8533, 41.8987]
      },
      "properties": {
        "cluster_id": "ALERT-20260909-087",
        "alerta_operativa": "informativa",
        "score": 3.7,
        "n_focos": 2,
        "n_ultimas_6h": 0,
        "n_ultimas_24h": 0,
        "frp_total_mw": 1.3,
        "frp_max_mw": 0.9,
        "edad_min_h": 28.3,
        "ultima_deteccion_utc": "2026-09-08 03:08:00",
        "sensores": "VIIRS_NOAA20_NRT, VIIRS_SNPP_NRT",
        "satellites": "N, N20",
        "instruments": "VIIRS",
        "popup_label": "<strong>ALERT-20260909-087<\/strong><br>Nivel: informativa<br>Focos: 2<br>Últimas 6 h: 0<br>FRP total: 1.3 MW<br>Última detección UTC: 2026-09-08 03:08:00"
      }
    },
    {
      "type": "Feature",
      "geometry": {
        "type": "Point",
        "coordinates": [-5.1626, 43.1595]
      },
      "properties": {
        "cluster_id": "ALERT-20260909-088",
        "alerta_operativa": "informativa",
        "score": 3,
        "n_focos": 1,
        "n_ultimas_6h": 0,
        "n_ultimas_24h": 0,
        "frp_total_mw": 1.7,
        "frp_max_mw": 1.7,
        "edad_min_h": 29.9,
        "ultima_deteccion_utc": "2026-09-08 01:28:00",
        "sensores": "VIIRS_NOAA20_NRT",
        "satellites": "N20",
        "instruments": "VIIRS",
        "popup_label": "<strong>ALERT-20260909-088<\/strong><br>Nivel: informativa<br>Focos: 1<br>Últimas 6 h: 0<br>FRP total: 1.7 MW<br>Última detección UTC: 2026-09-08 01:28:00"
      }
    },
    {
      "type": "Feature",
      "geometry": {
        "type": "Point",
        "coordinates": [-3.1792, 40.6688]
      },
      "properties": {
        "cluster_id": "ALERT-20260909-089",
        "alerta_operativa": "informativa",
        "score": 2.9,
        "n_focos": 1,
        "n_ultimas_6h": 0,
        "n_ultimas_24h": 0,
        "frp_total_mw": 1.6,
        "frp_max_mw": 1.6,
        "edad_min_h": 29.9,
        "ultima_deteccion_utc": "2026-09-08 01:28:00",
        "sensores": "VIIRS_NOAA20_NRT",
        "satellites": "N20",
        "instruments": "VIIRS",
        "popup_label": "<strong>ALERT-20260909-089<\/strong><br>Nivel: informativa<br>Focos: 1<br>Últimas 6 h: 0<br>FRP total: 1.6 MW<br>Última detección UTC: 2026-09-08 01:28:00"
      }
    },
    {
      "type": "Feature",
      "geometry": {
        "type": "Point",
        "coordinates": [-0.9374, 35.5687]
      },
      "properties": {
        "cluster_id": "ALERT-20260909-090",
        "alerta_operativa": "informativa",
        "score": 2.7,
        "n_focos": 1,
        "n_ultimas_6h": 0,
        "n_ultimas_24h": 0,
        "frp_total_mw": 1.3,
        "frp_max_mw": 1.3,
        "edad_min_h": 29.9,
        "ultima_deteccion_utc": "2026-09-08 01:30:00",
        "sensores": "VIIRS_NOAA20_NRT",
        "satellites": "N20",
        "instruments": "VIIRS",
        "popup_label": "<strong>ALERT-20260909-090<\/strong><br>Nivel: informativa<br>Focos: 1<br>Últimas 6 h: 0<br>FRP total: 1.3 MW<br>Última detección UTC: 2026-09-08 01:30:00"
      }
    },
    {
      "type": "Feature",
      "geometry": {
        "type": "Point",
        "coordinates": [-8.4192, 40.2893]
      },
      "properties": {
        "cluster_id": "ALERT-20260909-091",
        "alerta_operativa": "informativa",
        "score": 2.5,
        "n_focos": 1,
        "n_ultimas_6h": 0,
        "n_ultimas_24h": 0,
        "frp_total_mw": 1.1,
        "frp_max_mw": 1.1,
        "edad_min_h": 28.6,
        "ultima_deteccion_utc": "2026-09-08 02:49:00",
        "sensores": "VIIRS_SNPP_NRT",
        "satellites": "N",
        "instruments": "VIIRS",
        "popup_label": "<strong>ALERT-20260909-091<\/strong><br>Nivel: informativa<br>Focos: 1<br>Últimas 6 h: 0<br>FRP total: 1.1 MW<br>Última detección UTC: 2026-09-08 02:49:00"
      }
    },
    {
      "type": "Feature",
      "geometry": {
        "type": "Point",
        "coordinates": [-8.7973, 37.9531]
      },
      "properties": {
        "cluster_id": "ALERT-20260909-092",
        "alerta_operativa": "informativa",
        "score": 2.2,
        "n_focos": 1,
        "n_ultimas_6h": 0,
        "n_ultimas_24h": 0,
        "frp_total_mw": 0.8,
        "frp_max_mw": 0.8,
        "edad_min_h": 28.2,
        "ultima_deteccion_utc": "2026-09-08 03:10:00",
        "sensores": "VIIRS_NOAA20_NRT",
        "satellites": "N20",
        "instruments": "VIIRS",
        "popup_label": "<strong>ALERT-20260909-092<\/strong><br>Nivel: informativa<br>Focos: 1<br>Últimas 6 h: 0<br>FRP total: 0.8 MW<br>Última detección UTC: 2026-09-08 03:10:00"
      }
    },
    {
      "type": "Feature",
      "geometry": {
        "type": "Point",
        "coordinates": [1.3533, 35.3391]
      },
      "properties": {
        "cluster_id": "ALERT-20260909-093",
        "alerta_operativa": "informativa",
        "score": 1.8,
        "n_focos": 1,
        "n_ultimas_6h": 0,
        "n_ultimas_24h": 0,
        "frp_total_mw": 0.5,
        "frp_max_mw": 0.5,
        "edad_min_h": 29.9,
        "ultima_deteccion_utc": "2026-09-08 01:30:00",
        "sensores": "VIIRS_NOAA20_NRT",
        "satellites": "N20",
        "instruments": "VIIRS",
        "popup_label": "<strong>ALERT-20260909-093<\/strong><br>Nivel: informativa<br>Focos: 1<br>Últimas 6 h: 0<br>FRP total: 0.5 MW<br>Última detección UTC: 2026-09-08 01:30:00"
      }
    },
    {
      "type": "Feature",
      "geometry": {
        "type": "Point",
        "coordinates": [-6.3016, 43.0989]
      },
      "properties": {
        "cluster_id": "ALERT-20260909-094",
        "alerta_operativa": "informativa",
        "score": 1.5,
        "n_focos": 1,
        "n_ultimas_6h": 0,
        "n_ultimas_24h": 0,
        "frp_total_mw": 0.3,
        "frp_max_mw": 0.3,
        "edad_min_h": 28.6,
        "ultima_deteccion_utc": "2026-09-08 02:47:00",
        "sensores": "VIIRS_SNPP_NRT",
        "satellites": "N",
        "instruments": "VIIRS",
        "popup_label": "<strong>ALERT-20260909-094<\/strong><br>Nivel: informativa<br>Focos: 1<br>Últimas 6 h: 0<br>FRP total: 0.3 MW<br>Última detección UTC: 2026-09-08 02:47:00"
      }
    }
  ]
}
