{
  "type": "FeatureCollection",
  "features": [
    {
      "type": "Feature",
      "geometry": {
        "type": "Point",
        "coordinates": [3.2231, 32.9067]
      },
      "properties": {
        "cluster_id": "ALERT-20260911-001",
        "alerta_operativa": "alta",
        "score": 166.5,
        "n_focos": 20,
        "n_ultimas_6h": 20,
        "n_ultimas_24h": 20,
        "frp_total_mw": 25.1,
        "frp_max_mw": 2.4,
        "edad_min_h": 5.2,
        "ultima_deteccion_utc": "2026-09-11 02:13:00",
        "sensores": "VIIRS_NOAA20_NRT, VIIRS_SNPP_NRT",
        "satellites": "N, N20",
        "instruments": "VIIRS",
        "popup_label": "<strong>ALERT-20260911-001<\/strong><br>Nivel: alta<br>Focos: 20<br>Últimas 6 h: 20<br>FRP total: 25.1 MW<br>Última detección UTC: 2026-09-11 02:13:00"
      }
    },
    {
      "type": "Feature",
      "geometry": {
        "type": "Point",
        "coordinates": [4.8864, 43.442]
      },
      "properties": {
        "cluster_id": "ALERT-20260911-002",
        "alerta_operativa": "alta",
        "score": 159.3,
        "n_focos": 35,
        "n_ultimas_6h": 14,
        "n_ultimas_24h": 23,
        "frp_total_mw": 63.4,
        "frp_max_mw": 4.6,
        "edad_min_h": 5.2,
        "ultima_deteccion_utc": "2026-09-11 02:11:00",
        "sensores": "VIIRS_NOAA20_NRT, VIIRS_SNPP_NRT",
        "satellites": "N, N20",
        "instruments": "VIIRS",
        "popup_label": "<strong>ALERT-20260911-002<\/strong><br>Nivel: alta<br>Focos: 35<br>Últimas 6 h: 14<br>FRP total: 63.4 MW<br>Última detección UTC: 2026-09-11 02:11:00"
      }
    },
    {
      "type": "Feature",
      "geometry": {
        "type": "Point",
        "coordinates": [3.3328, 33.1199]
      },
      "properties": {
        "cluster_id": "ALERT-20260911-003",
        "alerta_operativa": "alta",
        "score": 101,
        "n_focos": 12,
        "n_ultimas_6h": 12,
        "n_ultimas_24h": 12,
        "frp_total_mw": 11.1,
        "frp_max_mw": 2.2,
        "edad_min_h": 5.2,
        "ultima_deteccion_utc": "2026-09-11 02:13:00",
        "sensores": "VIIRS_NOAA20_NRT, VIIRS_SNPP_NRT",
        "satellites": "N, N20",
        "instruments": "VIIRS",
        "popup_label": "<strong>ALERT-20260911-003<\/strong><br>Nivel: alta<br>Focos: 12<br>Últimas 6 h: 12<br>FRP total: 11.1 MW<br>Última detección UTC: 2026-09-11 02:13:00"
      }
    },
    {
      "type": "Feature",
      "geometry": {
        "type": "Point",
        "coordinates": [-0.2673, 35.811]
      },
      "properties": {
        "cluster_id": "ALERT-20260911-004",
        "alerta_operativa": "alta",
        "score": 74.7,
        "n_focos": 11,
        "n_ultimas_6h": 7,
        "n_ultimas_24h": 11,
        "frp_total_mw": 27,
        "frp_max_mw": 6.8,
        "edad_min_h": 5.2,
        "ultima_deteccion_utc": "2026-09-11 02:13:00",
        "sensores": "VIIRS_NOAA20_NRT, VIIRS_SNPP_NRT",
        "satellites": "N, N20",
        "instruments": "VIIRS",
        "popup_label": "<strong>ALERT-20260911-004<\/strong><br>Nivel: alta<br>Focos: 11<br>Últimas 6 h: 7<br>FRP total: 27 MW<br>Última detección UTC: 2026-09-11 02:13:00"
      }
    },
    {
      "type": "Feature",
      "geometry": {
        "type": "Point",
        "coordinates": [-0.7642, 41.676]
      },
      "properties": {
        "cluster_id": "ALERT-20260911-005",
        "alerta_operativa": "alta",
        "score": 62,
        "n_focos": 9,
        "n_ultimas_6h": 5,
        "n_ultimas_24h": 9,
        "frp_total_mw": 144.2,
        "frp_max_mw": 25.3,
        "edad_min_h": 5.2,
        "ultima_deteccion_utc": "2026-09-11 02:11:00",
        "sensores": "VIIRS_NOAA20_NRT, VIIRS_SNPP_NRT",
        "satellites": "N, N20",
        "instruments": "VIIRS",
        "popup_label": "<strong>ALERT-20260911-005<\/strong><br>Nivel: alta<br>Focos: 9<br>Últimas 6 h: 5<br>FRP total: 144.2 MW<br>Última detección UTC: 2026-09-11 02:11:00"
      }
    },
    {
      "type": "Feature",
      "geometry": {
        "type": "Point",
        "coordinates": [3.1163, 36.6815]
      },
      "properties": {
        "cluster_id": "ALERT-20260911-006",
        "alerta_operativa": "alta",
        "score": 56.7,
        "n_focos": 10,
        "n_ultimas_6h": 6,
        "n_ultimas_24h": 6,
        "frp_total_mw": 9.3,
        "frp_max_mw": 2.2,
        "edad_min_h": 5.2,
        "ultima_deteccion_utc": "2026-09-11 02:13:00",
        "sensores": "VIIRS_NOAA20_NRT, VIIRS_SNPP_NRT",
        "satellites": "N, N20",
        "instruments": "VIIRS",
        "popup_label": "<strong>ALERT-20260911-006<\/strong><br>Nivel: alta<br>Focos: 10<br>Últimas 6 h: 6<br>FRP total: 9.3 MW<br>Última detección UTC: 2026-09-11 02:13:00"
      }
    },
    {
      "type": "Feature",
      "geometry": {
        "type": "Point",
        "coordinates": [-8.596, 33.1434]
      },
      "properties": {
        "cluster_id": "ALERT-20260911-007",
        "alerta_operativa": "alta",
        "score": 51.9,
        "n_focos": 6,
        "n_ultimas_6h": 6,
        "n_ultimas_24h": 6,
        "frp_total_mw": 6,
        "frp_max_mw": 1.6,
        "edad_min_h": 5.2,
        "ultima_deteccion_utc": "2026-09-11 02:13:00",
        "sensores": "VIIRS_NOAA20_NRT, VIIRS_SNPP_NRT",
        "satellites": "N, N20",
        "instruments": "VIIRS",
        "popup_label": "<strong>ALERT-20260911-007<\/strong><br>Nivel: alta<br>Focos: 6<br>Últimas 6 h: 6<br>FRP total: 6 MW<br>Última detección UTC: 2026-09-11 02:13:00"
      }
    },
    {
      "type": "Feature",
      "geometry": {
        "type": "Point",
        "coordinates": [-6.5755, 34.2799]
      },
      "properties": {
        "cluster_id": "ALERT-20260911-008",
        "alerta_operativa": "alta",
        "score": 44.8,
        "n_focos": 5,
        "n_ultimas_6h": 5,
        "n_ultimas_24h": 5,
        "frp_total_mw": 9.9,
        "frp_max_mw": 2.5,
        "edad_min_h": 5.2,
        "ultima_deteccion_utc": "2026-09-11 02:13:00",
        "sensores": "VIIRS_NOAA20_NRT, VIIRS_SNPP_NRT",
        "satellites": "N, N20",
        "instruments": "VIIRS",
        "popup_label": "<strong>ALERT-20260911-008<\/strong><br>Nivel: alta<br>Focos: 5<br>Últimas 6 h: 5<br>FRP total: 9.9 MW<br>Última detección UTC: 2026-09-11 02:13:00"
      }
    },
    {
      "type": "Feature",
      "geometry": {
        "type": "Point",
        "coordinates": [4.8908, 44.0046]
      },
      "properties": {
        "cluster_id": "ALERT-20260911-009",
        "alerta_operativa": "alta",
        "score": 43,
        "n_focos": 5,
        "n_ultimas_6h": 5,
        "n_ultimas_24h": 5,
        "frp_total_mw": 3.5,
        "frp_max_mw": 0.8,
        "edad_min_h": 5.2,
        "ultima_deteccion_utc": "2026-09-11 02:11:00",
        "sensores": "VIIRS_NOAA20_NRT, VIIRS_SNPP_NRT",
        "satellites": "N, N20",
        "instruments": "VIIRS",
        "popup_label": "<strong>ALERT-20260911-009<\/strong><br>Nivel: alta<br>Focos: 5<br>Últimas 6 h: 5<br>FRP total: 3.5 MW<br>Última detección UTC: 2026-09-11 02:11:00"
      }
    },
    {
      "type": "Feature",
      "geometry": {
        "type": "Point",
        "coordinates": [-1.9059, 36.967]
      },
      "properties": {
        "cluster_id": "ALERT-20260911-010",
        "alerta_operativa": "alta",
        "score": 38.2,
        "n_focos": 6,
        "n_ultimas_6h": 4,
        "n_ultimas_24h": 4,
        "frp_total_mw": 7,
        "frp_max_mw": 1.5,
        "edad_min_h": 5.2,
        "ultima_deteccion_utc": "2026-09-11 02:13:00",
        "sensores": "VIIRS_NOAA20_NRT, VIIRS_SNPP_NRT",
        "satellites": "N, N20",
        "instruments": "VIIRS",
        "popup_label": "<strong>ALERT-20260911-010<\/strong><br>Nivel: alta<br>Focos: 6<br>Últimas 6 h: 4<br>FRP total: 7 MW<br>Última detección UTC: 2026-09-11 02:13:00"
      }
    },
    {
      "type": "Feature",
      "geometry": {
        "type": "Point",
        "coordinates": [1.9914, 41.4259]
      },
      "properties": {
        "cluster_id": "ALERT-20260911-011",
        "alerta_operativa": "alta",
        "score": 36.4,
        "n_focos": 5,
        "n_ultimas_6h": 4,
        "n_ultimas_24h": 4,
        "frp_total_mw": 4.5,
        "frp_max_mw": 1.1,
        "edad_min_h": 5.2,
        "ultima_deteccion_utc": "2026-09-11 02:13:00",
        "sensores": "VIIRS_NOAA20_NRT, VIIRS_SNPP_NRT",
        "satellites": "N, N20",
        "instruments": "VIIRS",
        "popup_label": "<strong>ALERT-20260911-011<\/strong><br>Nivel: alta<br>Focos: 5<br>Últimas 6 h: 4<br>FRP total: 4.5 MW<br>Última detección UTC: 2026-09-11 02:13:00"
      }
    },
    {
      "type": "Feature",
      "geometry": {
        "type": "Point",
        "coordinates": [-5.7498, 43.5281]
      },
      "properties": {
        "cluster_id": "ALERT-20260911-012",
        "alerta_operativa": "alta",
        "score": 31.2,
        "n_focos": 10,
        "n_ultimas_6h": 2,
        "n_ultimas_24h": 3,
        "frp_total_mw": 12.4,
        "frp_max_mw": 2.4,
        "edad_min_h": 3.9,
        "ultima_deteccion_utc": "2026-09-11 03:32:00",
        "sensores": "VIIRS_NOAA20_NRT, VIIRS_SNPP_NRT",
        "satellites": "N, N20",
        "instruments": "VIIRS",
        "popup_label": "<strong>ALERT-20260911-012<\/strong><br>Nivel: alta<br>Focos: 10<br>Últimas 6 h: 2<br>FRP total: 12.4 MW<br>Última detección UTC: 2026-09-11 03:32:00"
      }
    },
    {
      "type": "Feature",
      "geometry": {
        "type": "Point",
        "coordinates": [-2.2194, 43.036]
      },
      "properties": {
        "cluster_id": "ALERT-20260911-013",
        "alerta_operativa": "alta",
        "score": 29.3,
        "n_focos": 5,
        "n_ultimas_6h": 3,
        "n_ultimas_24h": 3,
        "frp_total_mw": 4.3,
        "frp_max_mw": 1.1,
        "edad_min_h": 5.2,
        "ultima_deteccion_utc": "2026-09-11 02:13:00",
        "sensores": "VIIRS_NOAA20_NRT, VIIRS_SNPP_NRT",
        "satellites": "N, N20",
        "instruments": "VIIRS",
        "popup_label": "<strong>ALERT-20260911-013<\/strong><br>Nivel: alta<br>Focos: 5<br>Últimas 6 h: 3<br>FRP total: 4.3 MW<br>Última detección UTC: 2026-09-11 02:13:00"
      }
    },
    {
      "type": "Feature",
      "geometry": {
        "type": "Point",
        "coordinates": [-0.518, 28.2003]
      },
      "properties": {
        "cluster_id": "ALERT-20260911-014",
        "alerta_operativa": "alta",
        "score": 27.9,
        "n_focos": 8,
        "n_ultimas_6h": 2,
        "n_ultimas_24h": 2,
        "frp_total_mw": 18.5,
        "frp_max_mw": 3.7,
        "edad_min_h": 5.2,
        "ultima_deteccion_utc": "2026-09-11 02:15:00",
        "sensores": "VIIRS_NOAA20_NRT, VIIRS_SNPP_NRT",
        "satellites": "N, N20",
        "instruments": "VIIRS",
        "popup_label": "<strong>ALERT-20260911-014<\/strong><br>Nivel: alta<br>Focos: 8<br>Últimas 6 h: 2<br>FRP total: 18.5 MW<br>Última detección UTC: 2026-09-11 02:15:00"
      }
    },
    {
      "type": "Feature",
      "geometry": {
        "type": "Point",
        "coordinates": [-7.4584, 33.6145]
      },
      "properties": {
        "cluster_id": "ALERT-20260911-015",
        "alerta_operativa": "alta",
        "score": 26.8,
        "n_focos": 3,
        "n_ultimas_6h": 3,
        "n_ultimas_24h": 3,
        "frp_total_mw": 3.1,
        "frp_max_mw": 1.5,
        "edad_min_h": 3.9,
        "ultima_deteccion_utc": "2026-09-11 03:34:00",
        "sensores": "VIIRS_NOAA20_NRT, VIIRS_SNPP_NRT",
        "satellites": "N, N20",
        "instruments": "VIIRS",
        "popup_label": "<strong>ALERT-20260911-015<\/strong><br>Nivel: alta<br>Focos: 3<br>Últimas 6 h: 3<br>FRP total: 3.1 MW<br>Última detección UTC: 2026-09-11 03:34:00"
      }
    },
    {
      "type": "Feature",
      "geometry": {
        "type": "Point",
        "coordinates": [-0.2761, 35.5308]
      },
      "properties": {
        "cluster_id": "ALERT-20260911-016",
        "alerta_operativa": "alta",
        "score": 26.7,
        "n_focos": 3,
        "n_ultimas_6h": 3,
        "n_ultimas_24h": 3,
        "frp_total_mw": 2.9,
        "frp_max_mw": 1.8,
        "edad_min_h": 5.2,
        "ultima_deteccion_utc": "2026-09-11 02:13:00",
        "sensores": "VIIRS_NOAA20_NRT, VIIRS_SNPP_NRT",
        "satellites": "N, N20",
        "instruments": "VIIRS",
        "popup_label": "<strong>ALERT-20260911-016<\/strong><br>Nivel: alta<br>Focos: 3<br>Últimas 6 h: 3<br>FRP total: 2.9 MW<br>Última detección UTC: 2026-09-11 02:13:00"
      }
    },
    {
      "type": "Feature",
      "geometry": {
        "type": "Point",
        "coordinates": [-9.0171, 38.915]
      },
      "properties": {
        "cluster_id": "ALERT-20260911-017",
        "alerta_operativa": "alta",
        "score": 26.4,
        "n_focos": 6,
        "n_ultimas_6h": 2,
        "n_ultimas_24h": 3,
        "frp_total_mw": 8.2,
        "frp_max_mw": 2.5,
        "edad_min_h": 5.2,
        "ultima_deteccion_utc": "2026-09-11 02:13:00",
        "sensores": "VIIRS_NOAA20_NRT, VIIRS_SNPP_NRT",
        "satellites": "N, N20",
        "instruments": "VIIRS",
        "popup_label": "<strong>ALERT-20260911-017<\/strong><br>Nivel: alta<br>Focos: 6<br>Últimas 6 h: 2<br>FRP total: 8.2 MW<br>Última detección UTC: 2026-09-11 02:13:00"
      }
    },
    {
      "type": "Feature",
      "geometry": {
        "type": "Point",
        "coordinates": [-2.3471, 34.5963]
      },
      "properties": {
        "cluster_id": "ALERT-20260911-018",
        "alerta_operativa": "alta",
        "score": 21.7,
        "n_focos": 4,
        "n_ultimas_6h": 2,
        "n_ultimas_24h": 2,
        "frp_total_mw": 5.5,
        "frp_max_mw": 2.1,
        "edad_min_h": 5.2,
        "ultima_deteccion_utc": "2026-09-11 02:13:00",
        "sensores": "VIIRS_NOAA20_NRT, VIIRS_SNPP_NRT",
        "satellites": "N, N20",
        "instruments": "VIIRS",
        "popup_label": "<strong>ALERT-20260911-018<\/strong><br>Nivel: alta<br>Focos: 4<br>Últimas 6 h: 2<br>FRP total: 5.5 MW<br>Última detección UTC: 2026-09-11 02:13:00"
      }
    },
    {
      "type": "Feature",
      "geometry": {
        "type": "Point",
        "coordinates": [-1.4885, 41.4756]
      },
      "properties": {
        "cluster_id": "ALERT-20260911-019",
        "alerta_operativa": "alta",
        "score": 21.1,
        "n_focos": 4,
        "n_ultimas_6h": 2,
        "n_ultimas_24h": 2,
        "frp_total_mw": 3.7,
        "frp_max_mw": 1.3,
        "edad_min_h": 5.2,
        "ultima_deteccion_utc": "2026-09-11 02:11:00",
        "sensores": "VIIRS_NOAA20_NRT, VIIRS_SNPP_NRT",
        "satellites": "N, N20",
        "instruments": "VIIRS",
        "popup_label": "<strong>ALERT-20260911-019<\/strong><br>Nivel: alta<br>Focos: 4<br>Últimas 6 h: 2<br>FRP total: 3.7 MW<br>Última detección UTC: 2026-09-11 02:11:00"
      }
    },
    {
      "type": "Feature",
      "geometry": {
        "type": "Point",
        "coordinates": [-8.9357, 38.502]
      },
      "properties": {
        "cluster_id": "ALERT-20260911-020",
        "alerta_operativa": "alta",
        "score": 21,
        "n_focos": 4,
        "n_ultimas_6h": 2,
        "n_ultimas_24h": 2,
        "frp_total_mw": 3.4,
        "frp_max_mw": 1,
        "edad_min_h": 5.2,
        "ultima_deteccion_utc": "2026-09-11 02:13:00",
        "sensores": "VIIRS_NOAA20_NRT, VIIRS_SNPP_NRT",
        "satellites": "N, N20",
        "instruments": "VIIRS",
        "popup_label": "<strong>ALERT-20260911-020<\/strong><br>Nivel: alta<br>Focos: 4<br>Últimas 6 h: 2<br>FRP total: 3.4 MW<br>Última detección UTC: 2026-09-11 02:13:00"
      }
    },
    {
      "type": "Feature",
      "geometry": {
        "type": "Point",
        "coordinates": [-8.4192, 40.2886]
      },
      "properties": {
        "cluster_id": "ALERT-20260911-021",
        "alerta_operativa": "alta",
        "score": 21,
        "n_focos": 4,
        "n_ultimas_6h": 2,
        "n_ultimas_24h": 2,
        "frp_total_mw": 3.4,
        "frp_max_mw": 1.2,
        "edad_min_h": 5.2,
        "ultima_deteccion_utc": "2026-09-11 02:11:00",
        "sensores": "VIIRS_NOAA20_NRT, VIIRS_SNPP_NRT",
        "satellites": "N, N20",
        "instruments": "VIIRS",
        "popup_label": "<strong>ALERT-20260911-021<\/strong><br>Nivel: alta<br>Focos: 4<br>Últimas 6 h: 2<br>FRP total: 3.4 MW<br>Última detección UTC: 2026-09-11 02:11:00"
      }
    },
    {
      "type": "Feature",
      "geometry": {
        "type": "Point",
        "coordinates": [-5.7943, 37.5548]
      },
      "properties": {
        "cluster_id": "ALERT-20260911-022",
        "alerta_operativa": "alta",
        "score": 20.8,
        "n_focos": 4,
        "n_ultimas_6h": 2,
        "n_ultimas_24h": 2,
        "frp_total_mw": 3.1,
        "frp_max_mw": 1.2,
        "edad_min_h": 5.2,
        "ultima_deteccion_utc": "2026-09-11 02:13:00",
        "sensores": "VIIRS_NOAA20_NRT, VIIRS_SNPP_NRT",
        "satellites": "N, N20",
        "instruments": "VIIRS",
        "popup_label": "<strong>ALERT-20260911-022<\/strong><br>Nivel: alta<br>Focos: 4<br>Últimas 6 h: 2<br>FRP total: 3.1 MW<br>Última detección UTC: 2026-09-11 02:13:00"
      }
    },
    {
      "type": "Feature",
      "geometry": {
        "type": "Point",
        "coordinates": [3.1676, 32.5561]
      },
      "properties": {
        "cluster_id": "ALERT-20260911-023",
        "alerta_operativa": "alta",
        "score": 19.9,
        "n_focos": 2,
        "n_ultimas_6h": 2,
        "n_ultimas_24h": 2,
        "frp_total_mw": 6,
        "frp_max_mw": 3.6,
        "edad_min_h": 5.2,
        "ultima_deteccion_utc": "2026-09-11 02:13:00",
        "sensores": "VIIRS_NOAA20_NRT, VIIRS_SNPP_NRT",
        "satellites": "N, N20",
        "instruments": "VIIRS",
        "popup_label": "<strong>ALERT-20260911-023<\/strong><br>Nivel: alta<br>Focos: 2<br>Últimas 6 h: 2<br>FRP total: 6 MW<br>Última detección UTC: 2026-09-11 02:13:00"
      }
    },
    {
      "type": "Feature",
      "geometry": {
        "type": "Point",
        "coordinates": [1.8987, 30.9113]
      },
      "properties": {
        "cluster_id": "ALERT-20260911-024",
        "alerta_operativa": "alta",
        "score": 19.7,
        "n_focos": 3,
        "n_ultimas_6h": 2,
        "n_ultimas_24h": 2,
        "frp_total_mw": 2.9,
        "frp_max_mw": 1.1,
        "edad_min_h": 5.2,
        "ultima_deteccion_utc": "2026-09-11 02:13:00",
        "sensores": "VIIRS_NOAA20_NRT, VIIRS_SNPP_NRT",
        "satellites": "N, N20",
        "instruments": "VIIRS",
        "popup_label": "<strong>ALERT-20260911-024<\/strong><br>Nivel: alta<br>Focos: 3<br>Últimas 6 h: 2<br>FRP total: 2.9 MW<br>Última detección UTC: 2026-09-11 02:13:00"
      }
    },
    {
      "type": "Feature",
      "geometry": {
        "type": "Point",
        "coordinates": [1.243, 36.1283]
      },
      "properties": {
        "cluster_id": "ALERT-20260911-025",
        "alerta_operativa": "alta",
        "score": 19.3,
        "n_focos": 2,
        "n_ultimas_6h": 2,
        "n_ultimas_24h": 2,
        "frp_total_mw": 4.2,
        "frp_max_mw": 2.5,
        "edad_min_h": 5.2,
        "ultima_deteccion_utc": "2026-09-11 02:13:00",
        "sensores": "VIIRS_NOAA20_NRT, VIIRS_SNPP_NRT",
        "satellites": "N, N20",
        "instruments": "VIIRS",
        "popup_label": "<strong>ALERT-20260911-025<\/strong><br>Nivel: alta<br>Focos: 2<br>Últimas 6 h: 2<br>FRP total: 4.2 MW<br>Última detección UTC: 2026-09-11 02:13:00"
      }
    },
    {
      "type": "Feature",
      "geometry": {
        "type": "Point",
        "coordinates": [-6.7691, 42.5525]
      },
      "properties": {
        "cluster_id": "ALERT-20260911-026",
        "alerta_operativa": "alta",
        "score": 19.3,
        "n_focos": 3,
        "n_ultimas_6h": 2,
        "n_ultimas_24h": 2,
        "frp_total_mw": 2.2,
        "frp_max_mw": 1,
        "edad_min_h": 5.2,
        "ultima_deteccion_utc": "2026-09-11 02:11:00",
        "sensores": "VIIRS_NOAA20_NRT, VIIRS_SNPP_NRT",
        "satellites": "N, N20",
        "instruments": "VIIRS",
        "popup_label": "<strong>ALERT-20260911-026<\/strong><br>Nivel: alta<br>Focos: 3<br>Últimas 6 h: 2<br>FRP total: 2.2 MW<br>Última detección UTC: 2026-09-11 02:11:00"
      }
    },
    {
      "type": "Feature",
      "geometry": {
        "type": "Point",
        "coordinates": [-0.8918, 37.765]
      },
      "properties": {
        "cluster_id": "ALERT-20260911-027",
        "alerta_operativa": "alta",
        "score": 18.6,
        "n_focos": 2,
        "n_ultimas_6h": 2,
        "n_ultimas_24h": 2,
        "frp_total_mw": 2.7,
        "frp_max_mw": 2,
        "edad_min_h": 5.2,
        "ultima_deteccion_utc": "2026-09-11 02:13:00",
        "sensores": "VIIRS_NOAA20_NRT, VIIRS_SNPP_NRT",
        "satellites": "N, N20",
        "instruments": "VIIRS",
        "popup_label": "<strong>ALERT-20260911-027<\/strong><br>Nivel: alta<br>Focos: 2<br>Últimas 6 h: 2<br>FRP total: 2.7 MW<br>Última detección UTC: 2026-09-11 02:13:00"
      }
    },
    {
      "type": "Feature",
      "geometry": {
        "type": "Point",
        "coordinates": [-8.4881, 32.3754]
      },
      "properties": {
        "cluster_id": "ALERT-20260911-028",
        "alerta_operativa": "alta",
        "score": 18.4,
        "n_focos": 2,
        "n_ultimas_6h": 2,
        "n_ultimas_24h": 2,
        "frp_total_mw": 2.3,
        "frp_max_mw": 1.2,
        "edad_min_h": 5.2,
        "ultima_deteccion_utc": "2026-09-11 02:13:00",
        "sensores": "VIIRS_NOAA20_NRT, VIIRS_SNPP_NRT",
        "satellites": "N, N20",
        "instruments": "VIIRS",
        "popup_label": "<strong>ALERT-20260911-028<\/strong><br>Nivel: alta<br>Focos: 2<br>Últimas 6 h: 2<br>FRP total: 2.3 MW<br>Última detección UTC: 2026-09-11 02:13:00"
      }
    },
    {
      "type": "Feature",
      "geometry": {
        "type": "Point",
        "coordinates": [-0.9394, 35.5671]
      },
      "properties": {
        "cluster_id": "ALERT-20260911-029",
        "alerta_operativa": "alta",
        "score": 18.4,
        "n_focos": 2,
        "n_ultimas_6h": 2,
        "n_ultimas_24h": 2,
        "frp_total_mw": 2.3,
        "frp_max_mw": 1.4,
        "edad_min_h": 5.2,
        "ultima_deteccion_utc": "2026-09-11 02:13:00",
        "sensores": "VIIRS_NOAA20_NRT, VIIRS_SNPP_NRT",
        "satellites": "N, N20",
        "instruments": "VIIRS",
        "popup_label": "<strong>ALERT-20260911-029<\/strong><br>Nivel: alta<br>Focos: 2<br>Últimas 6 h: 2<br>FRP total: 2.3 MW<br>Última detección UTC: 2026-09-11 02:13:00"
      }
    },
    {
      "type": "Feature",
      "geometry": {
        "type": "Point",
        "coordinates": [0.1285, 36.0192]
      },
      "properties": {
        "cluster_id": "ALERT-20260911-030",
        "alerta_operativa": "alta",
        "score": 18.3,
        "n_focos": 2,
        "n_ultimas_6h": 2,
        "n_ultimas_24h": 2,
        "frp_total_mw": 2.1,
        "frp_max_mw": 1,
        "edad_min_h": 5.2,
        "ultima_deteccion_utc": "2026-09-11 02:13:00",
        "sensores": "VIIRS_NOAA20_NRT, VIIRS_SNPP_NRT",
        "satellites": "N, N20",
        "instruments": "VIIRS",
        "popup_label": "<strong>ALERT-20260911-030<\/strong><br>Nivel: alta<br>Focos: 2<br>Últimas 6 h: 2<br>FRP total: 2.1 MW<br>Última detección UTC: 2026-09-11 02:13:00"
      }
    },
    {
      "type": "Feature",
      "geometry": {
        "type": "Point",
        "coordinates": [0.3304, 34.7993]
      },
      "properties": {
        "cluster_id": "ALERT-20260911-031",
        "alerta_operativa": "alta",
        "score": 18.2,
        "n_focos": 2,
        "n_ultimas_6h": 2,
        "n_ultimas_24h": 2,
        "frp_total_mw": 2,
        "frp_max_mw": 1,
        "edad_min_h": 5.2,
        "ultima_deteccion_utc": "2026-09-11 02:13:00",
        "sensores": "VIIRS_NOAA20_NRT, VIIRS_SNPP_NRT",
        "satellites": "N, N20",
        "instruments": "VIIRS",
        "popup_label": "<strong>ALERT-20260911-031<\/strong><br>Nivel: alta<br>Focos: 2<br>Últimas 6 h: 2<br>FRP total: 2 MW<br>Última detección UTC: 2026-09-11 02:13:00"
      }
    },
    {
      "type": "Feature",
      "geometry": {
        "type": "Point",
        "coordinates": [-0.3956, 35.4607]
      },
      "properties": {
        "cluster_id": "ALERT-20260911-032",
        "alerta_operativa": "alta",
        "score": 18.2,
        "n_focos": 2,
        "n_ultimas_6h": 2,
        "n_ultimas_24h": 2,
        "frp_total_mw": 2,
        "frp_max_mw": 1.4,
        "edad_min_h": 5.2,
        "ultima_deteccion_utc": "2026-09-11 02:13:00",
        "sensores": "VIIRS_NOAA20_NRT, VIIRS_SNPP_NRT",
        "satellites": "N, N20",
        "instruments": "VIIRS",
        "popup_label": "<strong>ALERT-20260911-032<\/strong><br>Nivel: alta<br>Focos: 2<br>Últimas 6 h: 2<br>FRP total: 2 MW<br>Última detección UTC: 2026-09-11 02:13:00"
      }
    },
    {
      "type": "Feature",
      "geometry": {
        "type": "Point",
        "coordinates": [1.3558, 35.3404]
      },
      "properties": {
        "cluster_id": "ALERT-20260911-033",
        "alerta_operativa": "alta",
        "score": 17.7,
        "n_focos": 2,
        "n_ultimas_6h": 2,
        "n_ultimas_24h": 2,
        "frp_total_mw": 1.3,
        "frp_max_mw": 0.7,
        "edad_min_h": 5.2,
        "ultima_deteccion_utc": "2026-09-11 02:13:00",
        "sensores": "VIIRS_NOAA20_NRT, VIIRS_SNPP_NRT",
        "satellites": "N, N20",
        "instruments": "VIIRS",
        "popup_label": "<strong>ALERT-20260911-033<\/strong><br>Nivel: alta<br>Focos: 2<br>Últimas 6 h: 2<br>FRP total: 1.3 MW<br>Última detección UTC: 2026-09-11 02:13:00"
      }
    },
    {
      "type": "Feature",
      "geometry": {
        "type": "Point",
        "coordinates": [1.2273, 43.9871]
      },
      "properties": {
        "cluster_id": "ALERT-20260911-034",
        "alerta_operativa": "alta",
        "score": 17.6,
        "n_focos": 2,
        "n_ultimas_6h": 2,
        "n_ultimas_24h": 2,
        "frp_total_mw": 1.2,
        "frp_max_mw": 0.6,
        "edad_min_h": 5.2,
        "ultima_deteccion_utc": "2026-09-11 02:11:00",
        "sensores": "VIIRS_NOAA20_NRT, VIIRS_SNPP_NRT",
        "satellites": "N, N20",
        "instruments": "VIIRS",
        "popup_label": "<strong>ALERT-20260911-034<\/strong><br>Nivel: alta<br>Focos: 2<br>Últimas 6 h: 2<br>FRP total: 1.2 MW<br>Última detección UTC: 2026-09-11 02:11:00"
      }
    },
    {
      "type": "Feature",
      "geometry": {
        "type": "Point",
        "coordinates": [-5.8391, 38.9262]
      },
      "properties": {
        "cluster_id": "ALERT-20260911-035",
        "alerta_operativa": "alta",
        "score": 17.6,
        "n_focos": 2,
        "n_ultimas_6h": 2,
        "n_ultimas_24h": 2,
        "frp_total_mw": 1.2,
        "frp_max_mw": 0.7,
        "edad_min_h": 5.2,
        "ultima_deteccion_utc": "2026-09-11 02:11:00",
        "sensores": "VIIRS_NOAA20_NRT",
        "satellites": "N20",
        "instruments": "VIIRS",
        "popup_label": "<strong>ALERT-20260911-035<\/strong><br>Nivel: alta<br>Focos: 2<br>Últimas 6 h: 2<br>FRP total: 1.2 MW<br>Última detección UTC: 2026-09-11 02:11:00"
      }
    },
    {
      "type": "Feature",
      "geometry": {
        "type": "Point",
        "coordinates": [3.9878, 32.2761]
      },
      "properties": {
        "cluster_id": "ALERT-20260911-036",
        "alerta_operativa": "media",
        "score": 41.8,
        "n_focos": 11,
        "n_ultimas_6h": 0,
        "n_ultimas_24h": 11,
        "frp_total_mw": 79.9,
        "frp_max_mw": 19.6,
        "edad_min_h": 6.8,
        "ultima_deteccion_utc": "2026-09-11 00:35:00",
        "sensores": "VIIRS_NOAA20_NRT, VIIRS_SNPP_NRT",
        "satellites": "N, N20",
        "instruments": "VIIRS",
        "popup_label": "<strong>ALERT-20260911-036<\/strong><br>Nivel: media<br>Focos: 11<br>Últimas 6 h: 0<br>FRP total: 79.9 MW<br>Última detección UTC: 2026-09-11 00:35:00"
      }
    },
    {
      "type": "Feature",
      "geometry": {
        "type": "Point",
        "coordinates": [-7.7001, 37.383]
      },
      "properties": {
        "cluster_id": "ALERT-20260911-037",
        "alerta_operativa": "media",
        "score": 20.9,
        "n_focos": 5,
        "n_ultimas_6h": 0,
        "n_ultimas_24h": 5,
        "frp_total_mw": 17.9,
        "frp_max_mw": 5.2,
        "edad_min_h": 17.9,
        "ultima_deteccion_utc": "2026-09-10 13:33:00",
        "sensores": "VIIRS_SNPP_NRT",
        "satellites": "N",
        "instruments": "VIIRS",
        "popup_label": "<strong>ALERT-20260911-037<\/strong><br>Nivel: media<br>Focos: 5<br>Últimas 6 h: 0<br>FRP total: 17.9 MW<br>Última detección UTC: 2026-09-10 13:33:00"
      }
    },
    {
      "type": "Feature",
      "geometry": {
        "type": "Point",
        "coordinates": [-0.1598, 28.213]
      },
      "properties": {
        "cluster_id": "ALERT-20260911-038",
        "alerta_operativa": "media",
        "score": 14.8,
        "n_focos": 4,
        "n_ultimas_6h": 1,
        "n_ultimas_24h": 1,
        "frp_total_mw": 5.7,
        "frp_max_mw": 2.4,
        "edad_min_h": 5.5,
        "ultima_deteccion_utc": "2026-09-11 01:56:00",
        "sensores": "VIIRS_NOAA20_NRT, VIIRS_SNPP_NRT",
        "satellites": "N, N20",
        "instruments": "VIIRS",
        "popup_label": "<strong>ALERT-20260911-038<\/strong><br>Nivel: media<br>Focos: 4<br>Últimas 6 h: 1<br>FRP total: 5.7 MW<br>Última detección UTC: 2026-09-11 01:56:00"
      }
    },
    {
      "type": "Feature",
      "geometry": {
        "type": "Point",
        "coordinates": [2.879, 36.5968]
      },
      "properties": {
        "cluster_id": "ALERT-20260911-039",
        "alerta_operativa": "media",
        "score": 14.1,
        "n_focos": 4,
        "n_ultimas_6h": 1,
        "n_ultimas_24h": 1,
        "frp_total_mw": 3.8,
        "frp_max_mw": 1.2,
        "edad_min_h": 5.5,
        "ultima_deteccion_utc": "2026-09-11 01:54:00",
        "sensores": "VIIRS_NOAA20_NRT, VIIRS_SNPP_NRT",
        "satellites": "N, N20",
        "instruments": "VIIRS",
        "popup_label": "<strong>ALERT-20260911-039<\/strong><br>Nivel: media<br>Focos: 4<br>Últimas 6 h: 1<br>FRP total: 3.8 MW<br>Última detección UTC: 2026-09-11 01:54:00"
      }
    },
    {
      "type": "Feature",
      "geometry": {
        "type": "Point",
        "coordinates": [0.5199, 40.6056]
      },
      "properties": {
        "cluster_id": "ALERT-20260911-040",
        "alerta_operativa": "media",
        "score": 13.9,
        "n_focos": 4,
        "n_ultimas_6h": 0,
        "n_ultimas_24h": 2,
        "frp_total_mw": 17.7,
        "frp_max_mw": 8.1,
        "edad_min_h": 19.5,
        "ultima_deteccion_utc": "2026-09-10 11:53:00",
        "sensores": "VIIRS_NOAA20_NRT, VIIRS_SNPP_NRT",
        "satellites": "N, N20",
        "instruments": "VIIRS",
        "popup_label": "<strong>ALERT-20260911-040<\/strong><br>Nivel: media<br>Focos: 4<br>Últimas 6 h: 0<br>FRP total: 17.7 MW<br>Última detección UTC: 2026-09-10 11:53:00"
      }
    },
    {
      "type": "Feature",
      "geometry": {
        "type": "Point",
        "coordinates": [-5.8967, 37.3959]
      },
      "properties": {
        "cluster_id": "ALERT-20260911-041",
        "alerta_operativa": "media",
        "score": 13.8,
        "n_focos": 4,
        "n_ultimas_6h": 1,
        "n_ultimas_24h": 1,
        "frp_total_mw": 3.1,
        "frp_max_mw": 0.9,
        "edad_min_h": 5.2,
        "ultima_deteccion_utc": "2026-09-11 02:13:00",
        "sensores": "VIIRS_NOAA20_NRT, VIIRS_SNPP_NRT",
        "satellites": "N, N20",
        "instruments": "VIIRS",
        "popup_label": "<strong>ALERT-20260911-041<\/strong><br>Nivel: media<br>Focos: 4<br>Últimas 6 h: 1<br>FRP total: 3.1 MW<br>Última detección UTC: 2026-09-11 02:13:00"
      }
    },
    {
      "type": "Feature",
      "geometry": {
        "type": "Point",
        "coordinates": [-0.5456, 38.3762]
      },
      "properties": {
        "cluster_id": "ALERT-20260911-042",
        "alerta_operativa": "media",
        "score": 12.8,
        "n_focos": 3,
        "n_ultimas_6h": 1,
        "n_ultimas_24h": 1,
        "frp_total_mw": 3,
        "frp_max_mw": 1.1,
        "edad_min_h": 5.2,
        "ultima_deteccion_utc": "2026-09-11 02:11:00",
        "sensores": "VIIRS_NOAA20_NRT, VIIRS_SNPP_NRT",
        "satellites": "N, N20",
        "instruments": "VIIRS",
        "popup_label": "<strong>ALERT-20260911-042<\/strong><br>Nivel: media<br>Focos: 3<br>Últimas 6 h: 1<br>FRP total: 3 MW<br>Última detección UTC: 2026-09-11 02:11:00"
      }
    },
    {
      "type": "Feature",
      "geometry": {
        "type": "Point",
        "coordinates": [-9.0779, 38.6292]
      },
      "properties": {
        "cluster_id": "ALERT-20260911-043",
        "alerta_operativa": "media",
        "score": 12.6,
        "n_focos": 3,
        "n_ultimas_6h": 1,
        "n_ultimas_24h": 1,
        "frp_total_mw": 2.6,
        "frp_max_mw": 0.9,
        "edad_min_h": 3.9,
        "ultima_deteccion_utc": "2026-09-11 03:34:00",
        "sensores": "VIIRS_NOAA20_NRT, VIIRS_SNPP_NRT",
        "satellites": "N, N20",
        "instruments": "VIIRS",
        "popup_label": "<strong>ALERT-20260911-043<\/strong><br>Nivel: media<br>Focos: 3<br>Últimas 6 h: 1<br>FRP total: 2.6 MW<br>Última detección UTC: 2026-09-11 03:34:00"
      }
    },
    {
      "type": "Feature",
      "geometry": {
        "type": "Point",
        "coordinates": [-8.9075, 39.6867]
      },
      "properties": {
        "cluster_id": "ALERT-20260911-044",
        "alerta_operativa": "media",
        "score": 12.6,
        "n_focos": 3,
        "n_ultimas_6h": 1,
        "n_ultimas_24h": 1,
        "frp_total_mw": 2.6,
        "frp_max_mw": 1,
        "edad_min_h": 5.5,
        "ultima_deteccion_utc": "2026-09-11 01:54:00",
        "sensores": "VIIRS_NOAA20_NRT, VIIRS_SNPP_NRT",
        "satellites": "N, N20",
        "instruments": "VIIRS",
        "popup_label": "<strong>ALERT-20260911-044<\/strong><br>Nivel: media<br>Focos: 3<br>Últimas 6 h: 1<br>FRP total: 2.6 MW<br>Última detección UTC: 2026-09-11 01:54:00"
      }
    },
    {
      "type": "Feature",
      "geometry": {
        "type": "Point",
        "coordinates": [-6.2742, 34.9068]
      },
      "properties": {
        "cluster_id": "ALERT-20260911-045",
        "alerta_operativa": "media",
        "score": 12.5,
        "n_focos": 2,
        "n_ultimas_6h": 0,
        "n_ultimas_24h": 2,
        "frp_total_mw": 24.3,
        "frp_max_mw": 14.3,
        "edad_min_h": 17.5,
        "ultima_deteccion_utc": "2026-09-10 13:53:00",
        "sensores": "VIIRS_NOAA20_NRT, VIIRS_SNPP_NRT",
        "satellites": "N, N20",
        "instruments": "VIIRS",
        "popup_label": "<strong>ALERT-20260911-045<\/strong><br>Nivel: media<br>Focos: 2<br>Últimas 6 h: 0<br>FRP total: 24.3 MW<br>Última detección UTC: 2026-09-10 13:53:00"
      }
    },
    {
      "type": "Feature",
      "geometry": {
        "type": "Point",
        "coordinates": [2.929, 36.1397]
      },
      "properties": {
        "cluster_id": "ALERT-20260911-046",
        "alerta_operativa": "media",
        "score": 11.8,
        "n_focos": 3,
        "n_ultimas_6h": 1,
        "n_ultimas_24h": 1,
        "frp_total_mw": 1.4,
        "frp_max_mw": 0.5,
        "edad_min_h": 5.5,
        "ultima_deteccion_utc": "2026-09-11 01:54:00",
        "sensores": "VIIRS_NOAA20_NRT, VIIRS_SNPP_NRT",
        "satellites": "N, N20",
        "instruments": "VIIRS",
        "popup_label": "<strong>ALERT-20260911-046<\/strong><br>Nivel: media<br>Focos: 3<br>Últimas 6 h: 1<br>FRP total: 1.4 MW<br>Última detección UTC: 2026-09-11 01:54:00"
      }
    },
    {
      "type": "Feature",
      "geometry": {
        "type": "Point",
        "coordinates": [0.5412, 35.7848]
      },
      "properties": {
        "cluster_id": "ALERT-20260911-047",
        "alerta_operativa": "media",
        "score": 11.4,
        "n_focos": 2,
        "n_ultimas_6h": 1,
        "n_ultimas_24h": 1,
        "frp_total_mw": 2.3,
        "frp_max_mw": 1.4,
        "edad_min_h": 5.5,
        "ultima_deteccion_utc": "2026-09-11 01:54:00",
        "sensores": "VIIRS_SNPP_NRT",
        "satellites": "N",
        "instruments": "VIIRS",
        "popup_label": "<strong>ALERT-20260911-047<\/strong><br>Nivel: media<br>Focos: 2<br>Últimas 6 h: 1<br>FRP total: 2.3 MW<br>Última detección UTC: 2026-09-11 01:54:00"
      }
    },
    {
      "type": "Feature",
      "geometry": {
        "type": "Point",
        "coordinates": [-1.7425, 42.8143]
      },
      "properties": {
        "cluster_id": "ALERT-20260911-048",
        "alerta_operativa": "media",
        "score": 11.4,
        "n_focos": 2,
        "n_ultimas_6h": 1,
        "n_ultimas_24h": 1,
        "frp_total_mw": 2.3,
        "frp_max_mw": 1.2,
        "edad_min_h": 5.2,
        "ultima_deteccion_utc": "2026-09-11 02:13:00",
        "sensores": "VIIRS_NOAA20_NRT, VIIRS_SNPP_NRT",
        "satellites": "N, N20",
        "instruments": "VIIRS",
        "popup_label": "<strong>ALERT-20260911-048<\/strong><br>Nivel: media<br>Focos: 2<br>Últimas 6 h: 1<br>FRP total: 2.3 MW<br>Última detección UTC: 2026-09-11 02:13:00"
      }
    },
    {
      "type": "Feature",
      "geometry": {
        "type": "Point",
        "coordinates": [-5.6605, 37.3404]
      },
      "properties": {
        "cluster_id": "ALERT-20260911-049",
        "alerta_operativa": "media",
        "score": 11.2,
        "n_focos": 2,
        "n_ultimas_6h": 0,
        "n_ultimas_24h": 2,
        "frp_total_mw": 12.4,
        "frp_max_mw": 9.5,
        "edad_min_h": 17.5,
        "ultima_deteccion_utc": "2026-09-10 13:53:00",
        "sensores": "VIIRS_NOAA20_NRT, VIIRS_SNPP_NRT",
        "satellites": "N, N20",
        "instruments": "VIIRS",
        "popup_label": "<strong>ALERT-20260911-049<\/strong><br>Nivel: media<br>Focos: 2<br>Últimas 6 h: 0<br>FRP total: 12.4 MW<br>Última detección UTC: 2026-09-10 13:53:00"
      }
    },
    {
      "type": "Feature",
      "geometry": {
        "type": "Point",
        "coordinates": [0.99, 43.1855]
      },
      "properties": {
        "cluster_id": "ALERT-20260911-050",
        "alerta_operativa": "media",
        "score": 10.8,
        "n_focos": 2,
        "n_ultimas_6h": 1,
        "n_ultimas_24h": 1,
        "frp_total_mw": 1.5,
        "frp_max_mw": 0.9,
        "edad_min_h": 5.2,
        "ultima_deteccion_utc": "2026-09-11 02:13:00",
        "sensores": "VIIRS_NOAA20_NRT, VIIRS_SNPP_NRT",
        "satellites": "N, N20",
        "instruments": "VIIRS",
        "popup_label": "<strong>ALERT-20260911-050<\/strong><br>Nivel: media<br>Focos: 2<br>Últimas 6 h: 1<br>FRP total: 1.5 MW<br>Última detección UTC: 2026-09-11 02:13:00"
      }
    },
    {
      "type": "Feature",
      "geometry": {
        "type": "Point",
        "coordinates": [-6.4825, 38.3787]
      },
      "properties": {
        "cluster_id": "ALERT-20260911-051",
        "alerta_operativa": "media",
        "score": 10.6,
        "n_focos": 2,
        "n_ultimas_6h": 1,
        "n_ultimas_24h": 1,
        "frp_total_mw": 1.2,
        "frp_max_mw": 0.8,
        "edad_min_h": 5.2,
        "ultima_deteccion_utc": "2026-09-11 02:13:00",
        "sensores": "VIIRS_NOAA20_NRT",
        "satellites": "N20",
        "instruments": "VIIRS",
        "popup_label": "<strong>ALERT-20260911-051<\/strong><br>Nivel: media<br>Focos: 2<br>Últimas 6 h: 1<br>FRP total: 1.2 MW<br>Última detección UTC: 2026-09-11 02:13:00"
      }
    },
    {
      "type": "Feature",
      "geometry": {
        "type": "Point",
        "coordinates": [-5.4233, 36.1775]
      },
      "properties": {
        "cluster_id": "ALERT-20260911-052",
        "alerta_operativa": "media",
        "score": 9.7,
        "n_focos": 2,
        "n_ultimas_6h": 0,
        "n_ultimas_24h": 2,
        "frp_total_mw": 5.4,
        "frp_max_mw": 3,
        "edad_min_h": 17.5,
        "ultima_deteccion_utc": "2026-09-10 13:53:00",
        "sensores": "VIIRS_NOAA20_NRT, VIIRS_SNPP_NRT",
        "satellites": "N, N20",
        "instruments": "VIIRS",
        "popup_label": "<strong>ALERT-20260911-052<\/strong><br>Nivel: media<br>Focos: 2<br>Últimas 6 h: 0<br>FRP total: 5.4 MW<br>Última detección UTC: 2026-09-10 13:53:00"
      }
    },
    {
      "type": "Feature",
      "geometry": {
        "type": "Point",
        "coordinates": [2.0573, 34.4359]
      },
      "properties": {
        "cluster_id": "ALERT-20260911-053",
        "alerta_operativa": "media",
        "score": 9.5,
        "n_focos": 1,
        "n_ultimas_6h": 1,
        "n_ultimas_24h": 1,
        "frp_total_mw": 1.1,
        "frp_max_mw": 1.1,
        "edad_min_h": 5.5,
        "ultima_deteccion_utc": "2026-09-11 01:54:00",
        "sensores": "VIIRS_SNPP_NRT",
        "satellites": "N",
        "instruments": "VIIRS",
        "popup_label": "<strong>ALERT-20260911-053<\/strong><br>Nivel: media<br>Focos: 1<br>Últimas 6 h: 1<br>FRP total: 1.1 MW<br>Última detección UTC: 2026-09-11 01:54:00"
      }
    },
    {
      "type": "Feature",
      "geometry": {
        "type": "Point",
        "coordinates": [-4.5077, 39.9785]
      },
      "properties": {
        "cluster_id": "ALERT-20260911-054",
        "alerta_operativa": "media",
        "score": 9.4,
        "n_focos": 1,
        "n_ultimas_6h": 1,
        "n_ultimas_24h": 1,
        "frp_total_mw": 1,
        "frp_max_mw": 1,
        "edad_min_h": 5.2,
        "ultima_deteccion_utc": "2026-09-11 02:11:00",
        "sensores": "VIIRS_NOAA20_NRT",
        "satellites": "N20",
        "instruments": "VIIRS",
        "popup_label": "<strong>ALERT-20260911-054<\/strong><br>Nivel: media<br>Focos: 1<br>Últimas 6 h: 1<br>FRP total: 1 MW<br>Última detección UTC: 2026-09-11 02:11:00"
      }
    },
    {
      "type": "Feature",
      "geometry": {
        "type": "Point",
        "coordinates": [-6.1371, 32.5666]
      },
      "properties": {
        "cluster_id": "ALERT-20260911-055",
        "alerta_operativa": "media",
        "score": 9.3,
        "n_focos": 1,
        "n_ultimas_6h": 1,
        "n_ultimas_24h": 1,
        "frp_total_mw": 0.9,
        "frp_max_mw": 0.9,
        "edad_min_h": 5.2,
        "ultima_deteccion_utc": "2026-09-11 02:13:00",
        "sensores": "VIIRS_NOAA20_NRT",
        "satellites": "N20",
        "instruments": "VIIRS",
        "popup_label": "<strong>ALERT-20260911-055<\/strong><br>Nivel: media<br>Focos: 1<br>Últimas 6 h: 1<br>FRP total: 0.9 MW<br>Última detección UTC: 2026-09-11 02:13:00"
      }
    },
    {
      "type": "Feature",
      "geometry": {
        "type": "Point",
        "coordinates": [-7.5341, 33.0565]
      },
      "properties": {
        "cluster_id": "ALERT-20260911-056",
        "alerta_operativa": "media",
        "score": 9.3,
        "n_focos": 1,
        "n_ultimas_6h": 1,
        "n_ultimas_24h": 1,
        "frp_total_mw": 0.9,
        "frp_max_mw": 0.9,
        "edad_min_h": 5.2,
        "ultima_deteccion_utc": "2026-09-11 02:13:00",
        "sensores": "VIIRS_NOAA20_NRT",
        "satellites": "N20",
        "instruments": "VIIRS",
        "popup_label": "<strong>ALERT-20260911-056<\/strong><br>Nivel: media<br>Focos: 1<br>Últimas 6 h: 1<br>FRP total: 0.9 MW<br>Última detección UTC: 2026-09-11 02:13:00"
      }
    },
    {
      "type": "Feature",
      "geometry": {
        "type": "Point",
        "coordinates": [-6.9507, 33.8913]
      },
      "properties": {
        "cluster_id": "ALERT-20260911-057",
        "alerta_operativa": "media",
        "score": 9.2,
        "n_focos": 1,
        "n_ultimas_6h": 1,
        "n_ultimas_24h": 1,
        "frp_total_mw": 0.8,
        "frp_max_mw": 0.8,
        "edad_min_h": 5.2,
        "ultima_deteccion_utc": "2026-09-11 02:13:00",
        "sensores": "VIIRS_NOAA20_NRT",
        "satellites": "N20",
        "instruments": "VIIRS",
        "popup_label": "<strong>ALERT-20260911-057<\/strong><br>Nivel: media<br>Focos: 1<br>Últimas 6 h: 1<br>FRP total: 0.8 MW<br>Última detección UTC: 2026-09-11 02:13:00"
      }
    },
    {
      "type": "Feature",
      "geometry": {
        "type": "Point",
        "coordinates": [-2.7743, 43.2087]
      },
      "properties": {
        "cluster_id": "ALERT-20260911-058",
        "alerta_operativa": "media",
        "score": 9.2,
        "n_focos": 1,
        "n_ultimas_6h": 1,
        "n_ultimas_24h": 1,
        "frp_total_mw": 0.8,
        "frp_max_mw": 0.8,
        "edad_min_h": 5.2,
        "ultima_deteccion_utc": "2026-09-11 02:13:00",
        "sensores": "VIIRS_NOAA20_NRT",
        "satellites": "N20",
        "instruments": "VIIRS",
        "popup_label": "<strong>ALERT-20260911-058<\/strong><br>Nivel: media<br>Focos: 1<br>Últimas 6 h: 1<br>FRP total: 0.8 MW<br>Última detección UTC: 2026-09-11 02:13:00"
      }
    },
    {
      "type": "Feature",
      "geometry": {
        "type": "Point",
        "coordinates": [-3.9019, 40.011]
      },
      "properties": {
        "cluster_id": "ALERT-20260911-059",
        "alerta_operativa": "media",
        "score": 9.2,
        "n_focos": 1,
        "n_ultimas_6h": 1,
        "n_ultimas_24h": 1,
        "frp_total_mw": 0.8,
        "frp_max_mw": 0.8,
        "edad_min_h": 5.2,
        "ultima_deteccion_utc": "2026-09-11 02:11:00",
        "sensores": "VIIRS_NOAA20_NRT",
        "satellites": "N20",
        "instruments": "VIIRS",
        "popup_label": "<strong>ALERT-20260911-059<\/strong><br>Nivel: media<br>Focos: 1<br>Últimas 6 h: 1<br>FRP total: 0.8 MW<br>Última detección UTC: 2026-09-11 02:11:00"
      }
    },
    {
      "type": "Feature",
      "geometry": {
        "type": "Point",
        "coordinates": [-1.345, 35.3112]
      },
      "properties": {
        "cluster_id": "ALERT-20260911-060",
        "alerta_operativa": "media",
        "score": 9.1,
        "n_focos": 1,
        "n_ultimas_6h": 1,
        "n_ultimas_24h": 1,
        "frp_total_mw": 0.7,
        "frp_max_mw": 0.7,
        "edad_min_h": 5.5,
        "ultima_deteccion_utc": "2026-09-11 01:54:00",
        "sensores": "VIIRS_SNPP_NRT",
        "satellites": "N",
        "instruments": "VIIRS",
        "popup_label": "<strong>ALERT-20260911-060<\/strong><br>Nivel: media<br>Focos: 1<br>Últimas 6 h: 1<br>FRP total: 0.7 MW<br>Última detección UTC: 2026-09-11 01:54:00"
      }
    },
    {
      "type": "Feature",
      "geometry": {
        "type": "Point",
        "coordinates": [4.4786, 35.7089]
      },
      "properties": {
        "cluster_id": "ALERT-20260911-061",
        "alerta_operativa": "media",
        "score": 9.1,
        "n_focos": 1,
        "n_ultimas_6h": 1,
        "n_ultimas_24h": 1,
        "frp_total_mw": 0.7,
        "frp_max_mw": 0.7,
        "edad_min_h": 5.5,
        "ultima_deteccion_utc": "2026-09-11 01:54:00",
        "sensores": "VIIRS_SNPP_NRT",
        "satellites": "N",
        "instruments": "VIIRS",
        "popup_label": "<strong>ALERT-20260911-061<\/strong><br>Nivel: media<br>Focos: 1<br>Últimas 6 h: 1<br>FRP total: 0.7 MW<br>Última detección UTC: 2026-09-11 01:54:00"
      }
    },
    {
      "type": "Feature",
      "geometry": {
        "type": "Point",
        "coordinates": [-7.1468, 32.9877]
      },
      "properties": {
        "cluster_id": "ALERT-20260911-062",
        "alerta_operativa": "media",
        "score": 9.1,
        "n_focos": 1,
        "n_ultimas_6h": 1,
        "n_ultimas_24h": 1,
        "frp_total_mw": 0.7,
        "frp_max_mw": 0.7,
        "edad_min_h": 5.2,
        "ultima_deteccion_utc": "2026-09-11 02:13:00",
        "sensores": "VIIRS_NOAA20_NRT",
        "satellites": "N20",
        "instruments": "VIIRS",
        "popup_label": "<strong>ALERT-20260911-062<\/strong><br>Nivel: media<br>Focos: 1<br>Últimas 6 h: 1<br>FRP total: 0.7 MW<br>Última detección UTC: 2026-09-11 02:13:00"
      }
    },
    {
      "type": "Feature",
      "geometry": {
        "type": "Point",
        "coordinates": [3.7502, 36.1809]
      },
      "properties": {
        "cluster_id": "ALERT-20260911-063",
        "alerta_operativa": "media",
        "score": 9.1,
        "n_focos": 1,
        "n_ultimas_6h": 1,
        "n_ultimas_24h": 1,
        "frp_total_mw": 0.7,
        "frp_max_mw": 0.7,
        "edad_min_h": 5.2,
        "ultima_deteccion_utc": "2026-09-11 02:13:00",
        "sensores": "VIIRS_NOAA20_NRT",
        "satellites": "N20",
        "instruments": "VIIRS",
        "popup_label": "<strong>ALERT-20260911-063<\/strong><br>Nivel: media<br>Focos: 1<br>Últimas 6 h: 1<br>FRP total: 0.7 MW<br>Última detección UTC: 2026-09-11 02:13:00"
      }
    },
    {
      "type": "Feature",
      "geometry": {
        "type": "Point",
        "coordinates": [2.749, 36.4726]
      },
      "properties": {
        "cluster_id": "ALERT-20260911-064",
        "alerta_operativa": "media",
        "score": 8.9,
        "n_focos": 1,
        "n_ultimas_6h": 1,
        "n_ultimas_24h": 1,
        "frp_total_mw": 0.6,
        "frp_max_mw": 0.6,
        "edad_min_h": 5.5,
        "ultima_deteccion_utc": "2026-09-11 01:54:00",
        "sensores": "VIIRS_SNPP_NRT",
        "satellites": "N",
        "instruments": "VIIRS",
        "popup_label": "<strong>ALERT-20260911-064<\/strong><br>Nivel: media<br>Focos: 1<br>Últimas 6 h: 1<br>FRP total: 0.6 MW<br>Última detección UTC: 2026-09-11 01:54:00"
      }
    },
    {
      "type": "Feature",
      "geometry": {
        "type": "Point",
        "coordinates": [-4.3334, 36.7143]
      },
      "properties": {
        "cluster_id": "ALERT-20260911-065",
        "alerta_operativa": "media",
        "score": 8.9,
        "n_focos": 1,
        "n_ultimas_6h": 1,
        "n_ultimas_24h": 1,
        "frp_total_mw": 0.6,
        "frp_max_mw": 0.6,
        "edad_min_h": 5.2,
        "ultima_deteccion_utc": "2026-09-11 02:13:00",
        "sensores": "VIIRS_NOAA20_NRT",
        "satellites": "N20",
        "instruments": "VIIRS",
        "popup_label": "<strong>ALERT-20260911-065<\/strong><br>Nivel: media<br>Focos: 1<br>Últimas 6 h: 1<br>FRP total: 0.6 MW<br>Última detección UTC: 2026-09-11 02:13:00"
      }
    },
    {
      "type": "Feature",
      "geometry": {
        "type": "Point",
        "coordinates": [-5.843, 35.656]
      },
      "properties": {
        "cluster_id": "ALERT-20260911-066",
        "alerta_operativa": "media",
        "score": 8.8,
        "n_focos": 1,
        "n_ultimas_6h": 1,
        "n_ultimas_24h": 1,
        "frp_total_mw": 0.5,
        "frp_max_mw": 0.5,
        "edad_min_h": 5.2,
        "ultima_deteccion_utc": "2026-09-11 02:13:00",
        "sensores": "VIIRS_NOAA20_NRT",
        "satellites": "N20",
        "instruments": "VIIRS",
        "popup_label": "<strong>ALERT-20260911-066<\/strong><br>Nivel: media<br>Focos: 1<br>Últimas 6 h: 1<br>FRP total: 0.5 MW<br>Última detección UTC: 2026-09-11 02:13:00"
      }
    },
    {
      "type": "Feature",
      "geometry": {
        "type": "Point",
        "coordinates": [-9.5394, 30.3376]
      },
      "properties": {
        "cluster_id": "ALERT-20260911-067",
        "alerta_operativa": "media",
        "score": 8.7,
        "n_focos": 1,
        "n_ultimas_6h": 1,
        "n_ultimas_24h": 1,
        "frp_total_mw": 0.4,
        "frp_max_mw": 0.4,
        "edad_min_h": 5.5,
        "ultima_deteccion_utc": "2026-09-11 01:56:00",
        "sensores": "VIIRS_SNPP_NRT",
        "satellites": "N",
        "instruments": "VIIRS",
        "popup_label": "<strong>ALERT-20260911-067<\/strong><br>Nivel: media<br>Focos: 1<br>Últimas 6 h: 1<br>FRP total: 0.4 MW<br>Última detección UTC: 2026-09-11 01:56:00"
      }
    },
    {
      "type": "Feature",
      "geometry": {
        "type": "Point",
        "coordinates": [-2.4307, 36.852]
      },
      "properties": {
        "cluster_id": "ALERT-20260911-068",
        "alerta_operativa": "media",
        "score": 8.5,
        "n_focos": 1,
        "n_ultimas_6h": 1,
        "n_ultimas_24h": 1,
        "frp_total_mw": 0.3,
        "frp_max_mw": 0.3,
        "edad_min_h": 5.2,
        "ultima_deteccion_utc": "2026-09-11 02:13:00",
        "sensores": "VIIRS_NOAA20_NRT",
        "satellites": "N20",
        "instruments": "VIIRS",
        "popup_label": "<strong>ALERT-20260911-068<\/strong><br>Nivel: media<br>Focos: 1<br>Últimas 6 h: 1<br>FRP total: 0.3 MW<br>Última detección UTC: 2026-09-11 02:13:00"
      }
    },
    {
      "type": "Feature",
      "geometry": {
        "type": "Point",
        "coordinates": [3.0368, 43.4608]
      },
      "properties": {
        "cluster_id": "ALERT-20260911-069",
        "alerta_operativa": "seguimiento",
        "score": 6,
        "n_focos": 1,
        "n_ultimas_6h": 0,
        "n_ultimas_24h": 1,
        "frp_total_mw": 3.5,
        "frp_max_mw": 3.5,
        "edad_min_h": 17.5,
        "ultima_deteccion_utc": "2026-09-10 13:53:00",
        "sensores": "VIIRS_NOAA20_NRT",
        "satellites": "N20",
        "instruments": "VIIRS",
        "popup_label": "<strong>ALERT-20260911-069<\/strong><br>Nivel: seguimiento<br>Focos: 1<br>Últimas 6 h: 0<br>FRP total: 3.5 MW<br>Última detección UTC: 2026-09-10 13:53:00"
      }
    },
    {
      "type": "Feature",
      "geometry": {
        "type": "Point",
        "coordinates": [-8.8326, 31.1893]
      },
      "properties": {
        "cluster_id": "ALERT-20260911-070",
        "alerta_operativa": "seguimiento",
        "score": 5.9,
        "n_focos": 1,
        "n_ultimas_6h": 0,
        "n_ultimas_24h": 1,
        "frp_total_mw": 3.2,
        "frp_max_mw": 3.2,
        "edad_min_h": 17.5,
        "ultima_deteccion_utc": "2026-09-10 13:53:00",
        "sensores": "VIIRS_NOAA20_NRT",
        "satellites": "N20",
        "instruments": "VIIRS",
        "popup_label": "<strong>ALERT-20260911-070<\/strong><br>Nivel: seguimiento<br>Focos: 1<br>Últimas 6 h: 0<br>FRP total: 3.2 MW<br>Última detección UTC: 2026-09-10 13:53:00"
      }
    },
    {
      "type": "Feature",
      "geometry": {
        "type": "Point",
        "coordinates": [-5.2874, 33.7681]
      },
      "properties": {
        "cluster_id": "ALERT-20260911-071",
        "alerta_operativa": "seguimiento",
        "score": 5.9,
        "n_focos": 1,
        "n_ultimas_6h": 0,
        "n_ultimas_24h": 1,
        "frp_total_mw": 3.2,
        "frp_max_mw": 3.2,
        "edad_min_h": 17.5,
        "ultima_deteccion_utc": "2026-09-10 13:53:00",
        "sensores": "VIIRS_NOAA20_NRT",
        "satellites": "N20",
        "instruments": "VIIRS",
        "popup_label": "<strong>ALERT-20260911-071<\/strong><br>Nivel: seguimiento<br>Focos: 1<br>Últimas 6 h: 0<br>FRP total: 3.2 MW<br>Última detección UTC: 2026-09-10 13:53:00"
      }
    },
    {
      "type": "Feature",
      "geometry": {
        "type": "Point",
        "coordinates": [-4.2215, 34.7803]
      },
      "properties": {
        "cluster_id": "ALERT-20260911-072",
        "alerta_operativa": "seguimiento",
        "score": 5.8,
        "n_focos": 1,
        "n_ultimas_6h": 0,
        "n_ultimas_24h": 1,
        "frp_total_mw": 3,
        "frp_max_mw": 3,
        "edad_min_h": 17.5,
        "ultima_deteccion_utc": "2026-09-10 13:53:00",
        "sensores": "VIIRS_NOAA20_NRT",
        "satellites": "N20",
        "instruments": "VIIRS",
        "popup_label": "<strong>ALERT-20260911-072<\/strong><br>Nivel: seguimiento<br>Focos: 1<br>Últimas 6 h: 0<br>FRP total: 3 MW<br>Última detección UTC: 2026-09-10 13:53:00"
      }
    },
    {
      "type": "Feature",
      "geometry": {
        "type": "Point",
        "coordinates": [-8.6628, 38.5987]
      },
      "properties": {
        "cluster_id": "ALERT-20260911-073",
        "alerta_operativa": "seguimiento",
        "score": 5.3,
        "n_focos": 1,
        "n_ultimas_6h": 0,
        "n_ultimas_24h": 1,
        "frp_total_mw": 2.1,
        "frp_max_mw": 2.1,
        "edad_min_h": 17.9,
        "ultima_deteccion_utc": "2026-09-10 13:33:00",
        "sensores": "VIIRS_SNPP_NRT",
        "satellites": "N",
        "instruments": "VIIRS",
        "popup_label": "<strong>ALERT-20260911-073<\/strong><br>Nivel: seguimiento<br>Focos: 1<br>Últimas 6 h: 0<br>FRP total: 2.1 MW<br>Última detección UTC: 2026-09-10 13:33:00"
      }
    },
    {
      "type": "Feature",
      "geometry": {
        "type": "Point",
        "coordinates": [-9.2572, 39.1116]
      },
      "properties": {
        "cluster_id": "ALERT-20260911-074",
        "alerta_operativa": "seguimiento",
        "score": 5.3,
        "n_focos": 1,
        "n_ultimas_6h": 0,
        "n_ultimas_24h": 1,
        "frp_total_mw": 2.1,
        "frp_max_mw": 2.1,
        "edad_min_h": 17.9,
        "ultima_deteccion_utc": "2026-09-10 13:33:00",
        "sensores": "VIIRS_SNPP_NRT",
        "satellites": "N",
        "instruments": "VIIRS",
        "popup_label": "<strong>ALERT-20260911-074<\/strong><br>Nivel: seguimiento<br>Focos: 1<br>Últimas 6 h: 0<br>FRP total: 2.1 MW<br>Última detección UTC: 2026-09-10 13:33:00"
      }
    },
    {
      "type": "Feature",
      "geometry": {
        "type": "Point",
        "coordinates": [-5.5864, 42.6938]
      },
      "properties": {
        "cluster_id": "ALERT-20260911-075",
        "alerta_operativa": "seguimiento",
        "score": 5.2,
        "n_focos": 1,
        "n_ultimas_6h": 0,
        "n_ultimas_24h": 1,
        "frp_total_mw": 2,
        "frp_max_mw": 2,
        "edad_min_h": 17.9,
        "ultima_deteccion_utc": "2026-09-10 13:33:00",
        "sensores": "VIIRS_SNPP_NRT",
        "satellites": "N",
        "instruments": "VIIRS",
        "popup_label": "<strong>ALERT-20260911-075<\/strong><br>Nivel: seguimiento<br>Focos: 1<br>Últimas 6 h: 0<br>FRP total: 2 MW<br>Última detección UTC: 2026-09-10 13:33:00"
      }
    },
    {
      "type": "Feature",
      "geometry": {
        "type": "Point",
        "coordinates": [-8.8119, 38.9357]
      },
      "properties": {
        "cluster_id": "ALERT-20260911-076",
        "alerta_operativa": "seguimiento",
        "score": 5.1,
        "n_focos": 1,
        "n_ultimas_6h": 0,
        "n_ultimas_24h": 1,
        "frp_total_mw": 1.9,
        "frp_max_mw": 1.9,
        "edad_min_h": 17.9,
        "ultima_deteccion_utc": "2026-09-10 13:33:00",
        "sensores": "VIIRS_SNPP_NRT",
        "satellites": "N",
        "instruments": "VIIRS",
        "popup_label": "<strong>ALERT-20260911-076<\/strong><br>Nivel: seguimiento<br>Focos: 1<br>Últimas 6 h: 0<br>FRP total: 1.9 MW<br>Última detección UTC: 2026-09-10 13:33:00"
      }
    },
    {
      "type": "Feature",
      "geometry": {
        "type": "Point",
        "coordinates": [2.9886, 42.5657]
      },
      "properties": {
        "cluster_id": "ALERT-20260911-077",
        "alerta_operativa": "seguimiento",
        "score": 4.4,
        "n_focos": 1,
        "n_ultimas_6h": 0,
        "n_ultimas_24h": 1,
        "frp_total_mw": 1,
        "frp_max_mw": 1,
        "edad_min_h": 19.5,
        "ultima_deteccion_utc": "2026-09-10 11:53:00",
        "sensores": "VIIRS_SNPP_NRT",
        "satellites": "N",
        "instruments": "VIIRS",
        "popup_label": "<strong>ALERT-20260911-077<\/strong><br>Nivel: seguimiento<br>Focos: 1<br>Últimas 6 h: 0<br>FRP total: 1 MW<br>Última detección UTC: 2026-09-10 11:53:00"
      }
    },
    {
      "type": "Feature",
      "geometry": {
        "type": "Point",
        "coordinates": [-9.5996, 30.1627]
      },
      "properties": {
        "cluster_id": "ALERT-20260911-078",
        "alerta_operativa": "seguimiento",
        "score": 4.1,
        "n_focos": 1,
        "n_ultimas_6h": 0,
        "n_ultimas_24h": 1,
        "frp_total_mw": 0.7,
        "frp_max_mw": 0.7,
        "edad_min_h": 17.5,
        "ultima_deteccion_utc": "2026-09-10 13:53:00",
        "sensores": "VIIRS_NOAA20_NRT",
        "satellites": "N20",
        "instruments": "VIIRS",
        "popup_label": "<strong>ALERT-20260911-078<\/strong><br>Nivel: seguimiento<br>Focos: 1<br>Últimas 6 h: 0<br>FRP total: 0.7 MW<br>Última detección UTC: 2026-09-10 13:53:00"
      }
    },
    {
      "type": "Feature",
      "geometry": {
        "type": "Point",
        "coordinates": [-3.3745, 37.8903]
      },
      "properties": {
        "cluster_id": "ALERT-20260911-079",
        "alerta_operativa": "informativa",
        "score": 15.7,
        "n_focos": 8,
        "n_ultimas_6h": 0,
        "n_ultimas_24h": 0,
        "frp_total_mw": 45.2,
        "frp_max_mw": 10.1,
        "edad_min_h": 28.9,
        "ultima_deteccion_utc": "2026-09-10 02:32:00",
        "sensores": "VIIRS_NOAA20_NRT, VIIRS_SNPP_NRT",
        "satellites": "N, N20",
        "instruments": "VIIRS",
        "popup_label": "<strong>ALERT-20260911-079<\/strong><br>Nivel: informativa<br>Focos: 8<br>Últimas 6 h: 0<br>FRP total: 45.2 MW<br>Última detección UTC: 2026-09-10 02:32:00"
      }
    },
    {
      "type": "Feature",
      "geometry": {
        "type": "Point",
        "coordinates": [4.0039, 32.4045]
      },
      "properties": {
        "cluster_id": "ALERT-20260911-080",
        "alerta_operativa": "informativa",
        "score": 10.5,
        "n_focos": 4,
        "n_ultimas_6h": 0,
        "n_ultimas_24h": 0,
        "frp_total_mw": 25.2,
        "frp_max_mw": 6.6,
        "edad_min_h": 30.6,
        "ultima_deteccion_utc": "2026-09-10 00:52:00",
        "sensores": "VIIRS_NOAA20_NRT",
        "satellites": "N20",
        "instruments": "VIIRS",
        "popup_label": "<strong>ALERT-20260911-080<\/strong><br>Nivel: informativa<br>Focos: 4<br>Últimas 6 h: 0<br>FRP total: 25.2 MW<br>Última detección UTC: 2026-09-10 00:52:00"
      }
    },
    {
      "type": "Feature",
      "geometry": {
        "type": "Point",
        "coordinates": [1.2241, 41.1973]
      },
      "properties": {
        "cluster_id": "ALERT-20260911-081",
        "alerta_operativa": "informativa",
        "score": 7.3,
        "n_focos": 4,
        "n_ultimas_6h": 0,
        "n_ultimas_24h": 0,
        "frp_total_mw": 4.2,
        "frp_max_mw": 1.9,
        "edad_min_h": 28.9,
        "ultima_deteccion_utc": "2026-09-10 02:30:00",
        "sensores": "VIIRS_NOAA20_NRT, VIIRS_SNPP_NRT",
        "satellites": "N, N20",
        "instruments": "VIIRS",
        "popup_label": "<strong>ALERT-20260911-081<\/strong><br>Nivel: informativa<br>Focos: 4<br>Últimas 6 h: 0<br>FRP total: 4.2 MW<br>Última detección UTC: 2026-09-10 02:30:00"
      }
    },
    {
      "type": "Feature",
      "geometry": {
        "type": "Point",
        "coordinates": [-0.7712, 38.0921]
      },
      "properties": {
        "cluster_id": "ALERT-20260911-082",
        "alerta_operativa": "informativa",
        "score": 5.7,
        "n_focos": 3,
        "n_ultimas_6h": 0,
        "n_ultimas_24h": 0,
        "frp_total_mw": 2.8,
        "frp_max_mw": 1.2,
        "edad_min_h": 28.9,
        "ultima_deteccion_utc": "2026-09-10 02:32:00",
        "sensores": "VIIRS_NOAA20_NRT, VIIRS_SNPP_NRT",
        "satellites": "N, N20",
        "instruments": "VIIRS",
        "popup_label": "<strong>ALERT-20260911-082<\/strong><br>Nivel: informativa<br>Focos: 3<br>Últimas 6 h: 0<br>FRP total: 2.8 MW<br>Última detección UTC: 2026-09-10 02:32:00"
      }
    },
    {
      "type": "Feature",
      "geometry": {
        "type": "Point",
        "coordinates": [-3.3962, 35.0274]
      },
      "properties": {
        "cluster_id": "ALERT-20260911-083",
        "alerta_operativa": "informativa",
        "score": 4.1,
        "n_focos": 2,
        "n_ultimas_6h": 0,
        "n_ultimas_24h": 0,
        "frp_total_mw": 1.8,
        "frp_max_mw": 1,
        "edad_min_h": 28.9,
        "ultima_deteccion_utc": "2026-09-10 02:32:00",
        "sensores": "VIIRS_NOAA20_NRT, VIIRS_SNPP_NRT",
        "satellites": "N, N20",
        "instruments": "VIIRS",
        "popup_label": "<strong>ALERT-20260911-083<\/strong><br>Nivel: informativa<br>Focos: 2<br>Últimas 6 h: 0<br>FRP total: 1.8 MW<br>Última detección UTC: 2026-09-10 02:32:00"
      }
    },
    {
      "type": "Feature",
      "geometry": {
        "type": "Point",
        "coordinates": [-5.1118, 35.4725]
      },
      "properties": {
        "cluster_id": "ALERT-20260911-084",
        "alerta_operativa": "informativa",
        "score": 3.6,
        "n_focos": 2,
        "n_ultimas_6h": 0,
        "n_ultimas_24h": 0,
        "frp_total_mw": 1.2,
        "frp_max_mw": 0.7,
        "edad_min_h": 28.9,
        "ultima_deteccion_utc": "2026-09-10 02:32:00",
        "sensores": "VIIRS_NOAA20_NRT, VIIRS_SNPP_NRT",
        "satellites": "N, N20",
        "instruments": "VIIRS",
        "popup_label": "<strong>ALERT-20260911-084<\/strong><br>Nivel: informativa<br>Focos: 2<br>Últimas 6 h: 0<br>FRP total: 1.2 MW<br>Última detección UTC: 2026-09-10 02:32:00"
      }
    },
    {
      "type": "Feature",
      "geometry": {
        "type": "Point",
        "coordinates": [-1.2891, 38.2897]
      },
      "properties": {
        "cluster_id": "ALERT-20260911-085",
        "alerta_operativa": "informativa",
        "score": 3.1,
        "n_focos": 1,
        "n_ultimas_6h": 0,
        "n_ultimas_24h": 0,
        "frp_total_mw": 1.9,
        "frp_max_mw": 1.9,
        "edad_min_h": 28.9,
        "ultima_deteccion_utc": "2026-09-10 02:32:00",
        "sensores": "VIIRS_NOAA20_NRT",
        "satellites": "N20",
        "instruments": "VIIRS",
        "popup_label": "<strong>ALERT-20260911-085<\/strong><br>Nivel: informativa<br>Focos: 1<br>Últimas 6 h: 0<br>FRP total: 1.9 MW<br>Última detección UTC: 2026-09-10 02:32:00"
      }
    },
    {
      "type": "Feature",
      "geometry": {
        "type": "Point",
        "coordinates": [-3.6903, 38.9249]
      },
      "properties": {
        "cluster_id": "ALERT-20260911-086",
        "alerta_operativa": "informativa",
        "score": 2.9,
        "n_focos": 1,
        "n_ultimas_6h": 0,
        "n_ultimas_24h": 0,
        "frp_total_mw": 1.6,
        "frp_max_mw": 1.6,
        "edad_min_h": 28.9,
        "ultima_deteccion_utc": "2026-09-10 02:32:00",
        "sensores": "VIIRS_NOAA20_NRT",
        "satellites": "N20",
        "instruments": "VIIRS",
        "popup_label": "<strong>ALERT-20260911-086<\/strong><br>Nivel: informativa<br>Focos: 1<br>Últimas 6 h: 0<br>FRP total: 1.6 MW<br>Última detección UTC: 2026-09-10 02:32:00"
      }
    },
    {
      "type": "Feature",
      "geometry": {
        "type": "Point",
        "coordinates": [-9.1515, 30.2186]
      },
      "properties": {
        "cluster_id": "ALERT-20260911-087",
        "alerta_operativa": "informativa",
        "score": 1.9,
        "n_focos": 1,
        "n_ultimas_6h": 0,
        "n_ultimas_24h": 0,
        "frp_total_mw": 0.6,
        "frp_max_mw": 0.6,
        "edad_min_h": 28.9,
        "ultima_deteccion_utc": "2026-09-10 02:34:00",
        "sensores": "VIIRS_NOAA20_NRT",
        "satellites": "N20",
        "instruments": "VIIRS",
        "popup_label": "<strong>ALERT-20260911-087<\/strong><br>Nivel: informativa<br>Focos: 1<br>Últimas 6 h: 0<br>FRP total: 0.6 MW<br>Última detección UTC: 2026-09-10 02:34:00"
      }
    },
    {
      "type": "Feature",
      "geometry": {
        "type": "Point",
        "coordinates": [-0.9966, 41.6656]
      },
      "properties": {
        "cluster_id": "ALERT-20260911-088",
        "alerta_operativa": "informativa",
        "score": 1.7,
        "n_focos": 1,
        "n_ultimas_6h": 0,
        "n_ultimas_24h": 0,
        "frp_total_mw": 0.4,
        "frp_max_mw": 0.4,
        "edad_min_h": 29.2,
        "ultima_deteccion_utc": "2026-09-10 02:13:00",
        "sensores": "VIIRS_SNPP_NRT",
        "satellites": "N",
        "instruments": "VIIRS",
        "popup_label": "<strong>ALERT-20260911-088<\/strong><br>Nivel: informativa<br>Focos: 1<br>Últimas 6 h: 0<br>FRP total: 0.4 MW<br>Última detección UTC: 2026-09-10 02:13:00"
      }
    },
    {
      "type": "Feature",
      "geometry": {
        "type": "Point",
        "coordinates": [2.6569, 33.8716]
      },
      "properties": {
        "cluster_id": "ALERT-20260911-089",
        "alerta_operativa": "informativa",
        "score": 1.7,
        "n_focos": 1,
        "n_ultimas_6h": 0,
        "n_ultimas_24h": 0,
        "frp_total_mw": 0.4,
        "frp_max_mw": 0.4,
        "edad_min_h": 28.9,
        "ultima_deteccion_utc": "2026-09-10 02:32:00",
        "sensores": "VIIRS_NOAA20_NRT",
        "satellites": "N20",
        "instruments": "VIIRS",
        "popup_label": "<strong>ALERT-20260911-089<\/strong><br>Nivel: informativa<br>Focos: 1<br>Últimas 6 h: 0<br>FRP total: 0.4 MW<br>Última detección UTC: 2026-09-10 02:32:00"
      }
    },
    {
      "type": "Feature",
      "geometry": {
        "type": "Point",
        "coordinates": [0.6298, 27.7841]
      },
      "properties": {
        "cluster_id": "ALERT-20260911-090",
        "alerta_operativa": "informativa",
        "score": 1.5,
        "n_focos": 1,
        "n_ultimas_6h": 0,
        "n_ultimas_24h": 0,
        "frp_total_mw": 0.3,
        "frp_max_mw": 0.3,
        "edad_min_h": 28.9,
        "ultima_deteccion_utc": "2026-09-10 02:34:00",
        "sensores": "VIIRS_NOAA20_NRT",
        "satellites": "N20",
        "instruments": "VIIRS",
        "popup_label": "<strong>ALERT-20260911-090<\/strong><br>Nivel: informativa<br>Focos: 1<br>Últimas 6 h: 0<br>FRP total: 0.3 MW<br>Última detección UTC: 2026-09-10 02:34:00"
      }
    }
  ]
}
