{
  "type": "FeatureCollection",
  "features": [
    {
      "type": "Feature",
      "geometry": {
        "type": "Point",
        "coordinates": [-5.0593, 36.5184]
      },
      "properties": {
        "cluster_id": "ALERT-20260914-001",
        "alerta_operativa": "alta",
        "score": 228.5,
        "n_focos": 51,
        "n_ultimas_6h": 12,
        "n_ultimas_24h": 51,
        "frp_total_mw": 2338.9,
        "frp_max_mw": 276.3,
        "edad_min_h": 5.1,
        "ultima_deteccion_utc": "2026-09-14 02:58:00",
        "sensores": "VIIRS_NOAA20_NRT, VIIRS_SNPP_NRT",
        "satellites": "N, N20",
        "instruments": "VIIRS",
        "popup_label": "<strong>ALERT-20260914-001<\/strong><br>Nivel: alta<br>Focos: 51<br>Últimas 6 h: 12<br>FRP total: 2338.9 MW<br>Última detección UTC: 2026-09-14 02:58:00"
      }
    },
    {
      "type": "Feature",
      "geometry": {
        "type": "Point",
        "coordinates": [-0.2636, 35.8047]
      },
      "properties": {
        "cluster_id": "ALERT-20260914-002",
        "alerta_operativa": "alta",
        "score": 221.1,
        "n_focos": 64,
        "n_ultimas_6h": 14,
        "n_ultimas_24h": 38,
        "frp_total_mw": 253.5,
        "frp_max_mw": 16.8,
        "edad_min_h": 5.1,
        "ultima_deteccion_utc": "2026-09-14 02:58:00",
        "sensores": "VIIRS_NOAA20_NRT, VIIRS_SNPP_NRT",
        "satellites": "N, N20",
        "instruments": "VIIRS",
        "popup_label": "<strong>ALERT-20260914-002<\/strong><br>Nivel: alta<br>Focos: 64<br>Últimas 6 h: 14<br>FRP total: 253.5 MW<br>Última detección UTC: 2026-09-14 02:58:00"
      }
    },
    {
      "type": "Feature",
      "geometry": {
        "type": "Point",
        "coordinates": [-5.6818, 40.2243]
      },
      "properties": {
        "cluster_id": "ALERT-20260914-003",
        "alerta_operativa": "alta",
        "score": 205.5,
        "n_focos": 29,
        "n_ultimas_6h": 21,
        "n_ultimas_24h": 29,
        "frp_total_mw": 852.9,
        "frp_max_mw": 103,
        "edad_min_h": 5.1,
        "ultima_deteccion_utc": "2026-09-14 02:56:00",
        "sensores": "VIIRS_NOAA20_NRT, VIIRS_SNPP_NRT",
        "satellites": "N, N20",
        "instruments": "VIIRS",
        "popup_label": "<strong>ALERT-20260914-003<\/strong><br>Nivel: alta<br>Focos: 29<br>Últimas 6 h: 21<br>FRP total: 852.9 MW<br>Última detección UTC: 2026-09-14 02:56:00"
      }
    },
    {
      "type": "Feature",
      "geometry": {
        "type": "Point",
        "coordinates": [-5.7612, 43.5308]
      },
      "properties": {
        "cluster_id": "ALERT-20260914-004",
        "alerta_operativa": "alta",
        "score": 159.2,
        "n_focos": 34,
        "n_ultimas_6h": 15,
        "n_ultimas_24h": 21,
        "frp_total_mw": 59.4,
        "frp_max_mw": 6.6,
        "edad_min_h": 5.1,
        "ultima_deteccion_utc": "2026-09-14 02:56:00",
        "sensores": "VIIRS_NOAA20_NRT, VIIRS_SNPP_NRT",
        "satellites": "N, N20",
        "instruments": "VIIRS",
        "popup_label": "<strong>ALERT-20260914-004<\/strong><br>Nivel: alta<br>Focos: 34<br>Últimas 6 h: 15<br>FRP total: 59.4 MW<br>Última detección UTC: 2026-09-14 02:56:00"
      }
    },
    {
      "type": "Feature",
      "geometry": {
        "type": "Point",
        "coordinates": [4.8947, 43.4402]
      },
      "properties": {
        "cluster_id": "ALERT-20260914-005",
        "alerta_operativa": "alta",
        "score": 132.5,
        "n_focos": 49,
        "n_ultimas_6h": 6,
        "n_ultimas_24h": 22,
        "frp_total_mw": 116.1,
        "frp_max_mw": 10.8,
        "edad_min_h": 5.2,
        "ultima_deteccion_utc": "2026-09-14 02:53:00",
        "sensores": "VIIRS_NOAA20_NRT, VIIRS_SNPP_NRT",
        "satellites": "N, N20",
        "instruments": "VIIRS",
        "popup_label": "<strong>ALERT-20260914-005<\/strong><br>Nivel: alta<br>Focos: 49<br>Últimas 6 h: 6<br>FRP total: 116.1 MW<br>Última detección UTC: 2026-09-14 02:53:00"
      }
    },
    {
      "type": "Feature",
      "geometry": {
        "type": "Point",
        "coordinates": [-8.1554, 41.5832]
      },
      "properties": {
        "cluster_id": "ALERT-20260914-006",
        "alerta_operativa": "alta",
        "score": 87,
        "n_focos": 10,
        "n_ultimas_6h": 10,
        "n_ultimas_24h": 10,
        "frp_total_mw": 31.7,
        "frp_max_mw": 5.1,
        "edad_min_h": 5.1,
        "ultima_deteccion_utc": "2026-09-14 02:56:00",
        "sensores": "VIIRS_NOAA20_NRT, VIIRS_SNPP_NRT",
        "satellites": "N, N20",
        "instruments": "VIIRS",
        "popup_label": "<strong>ALERT-20260914-006<\/strong><br>Nivel: alta<br>Focos: 10<br>Últimas 6 h: 10<br>FRP total: 31.7 MW<br>Última detección UTC: 2026-09-14 02:56:00"
      }
    },
    {
      "type": "Feature",
      "geometry": {
        "type": "Point",
        "coordinates": [3.224, 32.9125]
      },
      "properties": {
        "cluster_id": "ALERT-20260914-007",
        "alerta_operativa": "alta",
        "score": 78.2,
        "n_focos": 23,
        "n_ultimas_6h": 5,
        "n_ultimas_24h": 12,
        "frp_total_mw": 21,
        "frp_max_mw": 2.3,
        "edad_min_h": 5.4,
        "ultima_deteccion_utc": "2026-09-14 02:38:00",
        "sensores": "VIIRS_NOAA20_NRT, VIIRS_SNPP_NRT",
        "satellites": "N, N20",
        "instruments": "VIIRS",
        "popup_label": "<strong>ALERT-20260914-007<\/strong><br>Nivel: alta<br>Focos: 23<br>Últimas 6 h: 5<br>FRP total: 21 MW<br>Última detección UTC: 2026-09-14 02:38:00"
      }
    },
    {
      "type": "Feature",
      "geometry": {
        "type": "Point",
        "coordinates": [3.9873, 32.2768]
      },
      "properties": {
        "cluster_id": "ALERT-20260914-008",
        "alerta_operativa": "alta",
        "score": 52.5,
        "n_focos": 10,
        "n_ultimas_6h": 3,
        "n_ultimas_24h": 10,
        "frp_total_mw": 40.7,
        "frp_max_mw": 9.7,
        "edad_min_h": 5.4,
        "ultima_deteccion_utc": "2026-09-14 02:38:00",
        "sensores": "VIIRS_NOAA20_NRT, VIIRS_SNPP_NRT",
        "satellites": "N, N20",
        "instruments": "VIIRS",
        "popup_label": "<strong>ALERT-20260914-008<\/strong><br>Nivel: alta<br>Focos: 10<br>Últimas 6 h: 3<br>FRP total: 40.7 MW<br>Última detección UTC: 2026-09-14 02:38:00"
      }
    },
    {
      "type": "Feature",
      "geometry": {
        "type": "Point",
        "coordinates": [-1.9063, 36.9664]
      },
      "properties": {
        "cluster_id": "ALERT-20260914-009",
        "alerta_operativa": "alta",
        "score": 32.1,
        "n_focos": 5,
        "n_ultimas_6h": 3,
        "n_ultimas_24h": 4,
        "frp_total_mw": 6.6,
        "frp_max_mw": 1.7,
        "edad_min_h": 5.1,
        "ultima_deteccion_utc": "2026-09-14 02:56:00",
        "sensores": "VIIRS_NOAA20_NRT, VIIRS_SNPP_NRT",
        "satellites": "N, N20",
        "instruments": "VIIRS",
        "popup_label": "<strong>ALERT-20260914-009<\/strong><br>Nivel: alta<br>Focos: 5<br>Últimas 6 h: 3<br>FRP total: 6.6 MW<br>Última detección UTC: 2026-09-14 02:56:00"
      }
    },
    {
      "type": "Feature",
      "geometry": {
        "type": "Point",
        "coordinates": [-3.0087, 43.2996]
      },
      "properties": {
        "cluster_id": "ALERT-20260914-010",
        "alerta_operativa": "alta",
        "score": 27.9,
        "n_focos": 8,
        "n_ultimas_6h": 2,
        "n_ultimas_24h": 3,
        "frp_total_mw": 5.9,
        "frp_max_mw": 1.3,
        "edad_min_h": 5.4,
        "ultima_deteccion_utc": "2026-09-14 02:36:00",
        "sensores": "VIIRS_NOAA20_NRT, VIIRS_SNPP_NRT",
        "satellites": "N, N20",
        "instruments": "VIIRS",
        "popup_label": "<strong>ALERT-20260914-010<\/strong><br>Nivel: alta<br>Focos: 8<br>Últimas 6 h: 2<br>FRP total: 5.9 MW<br>Última detección UTC: 2026-09-14 02:36:00"
      }
    },
    {
      "type": "Feature",
      "geometry": {
        "type": "Point",
        "coordinates": [1.2287, 41.1788]
      },
      "properties": {
        "cluster_id": "ALERT-20260914-011",
        "alerta_operativa": "alta",
        "score": 25.1,
        "n_focos": 5,
        "n_ultimas_6h": 2,
        "n_ultimas_24h": 3,
        "frp_total_mw": 6.7,
        "frp_max_mw": 2.5,
        "edad_min_h": 5.1,
        "ultima_deteccion_utc": "2026-09-14 02:56:00",
        "sensores": "VIIRS_NOAA20_NRT, VIIRS_SNPP_NRT",
        "satellites": "N, N20",
        "instruments": "VIIRS",
        "popup_label": "<strong>ALERT-20260914-011<\/strong><br>Nivel: alta<br>Focos: 5<br>Últimas 6 h: 2<br>FRP total: 6.7 MW<br>Última detección UTC: 2026-09-14 02:56:00"
      }
    },
    {
      "type": "Feature",
      "geometry": {
        "type": "Point",
        "coordinates": [0.9893, 43.1863]
      },
      "properties": {
        "cluster_id": "ALERT-20260914-012",
        "alerta_operativa": "alta",
        "score": 22.7,
        "n_focos": 4,
        "n_ultimas_6h": 2,
        "n_ultimas_24h": 3,
        "frp_total_mw": 2.9,
        "frp_max_mw": 0.8,
        "edad_min_h": 5.1,
        "ultima_deteccion_utc": "2026-09-14 02:56:00",
        "sensores": "VIIRS_NOAA20_NRT, VIIRS_SNPP_NRT",
        "satellites": "N, N20",
        "instruments": "VIIRS",
        "popup_label": "<strong>ALERT-20260914-012<\/strong><br>Nivel: alta<br>Focos: 4<br>Últimas 6 h: 2<br>FRP total: 2.9 MW<br>Última detección UTC: 2026-09-14 02:56:00"
      }
    },
    {
      "type": "Feature",
      "geometry": {
        "type": "Point",
        "coordinates": [-2.3471, 34.5963]
      },
      "properties": {
        "cluster_id": "ALERT-20260914-013",
        "alerta_operativa": "alta",
        "score": 21.1,
        "n_focos": 4,
        "n_ultimas_6h": 2,
        "n_ultimas_24h": 2,
        "frp_total_mw": 3.7,
        "frp_max_mw": 1.2,
        "edad_min_h": 5.4,
        "ultima_deteccion_utc": "2026-09-14 02:38:00",
        "sensores": "VIIRS_NOAA20_NRT, VIIRS_SNPP_NRT",
        "satellites": "N, N20",
        "instruments": "VIIRS",
        "popup_label": "<strong>ALERT-20260914-013<\/strong><br>Nivel: alta<br>Focos: 4<br>Últimas 6 h: 2<br>FRP total: 3.7 MW<br>Última detección UTC: 2026-09-14 02:38:00"
      }
    },
    {
      "type": "Feature",
      "geometry": {
        "type": "Point",
        "coordinates": [-6.7575, 42.5643]
      },
      "properties": {
        "cluster_id": "ALERT-20260914-014",
        "alerta_operativa": "alta",
        "score": 20.7,
        "n_focos": 4,
        "n_ultimas_6h": 2,
        "n_ultimas_24h": 2,
        "frp_total_mw": 2.9,
        "frp_max_mw": 0.9,
        "edad_min_h": 5.4,
        "ultima_deteccion_utc": "2026-09-14 02:36:00",
        "sensores": "VIIRS_NOAA20_NRT, VIIRS_SNPP_NRT",
        "satellites": "N, N20",
        "instruments": "VIIRS",
        "popup_label": "<strong>ALERT-20260914-014<\/strong><br>Nivel: alta<br>Focos: 4<br>Últimas 6 h: 2<br>FRP total: 2.9 MW<br>Última detección UTC: 2026-09-14 02:36:00"
      }
    },
    {
      "type": "Feature",
      "geometry": {
        "type": "Point",
        "coordinates": [-5.7982, 37.5574]
      },
      "properties": {
        "cluster_id": "ALERT-20260914-015",
        "alerta_operativa": "alta",
        "score": 20.5,
        "n_focos": 4,
        "n_ultimas_6h": 2,
        "n_ultimas_24h": 2,
        "frp_total_mw": 2.5,
        "frp_max_mw": 0.8,
        "edad_min_h": 5.1,
        "ultima_deteccion_utc": "2026-09-14 02:58:00",
        "sensores": "VIIRS_NOAA20_NRT, VIIRS_SNPP_NRT",
        "satellites": "N, N20",
        "instruments": "VIIRS",
        "popup_label": "<strong>ALERT-20260914-015<\/strong><br>Nivel: alta<br>Focos: 4<br>Últimas 6 h: 2<br>FRP total: 2.5 MW<br>Última detección UTC: 2026-09-14 02:58:00"
      }
    },
    {
      "type": "Feature",
      "geometry": {
        "type": "Point",
        "coordinates": [-9.1514, 30.2198]
      },
      "properties": {
        "cluster_id": "ALERT-20260914-016",
        "alerta_operativa": "alta",
        "score": 20.1,
        "n_focos": 3,
        "n_ultimas_6h": 2,
        "n_ultimas_24h": 2,
        "frp_total_mw": 3.6,
        "frp_max_mw": 1.6,
        "edad_min_h": 5.4,
        "ultima_deteccion_utc": "2026-09-14 02:41:00",
        "sensores": "VIIRS_SNPP_NRT",
        "satellites": "N",
        "instruments": "VIIRS",
        "popup_label": "<strong>ALERT-20260914-016<\/strong><br>Nivel: alta<br>Focos: 3<br>Últimas 6 h: 2<br>FRP total: 3.6 MW<br>Última detección UTC: 2026-09-14 02:41:00"
      }
    },
    {
      "type": "Feature",
      "geometry": {
        "type": "Point",
        "coordinates": [-4.3328, 36.7144]
      },
      "properties": {
        "cluster_id": "ALERT-20260914-017",
        "alerta_operativa": "alta",
        "score": 19.4,
        "n_focos": 3,
        "n_ultimas_6h": 2,
        "n_ultimas_24h": 2,
        "frp_total_mw": 2.4,
        "frp_max_mw": 0.8,
        "edad_min_h": 5.1,
        "ultima_deteccion_utc": "2026-09-14 02:58:00",
        "sensores": "VIIRS_NOAA20_NRT, VIIRS_SNPP_NRT",
        "satellites": "N, N20",
        "instruments": "VIIRS",
        "popup_label": "<strong>ALERT-20260914-017<\/strong><br>Nivel: alta<br>Focos: 3<br>Últimas 6 h: 2<br>FRP total: 2.4 MW<br>Última detección UTC: 2026-09-14 02:58:00"
      }
    },
    {
      "type": "Feature",
      "geometry": {
        "type": "Point",
        "coordinates": [-8.4194, 40.2882]
      },
      "properties": {
        "cluster_id": "ALERT-20260914-018",
        "alerta_operativa": "alta",
        "score": 18.4,
        "n_focos": 2,
        "n_ultimas_6h": 2,
        "n_ultimas_24h": 2,
        "frp_total_mw": 2.3,
        "frp_max_mw": 1.4,
        "edad_min_h": 5.1,
        "ultima_deteccion_utc": "2026-09-14 02:56:00",
        "sensores": "VIIRS_NOAA20_NRT, VIIRS_SNPP_NRT",
        "satellites": "N, N20",
        "instruments": "VIIRS",
        "popup_label": "<strong>ALERT-20260914-018<\/strong><br>Nivel: alta<br>Focos: 2<br>Últimas 6 h: 2<br>FRP total: 2.3 MW<br>Última detección UTC: 2026-09-14 02:56:00"
      }
    },
    {
      "type": "Feature",
      "geometry": {
        "type": "Point",
        "coordinates": [3.3341, 33.1225]
      },
      "properties": {
        "cluster_id": "ALERT-20260914-019",
        "alerta_operativa": "media",
        "score": 66.4,
        "n_focos": 23,
        "n_ultimas_6h": 1,
        "n_ultimas_24h": 16,
        "frp_total_mw": 23.8,
        "frp_max_mw": 2.9,
        "edad_min_h": 5.4,
        "ultima_deteccion_utc": "2026-09-14 02:38:00",
        "sensores": "VIIRS_NOAA20_NRT, VIIRS_SNPP_NRT",
        "satellites": "N, N20",
        "instruments": "VIIRS",
        "popup_label": "<strong>ALERT-20260914-019<\/strong><br>Nivel: media<br>Focos: 23<br>Últimas 6 h: 1<br>FRP total: 23.8 MW<br>Última detección UTC: 2026-09-14 02:38:00"
      }
    },
    {
      "type": "Feature",
      "geometry": {
        "type": "Point",
        "coordinates": [-5.1782, 37.3596]
      },
      "properties": {
        "cluster_id": "ALERT-20260914-020",
        "alerta_operativa": "media",
        "score": 47.6,
        "n_focos": 13,
        "n_ultimas_6h": 0,
        "n_ultimas_24h": 13,
        "frp_total_mw": 74.3,
        "frp_max_mw": 14.6,
        "edad_min_h": 17.7,
        "ultima_deteccion_utc": "2026-09-13 14:18:00",
        "sensores": "VIIRS_NOAA20_NRT, VIIRS_SNPP_NRT",
        "satellites": "N, N20",
        "instruments": "VIIRS",
        "popup_label": "<strong>ALERT-20260914-020<\/strong><br>Nivel: media<br>Focos: 13<br>Últimas 6 h: 0<br>FRP total: 74.3 MW<br>Última detección UTC: 2026-09-13 14:18:00"
      }
    },
    {
      "type": "Feature",
      "geometry": {
        "type": "Point",
        "coordinates": [3.1457, 36.6728]
      },
      "properties": {
        "cluster_id": "ALERT-20260914-021",
        "alerta_operativa": "media",
        "score": 35.5,
        "n_focos": 15,
        "n_ultimas_6h": 1,
        "n_ultimas_24h": 5,
        "frp_total_mw": 14.8,
        "frp_max_mw": 1.6,
        "edad_min_h": 5.4,
        "ultima_deteccion_utc": "2026-09-14 02:38:00",
        "sensores": "VIIRS_NOAA20_NRT, VIIRS_SNPP_NRT",
        "satellites": "N, N20",
        "instruments": "VIIRS",
        "popup_label": "<strong>ALERT-20260914-021<\/strong><br>Nivel: media<br>Focos: 15<br>Últimas 6 h: 1<br>FRP total: 14.8 MW<br>Última detección UTC: 2026-09-14 02:38:00"
      }
    },
    {
      "type": "Feature",
      "geometry": {
        "type": "Point",
        "coordinates": [-0.5176, 28.2004]
      },
      "properties": {
        "cluster_id": "ALERT-20260914-022",
        "alerta_operativa": "media",
        "score": 30.8,
        "n_focos": 10,
        "n_ultimas_6h": 1,
        "n_ultimas_24h": 5,
        "frp_total_mw": 17,
        "frp_max_mw": 3.2,
        "edad_min_h": 5.4,
        "ultima_deteccion_utc": "2026-09-14 02:41:00",
        "sensores": "VIIRS_NOAA20_NRT, VIIRS_SNPP_NRT",
        "satellites": "N, N20",
        "instruments": "VIIRS",
        "popup_label": "<strong>ALERT-20260914-022<\/strong><br>Nivel: media<br>Focos: 10<br>Últimas 6 h: 1<br>FRP total: 17 MW<br>Última detección UTC: 2026-09-14 02:41:00"
      }
    },
    {
      "type": "Feature",
      "geometry": {
        "type": "Point",
        "coordinates": [-9.4604, 30.1239]
      },
      "properties": {
        "cluster_id": "ALERT-20260914-023",
        "alerta_operativa": "media",
        "score": 29.2,
        "n_focos": 6,
        "n_ultimas_6h": 1,
        "n_ultimas_24h": 6,
        "frp_total_mw": 21.3,
        "frp_max_mw": 5.7,
        "edad_min_h": 5.4,
        "ultima_deteccion_utc": "2026-09-14 02:41:00",
        "sensores": "VIIRS_NOAA20_NRT, VIIRS_SNPP_NRT",
        "satellites": "N, N20",
        "instruments": "VIIRS",
        "popup_label": "<strong>ALERT-20260914-023<\/strong><br>Nivel: media<br>Focos: 6<br>Últimas 6 h: 1<br>FRP total: 21.3 MW<br>Última detección UTC: 2026-09-14 02:41:00"
      }
    },
    {
      "type": "Feature",
      "geometry": {
        "type": "Point",
        "coordinates": [3.169, 32.555]
      },
      "properties": {
        "cluster_id": "ALERT-20260914-024",
        "alerta_operativa": "media",
        "score": 25.5,
        "n_focos": 5,
        "n_ultimas_6h": 1,
        "n_ultimas_24h": 5,
        "frp_total_mw": 14.5,
        "frp_max_mw": 5.5,
        "edad_min_h": 5.4,
        "ultima_deteccion_utc": "2026-09-14 02:38:00",
        "sensores": "VIIRS_NOAA20_NRT, VIIRS_SNPP_NRT",
        "satellites": "N, N20",
        "instruments": "VIIRS",
        "popup_label": "<strong>ALERT-20260914-024<\/strong><br>Nivel: media<br>Focos: 5<br>Últimas 6 h: 1<br>FRP total: 14.5 MW<br>Última detección UTC: 2026-09-14 02:38:00"
      }
    },
    {
      "type": "Feature",
      "geometry": {
        "type": "Point",
        "coordinates": [4.4476, 35.8794]
      },
      "properties": {
        "cluster_id": "ALERT-20260914-025",
        "alerta_operativa": "media",
        "score": 22.9,
        "n_focos": 6,
        "n_ultimas_6h": 1,
        "n_ultimas_24h": 4,
        "frp_total_mw": 6,
        "frp_max_mw": 1.2,
        "edad_min_h": 5.4,
        "ultima_deteccion_utc": "2026-09-14 02:38:00",
        "sensores": "VIIRS_NOAA20_NRT, VIIRS_SNPP_NRT",
        "satellites": "N, N20",
        "instruments": "VIIRS",
        "popup_label": "<strong>ALERT-20260914-025<\/strong><br>Nivel: media<br>Focos: 6<br>Últimas 6 h: 1<br>FRP total: 6 MW<br>Última detección UTC: 2026-09-14 02:38:00"
      }
    },
    {
      "type": "Feature",
      "geometry": {
        "type": "Point",
        "coordinates": [2.8779, 36.597]
      },
      "properties": {
        "cluster_id": "ALERT-20260914-026",
        "alerta_operativa": "media",
        "score": 19.8,
        "n_focos": 5,
        "n_ultimas_6h": 1,
        "n_ultimas_24h": 3,
        "frp_total_mw": 5.8,
        "frp_max_mw": 2.5,
        "edad_min_h": 5.4,
        "ultima_deteccion_utc": "2026-09-14 02:38:00",
        "sensores": "VIIRS_NOAA20_NRT, VIIRS_SNPP_NRT",
        "satellites": "N, N20",
        "instruments": "VIIRS",
        "popup_label": "<strong>ALERT-20260914-026<\/strong><br>Nivel: media<br>Focos: 5<br>Últimas 6 h: 1<br>FRP total: 5.8 MW<br>Última detección UTC: 2026-09-14 02:38:00"
      }
    },
    {
      "type": "Feature",
      "geometry": {
        "type": "Point",
        "coordinates": [2.0749, 34.4491]
      },
      "properties": {
        "cluster_id": "ALERT-20260914-027",
        "alerta_operativa": "media",
        "score": 19.4,
        "n_focos": 5,
        "n_ultimas_6h": 1,
        "n_ultimas_24h": 3,
        "frp_total_mw": 4.4,
        "frp_max_mw": 1.2,
        "edad_min_h": 5.4,
        "ultima_deteccion_utc": "2026-09-14 02:38:00",
        "sensores": "VIIRS_NOAA20_NRT, VIIRS_SNPP_NRT",
        "satellites": "N, N20",
        "instruments": "VIIRS",
        "popup_label": "<strong>ALERT-20260914-027<\/strong><br>Nivel: media<br>Focos: 5<br>Últimas 6 h: 1<br>FRP total: 4.4 MW<br>Última detección UTC: 2026-09-14 02:38:00"
      }
    },
    {
      "type": "Feature",
      "geometry": {
        "type": "Point",
        "coordinates": [-6.55, 34.2678]
      },
      "properties": {
        "cluster_id": "ALERT-20260914-028",
        "alerta_operativa": "media",
        "score": 18.2,
        "n_focos": 4,
        "n_ultimas_6h": 0,
        "n_ultimas_24h": 4,
        "frp_total_mw": 20.7,
        "frp_max_mw": 13.3,
        "edad_min_h": 17.8,
        "ultima_deteccion_utc": "2026-09-13 14:16:00",
        "sensores": "VIIRS_NOAA20_NRT, VIIRS_SNPP_NRT",
        "satellites": "N, N20",
        "instruments": "VIIRS",
        "popup_label": "<strong>ALERT-20260914-028<\/strong><br>Nivel: media<br>Focos: 4<br>Últimas 6 h: 0<br>FRP total: 20.7 MW<br>Última detección UTC: 2026-09-13 14:16:00"
      }
    },
    {
      "type": "Feature",
      "geometry": {
        "type": "Point",
        "coordinates": [-2.2207, 43.0374]
      },
      "properties": {
        "cluster_id": "ALERT-20260914-029",
        "alerta_operativa": "media",
        "score": 18.1,
        "n_focos": 7,
        "n_ultimas_6h": 1,
        "n_ultimas_24h": 1,
        "frp_total_mw": 6.8,
        "frp_max_mw": 1.2,
        "edad_min_h": 5.4,
        "ultima_deteccion_utc": "2026-09-14 02:36:00",
        "sensores": "VIIRS_NOAA20_NRT, VIIRS_SNPP_NRT",
        "satellites": "N, N20",
        "instruments": "VIIRS",
        "popup_label": "<strong>ALERT-20260914-029<\/strong><br>Nivel: media<br>Focos: 7<br>Últimas 6 h: 1<br>FRP total: 6.8 MW<br>Última detección UTC: 2026-09-14 02:36:00"
      }
    },
    {
      "type": "Feature",
      "geometry": {
        "type": "Point",
        "coordinates": [-5.0224, 34.0768]
      },
      "properties": {
        "cluster_id": "ALERT-20260914-030",
        "alerta_operativa": "media",
        "score": 17.1,
        "n_focos": 3,
        "n_ultimas_6h": 1,
        "n_ultimas_24h": 3,
        "frp_total_mw": 3.6,
        "frp_max_mw": 1.7,
        "edad_min_h": 5.4,
        "ultima_deteccion_utc": "2026-09-14 02:38:00",
        "sensores": "VIIRS_NOAA20_NRT, VIIRS_SNPP_NRT",
        "satellites": "N, N20",
        "instruments": "VIIRS",
        "popup_label": "<strong>ALERT-20260914-030<\/strong><br>Nivel: media<br>Focos: 3<br>Últimas 6 h: 1<br>FRP total: 3.6 MW<br>Última detección UTC: 2026-09-14 02:38:00"
      }
    },
    {
      "type": "Feature",
      "geometry": {
        "type": "Point",
        "coordinates": [-6.8227, 37.1443]
      },
      "properties": {
        "cluster_id": "ALERT-20260914-031",
        "alerta_operativa": "media",
        "score": 16.4,
        "n_focos": 3,
        "n_ultimas_6h": 0,
        "n_ultimas_24h": 3,
        "frp_total_mw": 39.6,
        "frp_max_mw": 25.7,
        "edad_min_h": 19.1,
        "ultima_deteccion_utc": "2026-09-13 12:55:00",
        "sensores": "VIIRS_NOAA20_NRT, VIIRS_SNPP_NRT",
        "satellites": "N, N20",
        "instruments": "VIIRS",
        "popup_label": "<strong>ALERT-20260914-031<\/strong><br>Nivel: media<br>Focos: 3<br>Últimas 6 h: 0<br>FRP total: 39.6 MW<br>Última detección UTC: 2026-09-13 12:55:00"
      }
    },
    {
      "type": "Feature",
      "geometry": {
        "type": "Point",
        "coordinates": [2.7374, 36.4963]
      },
      "properties": {
        "cluster_id": "ALERT-20260914-032",
        "alerta_operativa": "media",
        "score": 15.7,
        "n_focos": 4,
        "n_ultimas_6h": 0,
        "n_ultimas_24h": 4,
        "frp_total_mw": 5.4,
        "frp_max_mw": 2.5,
        "edad_min_h": 7.1,
        "ultima_deteccion_utc": "2026-09-14 00:58:00",
        "sensores": "VIIRS_NOAA20_NRT, VIIRS_SNPP_NRT",
        "satellites": "N, N20",
        "instruments": "VIIRS",
        "popup_label": "<strong>ALERT-20260914-032<\/strong><br>Nivel: media<br>Focos: 4<br>Últimas 6 h: 0<br>FRP total: 5.4 MW<br>Última detección UTC: 2026-09-14 00:58:00"
      }
    },
    {
      "type": "Feature",
      "geometry": {
        "type": "Point",
        "coordinates": [-0.545, 38.3775]
      },
      "properties": {
        "cluster_id": "ALERT-20260914-033",
        "alerta_operativa": "media",
        "score": 15.6,
        "n_focos": 4,
        "n_ultimas_6h": 1,
        "n_ultimas_24h": 2,
        "frp_total_mw": 2.7,
        "frp_max_mw": 1,
        "edad_min_h": 5.4,
        "ultima_deteccion_utc": "2026-09-14 02:38:00",
        "sensores": "VIIRS_NOAA20_NRT, VIIRS_SNPP_NRT",
        "satellites": "N, N20",
        "instruments": "VIIRS",
        "popup_label": "<strong>ALERT-20260914-033<\/strong><br>Nivel: media<br>Focos: 4<br>Últimas 6 h: 1<br>FRP total: 2.7 MW<br>Última detección UTC: 2026-09-14 02:38:00"
      }
    },
    {
      "type": "Feature",
      "geometry": {
        "type": "Point",
        "coordinates": [-7.4937, 33.5975]
      },
      "properties": {
        "cluster_id": "ALERT-20260914-034",
        "alerta_operativa": "media",
        "score": 15.1,
        "n_focos": 5,
        "n_ultimas_6h": 1,
        "n_ultimas_24h": 1,
        "frp_total_mw": 3.7,
        "frp_max_mw": 1,
        "edad_min_h": 5.4,
        "ultima_deteccion_utc": "2026-09-14 02:38:00",
        "sensores": "VIIRS_NOAA20_NRT, VIIRS_SNPP_NRT",
        "satellites": "N, N20",
        "instruments": "VIIRS",
        "popup_label": "<strong>ALERT-20260914-034<\/strong><br>Nivel: media<br>Focos: 5<br>Últimas 6 h: 1<br>FRP total: 3.7 MW<br>Última detección UTC: 2026-09-14 02:38:00"
      }
    },
    {
      "type": "Feature",
      "geometry": {
        "type": "Point",
        "coordinates": [2.7968, 42.7035]
      },
      "properties": {
        "cluster_id": "ALERT-20260914-035",
        "alerta_operativa": "media",
        "score": 14.1,
        "n_focos": 3,
        "n_ultimas_6h": 0,
        "n_ultimas_24h": 3,
        "frp_total_mw": 11.5,
        "frp_max_mw": 4.7,
        "edad_min_h": 19.4,
        "ultima_deteccion_utc": "2026-09-13 12:38:00",
        "sensores": "VIIRS_SNPP_NRT",
        "satellites": "N",
        "instruments": "VIIRS",
        "popup_label": "<strong>ALERT-20260914-035<\/strong><br>Nivel: media<br>Focos: 3<br>Últimas 6 h: 0<br>FRP total: 11.5 MW<br>Última detección UTC: 2026-09-13 12:38:00"
      }
    },
    {
      "type": "Feature",
      "geometry": {
        "type": "Point",
        "coordinates": [1.988, 41.4308]
      },
      "properties": {
        "cluster_id": "ALERT-20260914-036",
        "alerta_operativa": "media",
        "score": 13.7,
        "n_focos": 4,
        "n_ultimas_6h": 1,
        "n_ultimas_24h": 1,
        "frp_total_mw": 2.9,
        "frp_max_mw": 1.2,
        "edad_min_h": 5.1,
        "ultima_deteccion_utc": "2026-09-14 02:56:00",
        "sensores": "VIIRS_NOAA20_NRT, VIIRS_SNPP_NRT",
        "satellites": "N, N20",
        "instruments": "VIIRS",
        "popup_label": "<strong>ALERT-20260914-036<\/strong><br>Nivel: media<br>Focos: 4<br>Últimas 6 h: 1<br>FRP total: 2.9 MW<br>Última detección UTC: 2026-09-14 02:56:00"
      }
    },
    {
      "type": "Feature",
      "geometry": {
        "type": "Point",
        "coordinates": [-1.3711, 42.4372]
      },
      "properties": {
        "cluster_id": "ALERT-20260914-037",
        "alerta_operativa": "media",
        "score": 13,
        "n_focos": 2,
        "n_ultimas_6h": 1,
        "n_ultimas_24h": 2,
        "frp_total_mw": 1.7,
        "frp_max_mw": 1,
        "edad_min_h": 5.4,
        "ultima_deteccion_utc": "2026-09-14 02:36:00",
        "sensores": "VIIRS_NOAA20_NRT, VIIRS_SNPP_NRT",
        "satellites": "N, N20",
        "instruments": "VIIRS",
        "popup_label": "<strong>ALERT-20260914-037<\/strong><br>Nivel: media<br>Focos: 2<br>Últimas 6 h: 1<br>FRP total: 1.7 MW<br>Última detección UTC: 2026-09-14 02:36:00"
      }
    },
    {
      "type": "Feature",
      "geometry": {
        "type": "Point",
        "coordinates": [-3.8431, 43.4117]
      },
      "properties": {
        "cluster_id": "ALERT-20260914-038",
        "alerta_operativa": "media",
        "score": 12.2,
        "n_focos": 4,
        "n_ultimas_6h": 0,
        "n_ultimas_24h": 2,
        "frp_total_mw": 7,
        "frp_max_mw": 2.4,
        "edad_min_h": 6.8,
        "ultima_deteccion_utc": "2026-09-14 01:13:00",
        "sensores": "VIIRS_NOAA20_NRT, VIIRS_SNPP_NRT",
        "satellites": "N, N20",
        "instruments": "VIIRS",
        "popup_label": "<strong>ALERT-20260914-038<\/strong><br>Nivel: media<br>Focos: 4<br>Últimas 6 h: 0<br>FRP total: 7 MW<br>Última detección UTC: 2026-09-14 01:13:00"
      }
    },
    {
      "type": "Feature",
      "geometry": {
        "type": "Point",
        "coordinates": [-9.0104, 38.9219]
      },
      "properties": {
        "cluster_id": "ALERT-20260914-039",
        "alerta_operativa": "media",
        "score": 11.9,
        "n_focos": 2,
        "n_ultimas_6h": 1,
        "n_ultimas_24h": 1,
        "frp_total_mw": 3.2,
        "frp_max_mw": 1.7,
        "edad_min_h": 5.4,
        "ultima_deteccion_utc": "2026-09-14 02:38:00",
        "sensores": "VIIRS_SNPP_NRT",
        "satellites": "N",
        "instruments": "VIIRS",
        "popup_label": "<strong>ALERT-20260914-039<\/strong><br>Nivel: media<br>Focos: 2<br>Últimas 6 h: 1<br>FRP total: 3.2 MW<br>Última detección UTC: 2026-09-14 02:38:00"
      }
    },
    {
      "type": "Feature",
      "geometry": {
        "type": "Point",
        "coordinates": [-2.7518, 39.2325]
      },
      "properties": {
        "cluster_id": "ALERT-20260914-040",
        "alerta_operativa": "media",
        "score": 11.2,
        "n_focos": 2,
        "n_ultimas_6h": 0,
        "n_ultimas_24h": 2,
        "frp_total_mw": 12.6,
        "frp_max_mw": 7.6,
        "edad_min_h": 19.1,
        "ultima_deteccion_utc": "2026-09-13 12:55:00",
        "sensores": "VIIRS_NOAA20_NRT, VIIRS_SNPP_NRT",
        "satellites": "N, N20",
        "instruments": "VIIRS",
        "popup_label": "<strong>ALERT-20260914-040<\/strong><br>Nivel: media<br>Focos: 2<br>Últimas 6 h: 0<br>FRP total: 12.6 MW<br>Última detección UTC: 2026-09-13 12:55:00"
      }
    },
    {
      "type": "Feature",
      "geometry": {
        "type": "Point",
        "coordinates": [-0.4766, 42.9047]
      },
      "properties": {
        "cluster_id": "ALERT-20260914-041",
        "alerta_operativa": "media",
        "score": 11.1,
        "n_focos": 2,
        "n_ultimas_6h": 0,
        "n_ultimas_24h": 2,
        "frp_total_mw": 11.6,
        "frp_max_mw": 6.2,
        "edad_min_h": 19.1,
        "ultima_deteccion_utc": "2026-09-13 12:57:00",
        "sensores": "VIIRS_NOAA20_NRT, VIIRS_SNPP_NRT",
        "satellites": "N, N20",
        "instruments": "VIIRS",
        "popup_label": "<strong>ALERT-20260914-041<\/strong><br>Nivel: media<br>Focos: 2<br>Últimas 6 h: 0<br>FRP total: 11.6 MW<br>Última detección UTC: 2026-09-13 12:57:00"
      }
    },
    {
      "type": "Feature",
      "geometry": {
        "type": "Point",
        "coordinates": [-5.8654, 37.3597]
      },
      "properties": {
        "cluster_id": "ALERT-20260914-042",
        "alerta_operativa": "media",
        "score": 10.8,
        "n_focos": 2,
        "n_ultimas_6h": 1,
        "n_ultimas_24h": 1,
        "frp_total_mw": 1.4,
        "frp_max_mw": 0.8,
        "edad_min_h": 5.4,
        "ultima_deteccion_utc": "2026-09-14 02:38:00",
        "sensores": "VIIRS_SNPP_NRT",
        "satellites": "N",
        "instruments": "VIIRS",
        "popup_label": "<strong>ALERT-20260914-042<\/strong><br>Nivel: media<br>Focos: 2<br>Últimas 6 h: 1<br>FRP total: 1.4 MW<br>Última detección UTC: 2026-09-14 02:38:00"
      }
    },
    {
      "type": "Feature",
      "geometry": {
        "type": "Point",
        "coordinates": [-9.5649, 30.5527]
      },
      "properties": {
        "cluster_id": "ALERT-20260914-043",
        "alerta_operativa": "media",
        "score": 10.7,
        "n_focos": 2,
        "n_ultimas_6h": 0,
        "n_ultimas_24h": 2,
        "frp_total_mw": 9.5,
        "frp_max_mw": 4.7,
        "edad_min_h": 17.8,
        "ultima_deteccion_utc": "2026-09-13 14:16:00",
        "sensores": "VIIRS_SNPP_NRT",
        "satellites": "N",
        "instruments": "VIIRS",
        "popup_label": "<strong>ALERT-20260914-043<\/strong><br>Nivel: media<br>Focos: 2<br>Últimas 6 h: 0<br>FRP total: 9.5 MW<br>Última detección UTC: 2026-09-13 14:16:00"
      }
    },
    {
      "type": "Feature",
      "geometry": {
        "type": "Point",
        "coordinates": [-12.0834, 28.0831]
      },
      "properties": {
        "cluster_id": "ALERT-20260914-044",
        "alerta_operativa": "media",
        "score": 10.3,
        "n_focos": 1,
        "n_ultimas_6h": 1,
        "n_ultimas_24h": 1,
        "frp_total_mw": 2.2,
        "frp_max_mw": 2.2,
        "edad_min_h": 5,
        "ultima_deteccion_utc": "2026-09-14 03:00:00",
        "sensores": "VIIRS_NOAA20_NRT",
        "satellites": "N20",
        "instruments": "VIIRS",
        "popup_label": "<strong>ALERT-20260914-044<\/strong><br>Nivel: media<br>Focos: 1<br>Últimas 6 h: 1<br>FRP total: 2.2 MW<br>Última detección UTC: 2026-09-14 03:00:00"
      }
    },
    {
      "type": "Feature",
      "geometry": {
        "type": "Point",
        "coordinates": [-2.1438, 31.6236]
      },
      "properties": {
        "cluster_id": "ALERT-20260914-045",
        "alerta_operativa": "media",
        "score": 10.2,
        "n_focos": 2,
        "n_ultimas_6h": 0,
        "n_ultimas_24h": 2,
        "frp_total_mw": 7.3,
        "frp_max_mw": 4.2,
        "edad_min_h": 19.2,
        "ultima_deteccion_utc": "2026-09-13 12:53:00",
        "sensores": "VIIRS_NOAA20_NRT, VIIRS_SNPP_NRT",
        "satellites": "N, N20",
        "instruments": "VIIRS",
        "popup_label": "<strong>ALERT-20260914-045<\/strong><br>Nivel: media<br>Focos: 2<br>Últimas 6 h: 0<br>FRP total: 7.3 MW<br>Última detección UTC: 2026-09-13 12:53:00"
      }
    },
    {
      "type": "Feature",
      "geometry": {
        "type": "Point",
        "coordinates": [-8.2793, 32.775]
      },
      "properties": {
        "cluster_id": "ALERT-20260914-046",
        "alerta_operativa": "media",
        "score": 10,
        "n_focos": 2,
        "n_ultimas_6h": 0,
        "n_ultimas_24h": 2,
        "frp_total_mw": 6.5,
        "frp_max_mw": 3.3,
        "edad_min_h": 19.1,
        "ultima_deteccion_utc": "2026-09-13 12:55:00",
        "sensores": "VIIRS_NOAA20_NRT",
        "satellites": "N20",
        "instruments": "VIIRS",
        "popup_label": "<strong>ALERT-20260914-046<\/strong><br>Nivel: media<br>Focos: 2<br>Últimas 6 h: 0<br>FRP total: 6.5 MW<br>Última detección UTC: 2026-09-13 12:55:00"
      }
    },
    {
      "type": "Feature",
      "geometry": {
        "type": "Point",
        "coordinates": [-1.1495, 43.8108]
      },
      "properties": {
        "cluster_id": "ALERT-20260914-047",
        "alerta_operativa": "media",
        "score": 9.8,
        "n_focos": 2,
        "n_ultimas_6h": 0,
        "n_ultimas_24h": 2,
        "frp_total_mw": 5.8,
        "frp_max_mw": 2.9,
        "edad_min_h": 19.1,
        "ultima_deteccion_utc": "2026-09-13 12:57:00",
        "sensores": "VIIRS_NOAA20_NRT",
        "satellites": "N20",
        "instruments": "VIIRS",
        "popup_label": "<strong>ALERT-20260914-047<\/strong><br>Nivel: media<br>Focos: 2<br>Últimas 6 h: 0<br>FRP total: 5.8 MW<br>Última detección UTC: 2026-09-13 12:57:00"
      }
    },
    {
      "type": "Feature",
      "geometry": {
        "type": "Point",
        "coordinates": [-2.7056, 42.851]
      },
      "properties": {
        "cluster_id": "ALERT-20260914-048",
        "alerta_operativa": "media",
        "score": 9.8,
        "n_focos": 2,
        "n_ultimas_6h": 0,
        "n_ultimas_24h": 2,
        "frp_total_mw": 5.6,
        "frp_max_mw": 3,
        "edad_min_h": 19.1,
        "ultima_deteccion_utc": "2026-09-13 12:57:00",
        "sensores": "VIIRS_NOAA20_NRT",
        "satellites": "N20",
        "instruments": "VIIRS",
        "popup_label": "<strong>ALERT-20260914-048<\/strong><br>Nivel: media<br>Focos: 2<br>Últimas 6 h: 0<br>FRP total: 5.6 MW<br>Última detección UTC: 2026-09-13 12:57:00"
      }
    },
    {
      "type": "Feature",
      "geometry": {
        "type": "Point",
        "coordinates": [-6.0379, 34.531]
      },
      "properties": {
        "cluster_id": "ALERT-20260914-049",
        "alerta_operativa": "media",
        "score": 9.8,
        "n_focos": 1,
        "n_ultimas_6h": 1,
        "n_ultimas_24h": 1,
        "frp_total_mw": 1.4,
        "frp_max_mw": 1.4,
        "edad_min_h": 5.1,
        "ultima_deteccion_utc": "2026-09-14 02:58:00",
        "sensores": "VIIRS_NOAA20_NRT",
        "satellites": "N20",
        "instruments": "VIIRS",
        "popup_label": "<strong>ALERT-20260914-049<\/strong><br>Nivel: media<br>Focos: 1<br>Últimas 6 h: 1<br>FRP total: 1.4 MW<br>Última detección UTC: 2026-09-14 02:58:00"
      }
    },
    {
      "type": "Feature",
      "geometry": {
        "type": "Point",
        "coordinates": [4.0071, 32.4028]
      },
      "properties": {
        "cluster_id": "ALERT-20260914-050",
        "alerta_operativa": "media",
        "score": 9.7,
        "n_focos": 3,
        "n_ultimas_6h": 0,
        "n_ultimas_24h": 2,
        "frp_total_mw": 2.8,
        "frp_max_mw": 1.3,
        "edad_min_h": 6.8,
        "ultima_deteccion_utc": "2026-09-14 01:17:00",
        "sensores": "VIIRS_NOAA20_NRT, VIIRS_SNPP_NRT",
        "satellites": "N, N20",
        "instruments": "VIIRS",
        "popup_label": "<strong>ALERT-20260914-050<\/strong><br>Nivel: media<br>Focos: 3<br>Últimas 6 h: 0<br>FRP total: 2.8 MW<br>Última detección UTC: 2026-09-14 01:17:00"
      }
    },
    {
      "type": "Feature",
      "geometry": {
        "type": "Point",
        "coordinates": [-6.7196, 38.3203]
      },
      "properties": {
        "cluster_id": "ALERT-20260914-051",
        "alerta_operativa": "media",
        "score": 9.7,
        "n_focos": 1,
        "n_ultimas_6h": 1,
        "n_ultimas_24h": 1,
        "frp_total_mw": 1.3,
        "frp_max_mw": 1.3,
        "edad_min_h": 5.1,
        "ultima_deteccion_utc": "2026-09-14 02:56:00",
        "sensores": "VIIRS_NOAA20_NRT",
        "satellites": "N20",
        "instruments": "VIIRS",
        "popup_label": "<strong>ALERT-20260914-051<\/strong><br>Nivel: media<br>Focos: 1<br>Últimas 6 h: 1<br>FRP total: 1.3 MW<br>Última detección UTC: 2026-09-14 02:56:00"
      }
    },
    {
      "type": "Feature",
      "geometry": {
        "type": "Point",
        "coordinates": [4.6355, 43.9665]
      },
      "properties": {
        "cluster_id": "ALERT-20260914-052",
        "alerta_operativa": "media",
        "score": 9.6,
        "n_focos": 2,
        "n_ultimas_6h": 0,
        "n_ultimas_24h": 2,
        "frp_total_mw": 5,
        "frp_max_mw": 3.4,
        "edad_min_h": 19.4,
        "ultima_deteccion_utc": "2026-09-13 12:38:00",
        "sensores": "VIIRS_SNPP_NRT",
        "satellites": "N",
        "instruments": "VIIRS",
        "popup_label": "<strong>ALERT-20260914-052<\/strong><br>Nivel: media<br>Focos: 2<br>Últimas 6 h: 0<br>FRP total: 5 MW<br>Última detección UTC: 2026-09-13 12:38:00"
      }
    },
    {
      "type": "Feature",
      "geometry": {
        "type": "Point",
        "coordinates": [-8.6061, 33.1375]
      },
      "properties": {
        "cluster_id": "ALERT-20260914-053",
        "alerta_operativa": "media",
        "score": 9.4,
        "n_focos": 1,
        "n_ultimas_6h": 1,
        "n_ultimas_24h": 1,
        "frp_total_mw": 1,
        "frp_max_mw": 1,
        "edad_min_h": 5.4,
        "ultima_deteccion_utc": "2026-09-14 02:41:00",
        "sensores": "VIIRS_SNPP_NRT",
        "satellites": "N",
        "instruments": "VIIRS",
        "popup_label": "<strong>ALERT-20260914-053<\/strong><br>Nivel: media<br>Focos: 1<br>Últimas 6 h: 1<br>FRP total: 1 MW<br>Última detección UTC: 2026-09-14 02:41:00"
      }
    },
    {
      "type": "Feature",
      "geometry": {
        "type": "Point",
        "coordinates": [-9.0782, 38.6307]
      },
      "properties": {
        "cluster_id": "ALERT-20260914-054",
        "alerta_operativa": "media",
        "score": 9.4,
        "n_focos": 1,
        "n_ultimas_6h": 1,
        "n_ultimas_24h": 1,
        "frp_total_mw": 1,
        "frp_max_mw": 1,
        "edad_min_h": 5.4,
        "ultima_deteccion_utc": "2026-09-14 02:38:00",
        "sensores": "VIIRS_SNPP_NRT",
        "satellites": "N",
        "instruments": "VIIRS",
        "popup_label": "<strong>ALERT-20260914-054<\/strong><br>Nivel: media<br>Focos: 1<br>Últimas 6 h: 1<br>FRP total: 1 MW<br>Última detección UTC: 2026-09-14 02:38:00"
      }
    },
    {
      "type": "Feature",
      "geometry": {
        "type": "Point",
        "coordinates": [-8.9379, 38.5009]
      },
      "properties": {
        "cluster_id": "ALERT-20260914-055",
        "alerta_operativa": "media",
        "score": 9.3,
        "n_focos": 1,
        "n_ultimas_6h": 1,
        "n_ultimas_24h": 1,
        "frp_total_mw": 0.9,
        "frp_max_mw": 0.9,
        "edad_min_h": 5.4,
        "ultima_deteccion_utc": "2026-09-14 02:38:00",
        "sensores": "VIIRS_SNPP_NRT",
        "satellites": "N",
        "instruments": "VIIRS",
        "popup_label": "<strong>ALERT-20260914-055<\/strong><br>Nivel: media<br>Focos: 1<br>Últimas 6 h: 1<br>FRP total: 0.9 MW<br>Última detección UTC: 2026-09-14 02:38:00"
      }
    },
    {
      "type": "Feature",
      "geometry": {
        "type": "Point",
        "coordinates": [-8.9054, 39.6863]
      },
      "properties": {
        "cluster_id": "ALERT-20260914-056",
        "alerta_operativa": "media",
        "score": 9.3,
        "n_focos": 1,
        "n_ultimas_6h": 1,
        "n_ultimas_24h": 1,
        "frp_total_mw": 0.9,
        "frp_max_mw": 0.9,
        "edad_min_h": 5.4,
        "ultima_deteccion_utc": "2026-09-14 02:38:00",
        "sensores": "VIIRS_SNPP_NRT",
        "satellites": "N",
        "instruments": "VIIRS",
        "popup_label": "<strong>ALERT-20260914-056<\/strong><br>Nivel: media<br>Focos: 1<br>Últimas 6 h: 1<br>FRP total: 0.9 MW<br>Última detección UTC: 2026-09-14 02:38:00"
      }
    },
    {
      "type": "Feature",
      "geometry": {
        "type": "Point",
        "coordinates": [-7.1468, 32.9892]
      },
      "properties": {
        "cluster_id": "ALERT-20260914-057",
        "alerta_operativa": "media",
        "score": 9.2,
        "n_focos": 1,
        "n_ultimas_6h": 1,
        "n_ultimas_24h": 1,
        "frp_total_mw": 0.8,
        "frp_max_mw": 0.8,
        "edad_min_h": 5.4,
        "ultima_deteccion_utc": "2026-09-14 02:41:00",
        "sensores": "VIIRS_SNPP_NRT",
        "satellites": "N",
        "instruments": "VIIRS",
        "popup_label": "<strong>ALERT-20260914-057<\/strong><br>Nivel: media<br>Focos: 1<br>Últimas 6 h: 1<br>FRP total: 0.8 MW<br>Última detección UTC: 2026-09-14 02:41:00"
      }
    },
    {
      "type": "Feature",
      "geometry": {
        "type": "Point",
        "coordinates": [-5.262, 33.8814]
      },
      "properties": {
        "cluster_id": "ALERT-20260914-058",
        "alerta_operativa": "media",
        "score": 9.2,
        "n_focos": 1,
        "n_ultimas_6h": 1,
        "n_ultimas_24h": 1,
        "frp_total_mw": 0.8,
        "frp_max_mw": 0.8,
        "edad_min_h": 5.4,
        "ultima_deteccion_utc": "2026-09-14 02:38:00",
        "sensores": "VIIRS_SNPP_NRT",
        "satellites": "N",
        "instruments": "VIIRS",
        "popup_label": "<strong>ALERT-20260914-058<\/strong><br>Nivel: media<br>Focos: 1<br>Últimas 6 h: 1<br>FRP total: 0.8 MW<br>Última detección UTC: 2026-09-14 02:38:00"
      }
    },
    {
      "type": "Feature",
      "geometry": {
        "type": "Point",
        "coordinates": [-7.5352, 33.0549]
      },
      "properties": {
        "cluster_id": "ALERT-20260914-059",
        "alerta_operativa": "media",
        "score": 9.1,
        "n_focos": 1,
        "n_ultimas_6h": 1,
        "n_ultimas_24h": 1,
        "frp_total_mw": 0.7,
        "frp_max_mw": 0.7,
        "edad_min_h": 5.4,
        "ultima_deteccion_utc": "2026-09-14 02:41:00",
        "sensores": "VIIRS_SNPP_NRT",
        "satellites": "N",
        "instruments": "VIIRS",
        "popup_label": "<strong>ALERT-20260914-059<\/strong><br>Nivel: media<br>Focos: 1<br>Últimas 6 h: 1<br>FRP total: 0.7 MW<br>Última detección UTC: 2026-09-14 02:41:00"
      }
    },
    {
      "type": "Feature",
      "geometry": {
        "type": "Point",
        "coordinates": [-3.7742, 38.077]
      },
      "properties": {
        "cluster_id": "ALERT-20260914-060",
        "alerta_operativa": "media",
        "score": 9,
        "n_focos": 2,
        "n_ultimas_6h": 0,
        "n_ultimas_24h": 2,
        "frp_total_mw": 3.4,
        "frp_max_mw": 2.1,
        "edad_min_h": 19.4,
        "ultima_deteccion_utc": "2026-09-13 12:38:00",
        "sensores": "VIIRS_SNPP_NRT",
        "satellites": "N",
        "instruments": "VIIRS",
        "popup_label": "<strong>ALERT-20260914-060<\/strong><br>Nivel: media<br>Focos: 2<br>Últimas 6 h: 0<br>FRP total: 3.4 MW<br>Última detección UTC: 2026-09-13 12:38:00"
      }
    },
    {
      "type": "Feature",
      "geometry": {
        "type": "Point",
        "coordinates": [-2.7742, 43.2063]
      },
      "properties": {
        "cluster_id": "ALERT-20260914-061",
        "alerta_operativa": "media",
        "score": 8.9,
        "n_focos": 1,
        "n_ultimas_6h": 1,
        "n_ultimas_24h": 1,
        "frp_total_mw": 0.6,
        "frp_max_mw": 0.6,
        "edad_min_h": 5.4,
        "ultima_deteccion_utc": "2026-09-14 02:36:00",
        "sensores": "VIIRS_SNPP_NRT",
        "satellites": "N",
        "instruments": "VIIRS",
        "popup_label": "<strong>ALERT-20260914-061<\/strong><br>Nivel: media<br>Focos: 1<br>Últimas 6 h: 1<br>FRP total: 0.6 MW<br>Última detección UTC: 2026-09-14 02:36:00"
      }
    },
    {
      "type": "Feature",
      "geometry": {
        "type": "Point",
        "coordinates": [1.2278, 43.9876]
      },
      "properties": {
        "cluster_id": "ALERT-20260914-062",
        "alerta_operativa": "media",
        "score": 8.7,
        "n_focos": 1,
        "n_ultimas_6h": 1,
        "n_ultimas_24h": 1,
        "frp_total_mw": 0.4,
        "frp_max_mw": 0.4,
        "edad_min_h": 5.4,
        "ultima_deteccion_utc": "2026-09-14 02:36:00",
        "sensores": "VIIRS_SNPP_NRT",
        "satellites": "N",
        "instruments": "VIIRS",
        "popup_label": "<strong>ALERT-20260914-062<\/strong><br>Nivel: media<br>Focos: 1<br>Últimas 6 h: 1<br>FRP total: 0.4 MW<br>Última detección UTC: 2026-09-14 02:36:00"
      }
    },
    {
      "type": "Feature",
      "geometry": {
        "type": "Point",
        "coordinates": [0.5407, 40.5746]
      },
      "properties": {
        "cluster_id": "ALERT-20260914-063",
        "alerta_operativa": "media",
        "score": 8.4,
        "n_focos": 2,
        "n_ultimas_6h": 0,
        "n_ultimas_24h": 2,
        "frp_total_mw": 2.3,
        "frp_max_mw": 1.2,
        "edad_min_h": 6.8,
        "ultima_deteccion_utc": "2026-09-14 01:15:00",
        "sensores": "VIIRS_NOAA20_NRT, VIIRS_SNPP_NRT",
        "satellites": "N, N20",
        "instruments": "VIIRS",
        "popup_label": "<strong>ALERT-20260914-063<\/strong><br>Nivel: media<br>Focos: 2<br>Últimas 6 h: 0<br>FRP total: 2.3 MW<br>Última detección UTC: 2026-09-14 01:15:00"
      }
    },
    {
      "type": "Feature",
      "geometry": {
        "type": "Point",
        "coordinates": [3.2879, 34.2355]
      },
      "properties": {
        "cluster_id": "ALERT-20260914-064",
        "alerta_operativa": "media",
        "score": 8.2,
        "n_focos": 2,
        "n_ultimas_6h": 0,
        "n_ultimas_24h": 2,
        "frp_total_mw": 2,
        "frp_max_mw": 1.1,
        "edad_min_h": 19.4,
        "ultima_deteccion_utc": "2026-09-13 12:36:00",
        "sensores": "VIIRS_SNPP_NRT",
        "satellites": "N",
        "instruments": "VIIRS",
        "popup_label": "<strong>ALERT-20260914-064<\/strong><br>Nivel: media<br>Focos: 2<br>Últimas 6 h: 0<br>FRP total: 2 MW<br>Última detección UTC: 2026-09-13 12:36:00"
      }
    },
    {
      "type": "Feature",
      "geometry": {
        "type": "Point",
        "coordinates": [2.9291, 36.1402]
      },
      "properties": {
        "cluster_id": "ALERT-20260914-065",
        "alerta_operativa": "media",
        "score": 8.1,
        "n_focos": 2,
        "n_ultimas_6h": 0,
        "n_ultimas_24h": 2,
        "frp_total_mw": 1.9,
        "frp_max_mw": 1.5,
        "edad_min_h": 6.8,
        "ultima_deteccion_utc": "2026-09-14 01:15:00",
        "sensores": "VIIRS_NOAA20_NRT",
        "satellites": "N20",
        "instruments": "VIIRS",
        "popup_label": "<strong>ALERT-20260914-065<\/strong><br>Nivel: media<br>Focos: 2<br>Últimas 6 h: 0<br>FRP total: 1.9 MW<br>Última detección UTC: 2026-09-14 01:15:00"
      }
    },
    {
      "type": "Feature",
      "geometry": {
        "type": "Point",
        "coordinates": [-8.7508, 37.1928]
      },
      "properties": {
        "cluster_id": "ALERT-20260914-066",
        "alerta_operativa": "seguimiento",
        "score": 8.9,
        "n_focos": 1,
        "n_ultimas_6h": 0,
        "n_ultimas_24h": 1,
        "frp_total_mw": 18,
        "frp_max_mw": 18,
        "edad_min_h": 17.7,
        "ultima_deteccion_utc": "2026-09-13 14:18:00",
        "sensores": "VIIRS_SNPP_NRT",
        "satellites": "N",
        "instruments": "VIIRS",
        "popup_label": "<strong>ALERT-20260914-066<\/strong><br>Nivel: seguimiento<br>Focos: 1<br>Últimas 6 h: 0<br>FRP total: 18 MW<br>Última detección UTC: 2026-09-13 14:18:00"
      }
    },
    {
      "type": "Feature",
      "geometry": {
        "type": "Point",
        "coordinates": [-8.7343, 39.789]
      },
      "properties": {
        "cluster_id": "ALERT-20260914-067",
        "alerta_operativa": "seguimiento",
        "score": 7.9,
        "n_focos": 1,
        "n_ultimas_6h": 0,
        "n_ultimas_24h": 1,
        "frp_total_mw": 10.8,
        "frp_max_mw": 10.8,
        "edad_min_h": 19.1,
        "ultima_deteccion_utc": "2026-09-13 12:57:00",
        "sensores": "VIIRS_NOAA20_NRT",
        "satellites": "N20",
        "instruments": "VIIRS",
        "popup_label": "<strong>ALERT-20260914-067<\/strong><br>Nivel: seguimiento<br>Focos: 1<br>Últimas 6 h: 0<br>FRP total: 10.8 MW<br>Última detección UTC: 2026-09-13 12:57:00"
      }
    },
    {
      "type": "Feature",
      "geometry": {
        "type": "Point",
        "coordinates": [4.4771, 35.7087]
      },
      "properties": {
        "cluster_id": "ALERT-20260914-068",
        "alerta_operativa": "seguimiento",
        "score": 7.5,
        "n_focos": 3,
        "n_ultimas_6h": 0,
        "n_ultimas_24h": 1,
        "frp_total_mw": 2.5,
        "frp_max_mw": 1,
        "edad_min_h": 6.8,
        "ultima_deteccion_utc": "2026-09-14 01:15:00",
        "sensores": "VIIRS_NOAA20_NRT, VIIRS_SNPP_NRT",
        "satellites": "N, N20",
        "instruments": "VIIRS",
        "popup_label": "<strong>ALERT-20260914-068<\/strong><br>Nivel: seguimiento<br>Focos: 3<br>Últimas 6 h: 0<br>FRP total: 2.5 MW<br>Última detección UTC: 2026-09-14 01:15:00"
      }
    },
    {
      "type": "Feature",
      "geometry": {
        "type": "Point",
        "coordinates": [-1.4871, 41.4739]
      },
      "properties": {
        "cluster_id": "ALERT-20260914-069",
        "alerta_operativa": "seguimiento",
        "score": 7.5,
        "n_focos": 3,
        "n_ultimas_6h": 0,
        "n_ultimas_24h": 1,
        "frp_total_mw": 2.5,
        "frp_max_mw": 1.1,
        "edad_min_h": 6.8,
        "ultima_deteccion_utc": "2026-09-14 01:15:00",
        "sensores": "VIIRS_NOAA20_NRT, VIIRS_SNPP_NRT",
        "satellites": "N, N20",
        "instruments": "VIIRS",
        "popup_label": "<strong>ALERT-20260914-069<\/strong><br>Nivel: seguimiento<br>Focos: 3<br>Últimas 6 h: 0<br>FRP total: 2.5 MW<br>Última detección UTC: 2026-09-14 01:15:00"
      }
    },
    {
      "type": "Feature",
      "geometry": {
        "type": "Point",
        "coordinates": [-1.6348, 37.4386]
      },
      "properties": {
        "cluster_id": "ALERT-20260914-070",
        "alerta_operativa": "seguimiento",
        "score": 7.3,
        "n_focos": 1,
        "n_ultimas_6h": 0,
        "n_ultimas_24h": 1,
        "frp_total_mw": 7.4,
        "frp_max_mw": 7.4,
        "edad_min_h": 19.1,
        "ultima_deteccion_utc": "2026-09-13 12:55:00",
        "sensores": "VIIRS_NOAA20_NRT",
        "satellites": "N20",
        "instruments": "VIIRS",
        "popup_label": "<strong>ALERT-20260914-070<\/strong><br>Nivel: seguimiento<br>Focos: 1<br>Últimas 6 h: 0<br>FRP total: 7.4 MW<br>Última detección UTC: 2026-09-13 12:55:00"
      }
    },
    {
      "type": "Feature",
      "geometry": {
        "type": "Point",
        "coordinates": [-2.0212, 43.2752]
      },
      "properties": {
        "cluster_id": "ALERT-20260914-071",
        "alerta_operativa": "seguimiento",
        "score": 6.9,
        "n_focos": 1,
        "n_ultimas_6h": 0,
        "n_ultimas_24h": 1,
        "frp_total_mw": 6.2,
        "frp_max_mw": 6.2,
        "edad_min_h": 17.7,
        "ultima_deteccion_utc": "2026-09-13 14:20:00",
        "sensores": "VIIRS_SNPP_NRT",
        "satellites": "N",
        "instruments": "VIIRS",
        "popup_label": "<strong>ALERT-20260914-071<\/strong><br>Nivel: seguimiento<br>Focos: 1<br>Últimas 6 h: 0<br>FRP total: 6.2 MW<br>Última detección UTC: 2026-09-13 14:20:00"
      }
    },
    {
      "type": "Feature",
      "geometry": {
        "type": "Point",
        "coordinates": [0.6331, 36.2515]
      },
      "properties": {
        "cluster_id": "ALERT-20260914-072",
        "alerta_operativa": "seguimiento",
        "score": 6.3,
        "n_focos": 1,
        "n_ultimas_6h": 0,
        "n_ultimas_24h": 1,
        "frp_total_mw": 4.3,
        "frp_max_mw": 4.3,
        "edad_min_h": 19.1,
        "ultima_deteccion_utc": "2026-09-13 12:55:00",
        "sensores": "VIIRS_NOAA20_NRT",
        "satellites": "N20",
        "instruments": "VIIRS",
        "popup_label": "<strong>ALERT-20260914-072<\/strong><br>Nivel: seguimiento<br>Focos: 1<br>Últimas 6 h: 0<br>FRP total: 4.3 MW<br>Última detección UTC: 2026-09-13 12:55:00"
      }
    },
    {
      "type": "Feature",
      "geometry": {
        "type": "Point",
        "coordinates": [-0.7771, 38.6276]
      },
      "properties": {
        "cluster_id": "ALERT-20260914-073",
        "alerta_operativa": "seguimiento",
        "score": 6.3,
        "n_focos": 1,
        "n_ultimas_6h": 0,
        "n_ultimas_24h": 1,
        "frp_total_mw": 4.3,
        "frp_max_mw": 4.3,
        "edad_min_h": 19.1,
        "ultima_deteccion_utc": "2026-09-13 12:55:00",
        "sensores": "VIIRS_NOAA20_NRT",
        "satellites": "N20",
        "instruments": "VIIRS",
        "popup_label": "<strong>ALERT-20260914-073<\/strong><br>Nivel: seguimiento<br>Focos: 1<br>Últimas 6 h: 0<br>FRP total: 4.3 MW<br>Última detección UTC: 2026-09-13 12:55:00"
      }
    },
    {
      "type": "Feature",
      "geometry": {
        "type": "Point",
        "coordinates": [4.1458, 32.0755]
      },
      "properties": {
        "cluster_id": "ALERT-20260914-074",
        "alerta_operativa": "seguimiento",
        "score": 6.1,
        "n_focos": 1,
        "n_ultimas_6h": 0,
        "n_ultimas_24h": 1,
        "frp_total_mw": 3.7,
        "frp_max_mw": 3.7,
        "edad_min_h": 19.4,
        "ultima_deteccion_utc": "2026-09-13 12:36:00",
        "sensores": "VIIRS_SNPP_NRT",
        "satellites": "N",
        "instruments": "VIIRS",
        "popup_label": "<strong>ALERT-20260914-074<\/strong><br>Nivel: seguimiento<br>Focos: 1<br>Últimas 6 h: 0<br>FRP total: 3.7 MW<br>Última detección UTC: 2026-09-13 12:36:00"
      }
    },
    {
      "type": "Feature",
      "geometry": {
        "type": "Point",
        "coordinates": [-4.7186, 39.9748]
      },
      "properties": {
        "cluster_id": "ALERT-20260914-075",
        "alerta_operativa": "seguimiento",
        "score": 6,
        "n_focos": 1,
        "n_ultimas_6h": 0,
        "n_ultimas_24h": 1,
        "frp_total_mw": 3.5,
        "frp_max_mw": 3.5,
        "edad_min_h": 17.7,
        "ultima_deteccion_utc": "2026-09-13 14:18:00",
        "sensores": "VIIRS_SNPP_NRT",
        "satellites": "N",
        "instruments": "VIIRS",
        "popup_label": "<strong>ALERT-20260914-075<\/strong><br>Nivel: seguimiento<br>Focos: 1<br>Últimas 6 h: 0<br>FRP total: 3.5 MW<br>Última detección UTC: 2026-09-13 14:18:00"
      }
    },
    {
      "type": "Feature",
      "geometry": {
        "type": "Point",
        "coordinates": [2.5223, 34.6512]
      },
      "properties": {
        "cluster_id": "ALERT-20260914-076",
        "alerta_operativa": "seguimiento",
        "score": 6,
        "n_focos": 1,
        "n_ultimas_6h": 0,
        "n_ultimas_24h": 1,
        "frp_total_mw": 3.4,
        "frp_max_mw": 3.4,
        "edad_min_h": 19.4,
        "ultima_deteccion_utc": "2026-09-13 12:36:00",
        "sensores": "VIIRS_SNPP_NRT",
        "satellites": "N",
        "instruments": "VIIRS",
        "popup_label": "<strong>ALERT-20260914-076<\/strong><br>Nivel: seguimiento<br>Focos: 1<br>Últimas 6 h: 0<br>FRP total: 3.4 MW<br>Última detección UTC: 2026-09-13 12:36:00"
      }
    },
    {
      "type": "Feature",
      "geometry": {
        "type": "Point",
        "coordinates": [0.8041, 34.5297]
      },
      "properties": {
        "cluster_id": "ALERT-20260914-077",
        "alerta_operativa": "seguimiento",
        "score": 5.9,
        "n_focos": 1,
        "n_ultimas_6h": 0,
        "n_ultimas_24h": 1,
        "frp_total_mw": 3.3,
        "frp_max_mw": 3.3,
        "edad_min_h": 19.1,
        "ultima_deteccion_utc": "2026-09-13 12:55:00",
        "sensores": "VIIRS_NOAA20_NRT",
        "satellites": "N20",
        "instruments": "VIIRS",
        "popup_label": "<strong>ALERT-20260914-077<\/strong><br>Nivel: seguimiento<br>Focos: 1<br>Últimas 6 h: 0<br>FRP total: 3.3 MW<br>Última detección UTC: 2026-09-13 12:55:00"
      }
    },
    {
      "type": "Feature",
      "geometry": {
        "type": "Point",
        "coordinates": [-8.4461, 32.621]
      },
      "properties": {
        "cluster_id": "ALERT-20260914-078",
        "alerta_operativa": "seguimiento",
        "score": 5.8,
        "n_focos": 1,
        "n_ultimas_6h": 0,
        "n_ultimas_24h": 1,
        "frp_total_mw": 3.1,
        "frp_max_mw": 3.1,
        "edad_min_h": 19.1,
        "ultima_deteccion_utc": "2026-09-13 12:55:00",
        "sensores": "VIIRS_NOAA20_NRT",
        "satellites": "N20",
        "instruments": "VIIRS",
        "popup_label": "<strong>ALERT-20260914-078<\/strong><br>Nivel: seguimiento<br>Focos: 1<br>Últimas 6 h: 0<br>FRP total: 3.1 MW<br>Última detección UTC: 2026-09-13 12:55:00"
      }
    },
    {
      "type": "Feature",
      "geometry": {
        "type": "Point",
        "coordinates": [-0.9693, 38.7109]
      },
      "properties": {
        "cluster_id": "ALERT-20260914-079",
        "alerta_operativa": "seguimiento",
        "score": 5.8,
        "n_focos": 1,
        "n_ultimas_6h": 0,
        "n_ultimas_24h": 1,
        "frp_total_mw": 3.1,
        "frp_max_mw": 3.1,
        "edad_min_h": 19.1,
        "ultima_deteccion_utc": "2026-09-13 12:55:00",
        "sensores": "VIIRS_NOAA20_NRT",
        "satellites": "N20",
        "instruments": "VIIRS",
        "popup_label": "<strong>ALERT-20260914-079<\/strong><br>Nivel: seguimiento<br>Focos: 1<br>Últimas 6 h: 0<br>FRP total: 3.1 MW<br>Última detección UTC: 2026-09-13 12:55:00"
      }
    },
    {
      "type": "Feature",
      "geometry": {
        "type": "Point",
        "coordinates": [0.2387, 44.4606]
      },
      "properties": {
        "cluster_id": "ALERT-20260914-080",
        "alerta_operativa": "seguimiento",
        "score": 5.8,
        "n_focos": 1,
        "n_ultimas_6h": 0,
        "n_ultimas_24h": 1,
        "frp_total_mw": 3,
        "frp_max_mw": 3,
        "edad_min_h": 19.1,
        "ultima_deteccion_utc": "2026-09-13 12:57:00",
        "sensores": "VIIRS_NOAA20_NRT",
        "satellites": "N20",
        "instruments": "VIIRS",
        "popup_label": "<strong>ALERT-20260914-080<\/strong><br>Nivel: seguimiento<br>Focos: 1<br>Últimas 6 h: 0<br>FRP total: 3 MW<br>Última detección UTC: 2026-09-13 12:57:00"
      }
    },
    {
      "type": "Feature",
      "geometry": {
        "type": "Point",
        "coordinates": [-8.2033, 32.9523]
      },
      "properties": {
        "cluster_id": "ALERT-20260914-081",
        "alerta_operativa": "seguimiento",
        "score": 5.7,
        "n_focos": 1,
        "n_ultimas_6h": 0,
        "n_ultimas_24h": 1,
        "frp_total_mw": 2.8,
        "frp_max_mw": 2.8,
        "edad_min_h": 17.8,
        "ultima_deteccion_utc": "2026-09-13 14:16:00",
        "sensores": "VIIRS_SNPP_NRT",
        "satellites": "N",
        "instruments": "VIIRS",
        "popup_label": "<strong>ALERT-20260914-081<\/strong><br>Nivel: seguimiento<br>Focos: 1<br>Últimas 6 h: 0<br>FRP total: 2.8 MW<br>Última detección UTC: 2026-09-13 14:16:00"
      }
    },
    {
      "type": "Feature",
      "geometry": {
        "type": "Point",
        "coordinates": [3.0389, 44.1774]
      },
      "properties": {
        "cluster_id": "ALERT-20260914-082",
        "alerta_operativa": "seguimiento",
        "score": 5.6,
        "n_focos": 1,
        "n_ultimas_6h": 0,
        "n_ultimas_24h": 1,
        "frp_total_mw": 2.7,
        "frp_max_mw": 2.7,
        "edad_min_h": 19.4,
        "ultima_deteccion_utc": "2026-09-13 12:38:00",
        "sensores": "VIIRS_SNPP_NRT",
        "satellites": "N",
        "instruments": "VIIRS",
        "popup_label": "<strong>ALERT-20260914-082<\/strong><br>Nivel: seguimiento<br>Focos: 1<br>Últimas 6 h: 0<br>FRP total: 2.7 MW<br>Última detección UTC: 2026-09-13 12:38:00"
      }
    },
    {
      "type": "Feature",
      "geometry": {
        "type": "Point",
        "coordinates": [0.4109, 41.5399]
      },
      "properties": {
        "cluster_id": "ALERT-20260914-083",
        "alerta_operativa": "seguimiento",
        "score": 5.4,
        "n_focos": 1,
        "n_ultimas_6h": 0,
        "n_ultimas_24h": 1,
        "frp_total_mw": 2.3,
        "frp_max_mw": 2.3,
        "edad_min_h": 19.4,
        "ultima_deteccion_utc": "2026-09-13 12:38:00",
        "sensores": "VIIRS_SNPP_NRT",
        "satellites": "N",
        "instruments": "VIIRS",
        "popup_label": "<strong>ALERT-20260914-083<\/strong><br>Nivel: seguimiento<br>Focos: 1<br>Últimas 6 h: 0<br>FRP total: 2.3 MW<br>Última detección UTC: 2026-09-13 12:38:00"
      }
    },
    {
      "type": "Feature",
      "geometry": {
        "type": "Point",
        "coordinates": [-7.2692, 32.9163]
      },
      "properties": {
        "cluster_id": "ALERT-20260914-084",
        "alerta_operativa": "seguimiento",
        "score": 5.1,
        "n_focos": 1,
        "n_ultimas_6h": 0,
        "n_ultimas_24h": 1,
        "frp_total_mw": 1.9,
        "frp_max_mw": 1.9,
        "edad_min_h": 19.1,
        "ultima_deteccion_utc": "2026-09-13 12:55:00",
        "sensores": "VIIRS_NOAA20_NRT",
        "satellites": "N20",
        "instruments": "VIIRS",
        "popup_label": "<strong>ALERT-20260914-084<\/strong><br>Nivel: seguimiento<br>Focos: 1<br>Últimas 6 h: 0<br>FRP total: 1.9 MW<br>Última detección UTC: 2026-09-13 12:55:00"
      }
    },
    {
      "type": "Feature",
      "geometry": {
        "type": "Point",
        "coordinates": [0.8905, 41.6321]
      },
      "properties": {
        "cluster_id": "ALERT-20260914-085",
        "alerta_operativa": "seguimiento",
        "score": 5,
        "n_focos": 1,
        "n_ultimas_6h": 0,
        "n_ultimas_24h": 1,
        "frp_total_mw": 1.7,
        "frp_max_mw": 1.7,
        "edad_min_h": 19.1,
        "ultima_deteccion_utc": "2026-09-13 12:57:00",
        "sensores": "VIIRS_NOAA20_NRT",
        "satellites": "N20",
        "instruments": "VIIRS",
        "popup_label": "<strong>ALERT-20260914-085<\/strong><br>Nivel: seguimiento<br>Focos: 1<br>Últimas 6 h: 0<br>FRP total: 1.7 MW<br>Última detección UTC: 2026-09-13 12:57:00"
      }
    },
    {
      "type": "Feature",
      "geometry": {
        "type": "Point",
        "coordinates": [0.1258, 36.0179]
      },
      "properties": {
        "cluster_id": "ALERT-20260914-086",
        "alerta_operativa": "seguimiento",
        "score": 4.8,
        "n_focos": 1,
        "n_ultimas_6h": 0,
        "n_ultimas_24h": 1,
        "frp_total_mw": 1.5,
        "frp_max_mw": 1.5,
        "edad_min_h": 19.1,
        "ultima_deteccion_utc": "2026-09-13 12:55:00",
        "sensores": "VIIRS_NOAA20_NRT",
        "satellites": "N20",
        "instruments": "VIIRS",
        "popup_label": "<strong>ALERT-20260914-086<\/strong><br>Nivel: seguimiento<br>Focos: 1<br>Últimas 6 h: 0<br>FRP total: 1.5 MW<br>Última detección UTC: 2026-09-13 12:55:00"
      }
    },
    {
      "type": "Feature",
      "geometry": {
        "type": "Point",
        "coordinates": [-3.7266, 37.0987]
      },
      "properties": {
        "cluster_id": "ALERT-20260914-087",
        "alerta_operativa": "seguimiento",
        "score": 4.8,
        "n_focos": 1,
        "n_ultimas_6h": 0,
        "n_ultimas_24h": 1,
        "frp_total_mw": 1.5,
        "frp_max_mw": 1.5,
        "edad_min_h": 19.1,
        "ultima_deteccion_utc": "2026-09-13 12:55:00",
        "sensores": "VIIRS_NOAA20_NRT",
        "satellites": "N20",
        "instruments": "VIIRS",
        "popup_label": "<strong>ALERT-20260914-087<\/strong><br>Nivel: seguimiento<br>Focos: 1<br>Últimas 6 h: 0<br>FRP total: 1.5 MW<br>Última detección UTC: 2026-09-13 12:55:00"
      }
    },
    {
      "type": "Feature",
      "geometry": {
        "type": "Point",
        "coordinates": [3.822, 44.137]
      },
      "properties": {
        "cluster_id": "ALERT-20260914-088",
        "alerta_operativa": "seguimiento",
        "score": 4.4,
        "n_focos": 1,
        "n_ultimas_6h": 0,
        "n_ultimas_24h": 1,
        "frp_total_mw": 1,
        "frp_max_mw": 1,
        "edad_min_h": 6.8,
        "ultima_deteccion_utc": "2026-09-14 01:13:00",
        "sensores": "VIIRS_NOAA20_NRT",
        "satellites": "N20",
        "instruments": "VIIRS",
        "popup_label": "<strong>ALERT-20260914-088<\/strong><br>Nivel: seguimiento<br>Focos: 1<br>Últimas 6 h: 0<br>FRP total: 1 MW<br>Última detección UTC: 2026-09-14 01:13:00"
      }
    },
    {
      "type": "Feature",
      "geometry": {
        "type": "Point",
        "coordinates": [-4.9715, 41.0718]
      },
      "properties": {
        "cluster_id": "ALERT-20260914-089",
        "alerta_operativa": "seguimiento",
        "score": 4.3,
        "n_focos": 1,
        "n_ultimas_6h": 0,
        "n_ultimas_24h": 1,
        "frp_total_mw": 0.9,
        "frp_max_mw": 0.9,
        "edad_min_h": 19.4,
        "ultima_deteccion_utc": "2026-09-13 12:38:00",
        "sensores": "VIIRS_SNPP_NRT",
        "satellites": "N",
        "instruments": "VIIRS",
        "popup_label": "<strong>ALERT-20260914-089<\/strong><br>Nivel: seguimiento<br>Focos: 1<br>Últimas 6 h: 0<br>FRP total: 0.9 MW<br>Última detección UTC: 2026-09-13 12:38:00"
      }
    },
    {
      "type": "Feature",
      "geometry": {
        "type": "Point",
        "coordinates": [-0.9422, 35.5655]
      },
      "properties": {
        "cluster_id": "ALERT-20260914-090",
        "alerta_operativa": "seguimiento",
        "score": 4.2,
        "n_focos": 1,
        "n_ultimas_6h": 0,
        "n_ultimas_24h": 1,
        "frp_total_mw": 0.8,
        "frp_max_mw": 0.8,
        "edad_min_h": 6.8,
        "ultima_deteccion_utc": "2026-09-14 01:15:00",
        "sensores": "VIIRS_NOAA20_NRT",
        "satellites": "N20",
        "instruments": "VIIRS",
        "popup_label": "<strong>ALERT-20260914-090<\/strong><br>Nivel: seguimiento<br>Focos: 1<br>Últimas 6 h: 0<br>FRP total: 0.8 MW<br>Última detección UTC: 2026-09-14 01:15:00"
      }
    },
    {
      "type": "Feature",
      "geometry": {
        "type": "Point",
        "coordinates": [4.6936, 44.0916]
      },
      "properties": {
        "cluster_id": "ALERT-20260914-091",
        "alerta_operativa": "seguimiento",
        "score": 4.2,
        "n_focos": 1,
        "n_ultimas_6h": 0,
        "n_ultimas_24h": 1,
        "frp_total_mw": 0.8,
        "frp_max_mw": 0.8,
        "edad_min_h": 6.8,
        "ultima_deteccion_utc": "2026-09-14 01:13:00",
        "sensores": "VIIRS_NOAA20_NRT",
        "satellites": "N20",
        "instruments": "VIIRS",
        "popup_label": "<strong>ALERT-20260914-091<\/strong><br>Nivel: seguimiento<br>Focos: 1<br>Últimas 6 h: 0<br>FRP total: 0.8 MW<br>Última detección UTC: 2026-09-14 01:13:00"
      }
    },
    {
      "type": "Feature",
      "geometry": {
        "type": "Point",
        "coordinates": [-4.7304, 37.545]
      },
      "properties": {
        "cluster_id": "ALERT-20260914-092",
        "alerta_operativa": "informativa",
        "score": 10.8,
        "n_focos": 6,
        "n_ultimas_6h": 0,
        "n_ultimas_24h": 0,
        "frp_total_mw": 10.3,
        "frp_max_mw": 3.1,
        "edad_min_h": 28.8,
        "ultima_deteccion_utc": "2026-09-13 03:17:00",
        "sensores": "VIIRS_NOAA20_NRT, VIIRS_SNPP_NRT",
        "satellites": "N, N20",
        "instruments": "VIIRS",
        "popup_label": "<strong>ALERT-20260914-092<\/strong><br>Nivel: informativa<br>Focos: 6<br>Últimas 6 h: 0<br>FRP total: 10.3 MW<br>Última detección UTC: 2026-09-13 03:17:00"
      }
    },
    {
      "type": "Feature",
      "geometry": {
        "type": "Point",
        "coordinates": [-7.6647, 37.8642]
      },
      "properties": {
        "cluster_id": "ALERT-20260914-093",
        "alerta_operativa": "informativa",
        "score": 8.1,
        "n_focos": 4,
        "n_ultimas_6h": 0,
        "n_ultimas_24h": 0,
        "frp_total_mw": 6.6,
        "frp_max_mw": 2.8,
        "edad_min_h": 29.1,
        "ultima_deteccion_utc": "2026-09-13 02:56:00",
        "sensores": "VIIRS_NOAA20_NRT, VIIRS_SNPP_NRT",
        "satellites": "N, N20",
        "instruments": "VIIRS",
        "popup_label": "<strong>ALERT-20260914-093<\/strong><br>Nivel: informativa<br>Focos: 4<br>Últimas 6 h: 0<br>FRP total: 6.6 MW<br>Última detección UTC: 2026-09-13 02:56:00"
      }
    },
    {
      "type": "Feature",
      "geometry": {
        "type": "Point",
        "coordinates": [-6.708, 37.2925]
      },
      "properties": {
        "cluster_id": "ALERT-20260914-094",
        "alerta_operativa": "informativa",
        "score": 7.1,
        "n_focos": 2,
        "n_ultimas_6h": 0,
        "n_ultimas_24h": 0,
        "frp_total_mw": 11.9,
        "frp_max_mw": 6,
        "edad_min_h": 30.4,
        "ultima_deteccion_utc": "2026-09-13 01:37:00",
        "sensores": "VIIRS_NOAA20_NRT",
        "satellites": "N20",
        "instruments": "VIIRS",
        "popup_label": "<strong>ALERT-20260914-094<\/strong><br>Nivel: informativa<br>Focos: 2<br>Últimas 6 h: 0<br>FRP total: 11.9 MW<br>Última detección UTC: 2026-09-13 01:37:00"
      }
    },
    {
      "type": "Feature",
      "geometry": {
        "type": "Point",
        "coordinates": [0.1798, 41.926]
      },
      "properties": {
        "cluster_id": "ALERT-20260914-095",
        "alerta_operativa": "informativa",
        "score": 5.9,
        "n_focos": 3,
        "n_ultimas_6h": 0,
        "n_ultimas_24h": 0,
        "frp_total_mw": 3.3,
        "frp_max_mw": 1.6,
        "edad_min_h": 28.8,
        "ultima_deteccion_utc": "2026-09-13 03:15:00",
        "sensores": "VIIRS_NOAA20_NRT, VIIRS_SNPP_NRT",
        "satellites": "N, N20",
        "instruments": "VIIRS",
        "popup_label": "<strong>ALERT-20260914-095<\/strong><br>Nivel: informativa<br>Focos: 3<br>Últimas 6 h: 0<br>FRP total: 3.3 MW<br>Última detección UTC: 2026-09-13 03:15:00"
      }
    },
    {
      "type": "Feature",
      "geometry": {
        "type": "Point",
        "coordinates": [-8.0714, 31.7052]
      },
      "properties": {
        "cluster_id": "ALERT-20260914-096",
        "alerta_operativa": "informativa",
        "score": 5.7,
        "n_focos": 3,
        "n_ultimas_6h": 0,
        "n_ultimas_24h": 0,
        "frp_total_mw": 2.8,
        "frp_max_mw": 1,
        "edad_min_h": 29.1,
        "ultima_deteccion_utc": "2026-09-13 02:58:00",
        "sensores": "VIIRS_NOAA20_NRT, VIIRS_SNPP_NRT",
        "satellites": "N, N20",
        "instruments": "VIIRS",
        "popup_label": "<strong>ALERT-20260914-096<\/strong><br>Nivel: informativa<br>Focos: 3<br>Últimas 6 h: 0<br>FRP total: 2.8 MW<br>Última detección UTC: 2026-09-13 02:58:00"
      }
    },
    {
      "type": "Feature",
      "geometry": {
        "type": "Point",
        "coordinates": [-4.9374, 37.6955]
      },
      "properties": {
        "cluster_id": "ALERT-20260914-097",
        "alerta_operativa": "informativa",
        "score": 5.6,
        "n_focos": 2,
        "n_ultimas_6h": 0,
        "n_ultimas_24h": 0,
        "frp_total_mw": 5.2,
        "frp_max_mw": 2.6,
        "edad_min_h": 30.4,
        "ultima_deteccion_utc": "2026-09-13 01:37:00",
        "sensores": "VIIRS_NOAA20_NRT",
        "satellites": "N20",
        "instruments": "VIIRS",
        "popup_label": "<strong>ALERT-20260914-097<\/strong><br>Nivel: informativa<br>Focos: 2<br>Últimas 6 h: 0<br>FRP total: 5.2 MW<br>Última detección UTC: 2026-09-13 01:37:00"
      }
    },
    {
      "type": "Feature",
      "geometry": {
        "type": "Point",
        "coordinates": [3.7472, 36.1778]
      },
      "properties": {
        "cluster_id": "ALERT-20260914-098",
        "alerta_operativa": "informativa",
        "score": 5.6,
        "n_focos": 2,
        "n_ultimas_6h": 0,
        "n_ultimas_24h": 0,
        "frp_total_mw": 5,
        "frp_max_mw": 2.8,
        "edad_min_h": 30.4,
        "ultima_deteccion_utc": "2026-09-13 01:37:00",
        "sensores": "VIIRS_NOAA20_NRT, VIIRS_SNPP_NRT",
        "satellites": "N, N20",
        "instruments": "VIIRS",
        "popup_label": "<strong>ALERT-20260914-098<\/strong><br>Nivel: informativa<br>Focos: 2<br>Últimas 6 h: 0<br>FRP total: 5 MW<br>Última detección UTC: 2026-09-13 01:37:00"
      }
    },
    {
      "type": "Feature",
      "geometry": {
        "type": "Point",
        "coordinates": [-5.9379, 34.9962]
      },
      "properties": {
        "cluster_id": "ALERT-20260914-099",
        "alerta_operativa": "informativa",
        "score": 5.5,
        "n_focos": 2,
        "n_ultimas_6h": 0,
        "n_ultimas_24h": 0,
        "frp_total_mw": 4.8,
        "frp_max_mw": 2.6,
        "edad_min_h": 28.8,
        "ultima_deteccion_utc": "2026-09-13 03:17:00",
        "sensores": "VIIRS_NOAA20_NRT, VIIRS_SNPP_NRT",
        "satellites": "N, N20",
        "instruments": "VIIRS",
        "popup_label": "<strong>ALERT-20260914-099<\/strong><br>Nivel: informativa<br>Focos: 2<br>Últimas 6 h: 0<br>FRP total: 4.8 MW<br>Última detección UTC: 2026-09-13 03:17:00"
      }
    },
    {
      "type": "Feature",
      "geometry": {
        "type": "Point",
        "coordinates": [1.2413, 36.1269]
      },
      "properties": {
        "cluster_id": "ALERT-20260914-100",
        "alerta_operativa": "informativa",
        "score": 4.1,
        "n_focos": 2,
        "n_ultimas_6h": 0,
        "n_ultimas_24h": 0,
        "frp_total_mw": 1.8,
        "frp_max_mw": 1.1,
        "edad_min_h": 30.4,
        "ultima_deteccion_utc": "2026-09-13 01:37:00",
        "sensores": "VIIRS_NOAA20_NRT, VIIRS_SNPP_NRT",
        "satellites": "N, N20",
        "instruments": "VIIRS",
        "popup_label": "<strong>ALERT-20260914-100<\/strong><br>Nivel: informativa<br>Focos: 2<br>Últimas 6 h: 0<br>FRP total: 1.8 MW<br>Última detección UTC: 2026-09-13 01:37:00"
      }
    },
    {
      "type": "Feature",
      "geometry": {
        "type": "Point",
        "coordinates": [-1.3446, 35.3115]
      },
      "properties": {
        "cluster_id": "ALERT-20260914-101",
        "alerta_operativa": "informativa",
        "score": 3.6,
        "n_focos": 2,
        "n_ultimas_6h": 0,
        "n_ultimas_24h": 0,
        "frp_total_mw": 1.2,
        "frp_max_mw": 0.6,
        "edad_min_h": 29.1,
        "ultima_deteccion_utc": "2026-09-13 02:56:00",
        "sensores": "VIIRS_NOAA20_NRT, VIIRS_SNPP_NRT",
        "satellites": "N, N20",
        "instruments": "VIIRS",
        "popup_label": "<strong>ALERT-20260914-101<\/strong><br>Nivel: informativa<br>Focos: 2<br>Últimas 6 h: 0<br>FRP total: 1.2 MW<br>Última detección UTC: 2026-09-13 02:56:00"
      }
    },
    {
      "type": "Feature",
      "geometry": {
        "type": "Point",
        "coordinates": [-6.5, 34.4372]
      },
      "properties": {
        "cluster_id": "ALERT-20260914-102",
        "alerta_operativa": "informativa",
        "score": 3.2,
        "n_focos": 1,
        "n_ultimas_6h": 0,
        "n_ultimas_24h": 0,
        "frp_total_mw": 2,
        "frp_max_mw": 2,
        "edad_min_h": 29.1,
        "ultima_deteccion_utc": "2026-09-13 02:58:00",
        "sensores": "VIIRS_SNPP_NRT",
        "satellites": "N",
        "instruments": "VIIRS",
        "popup_label": "<strong>ALERT-20260914-102<\/strong><br>Nivel: informativa<br>Focos: 1<br>Últimas 6 h: 0<br>FRP total: 2 MW<br>Última detección UTC: 2026-09-13 02:58:00"
      }
    },
    {
      "type": "Feature",
      "geometry": {
        "type": "Point",
        "coordinates": [-7.9648, 40.3601]
      },
      "properties": {
        "cluster_id": "ALERT-20260914-103",
        "alerta_operativa": "informativa",
        "score": 3.2,
        "n_focos": 1,
        "n_ultimas_6h": 0,
        "n_ultimas_24h": 0,
        "frp_total_mw": 2,
        "frp_max_mw": 2,
        "edad_min_h": 30.5,
        "ultima_deteccion_utc": "2026-09-13 01:34:00",
        "sensores": "VIIRS_NOAA20_NRT",
        "satellites": "N20",
        "instruments": "VIIRS",
        "popup_label": "<strong>ALERT-20260914-103<\/strong><br>Nivel: informativa<br>Focos: 1<br>Últimas 6 h: 0<br>FRP total: 2 MW<br>Última detección UTC: 2026-09-13 01:34:00"
      }
    },
    {
      "type": "Feature",
      "geometry": {
        "type": "Point",
        "coordinates": [-0.7421, 41.6473]
      },
      "properties": {
        "cluster_id": "ALERT-20260914-104",
        "alerta_operativa": "informativa",
        "score": 3.2,
        "n_focos": 2,
        "n_ultimas_6h": 0,
        "n_ultimas_24h": 0,
        "frp_total_mw": 0.8,
        "frp_max_mw": 0.4,
        "edad_min_h": 30.5,
        "ultima_deteccion_utc": "2026-09-13 01:34:00",
        "sensores": "VIIRS_NOAA20_NRT",
        "satellites": "N20",
        "instruments": "VIIRS",
        "popup_label": "<strong>ALERT-20260914-104<\/strong><br>Nivel: informativa<br>Focos: 2<br>Últimas 6 h: 0<br>FRP total: 0.8 MW<br>Última detección UTC: 2026-09-13 01:34:00"
      }
    },
    {
      "type": "Feature",
      "geometry": {
        "type": "Point",
        "coordinates": [-0.2768, 35.529]
      },
      "properties": {
        "cluster_id": "ALERT-20260914-105",
        "alerta_operativa": "informativa",
        "score": 2.8,
        "n_focos": 1,
        "n_ultimas_6h": 0,
        "n_ultimas_24h": 0,
        "frp_total_mw": 1.4,
        "frp_max_mw": 1.4,
        "edad_min_h": 29.1,
        "ultima_deteccion_utc": "2026-09-13 02:56:00",
        "sensores": "VIIRS_SNPP_NRT",
        "satellites": "N",
        "instruments": "VIIRS",
        "popup_label": "<strong>ALERT-20260914-105<\/strong><br>Nivel: informativa<br>Focos: 1<br>Últimas 6 h: 0<br>FRP total: 1.4 MW<br>Última detección UTC: 2026-09-13 02:56:00"
      }
    },
    {
      "type": "Feature",
      "geometry": {
        "type": "Point",
        "coordinates": [0.303, 28.1171]
      },
      "properties": {
        "cluster_id": "ALERT-20260914-106",
        "alerta_operativa": "informativa",
        "score": 2.8,
        "n_focos": 1,
        "n_ultimas_6h": 0,
        "n_ultimas_24h": 0,
        "frp_total_mw": 1.4,
        "frp_max_mw": 1.4,
        "edad_min_h": 30.4,
        "ultima_deteccion_utc": "2026-09-13 01:37:00",
        "sensores": "VIIRS_NOAA20_NRT",
        "satellites": "N20",
        "instruments": "VIIRS",
        "popup_label": "<strong>ALERT-20260914-106<\/strong><br>Nivel: informativa<br>Focos: 1<br>Últimas 6 h: 0<br>FRP total: 1.4 MW<br>Última detección UTC: 2026-09-13 01:37:00"
      }
    },
    {
      "type": "Feature",
      "geometry": {
        "type": "Point",
        "coordinates": [-5.8038, 35.5094]
      },
      "properties": {
        "cluster_id": "ALERT-20260914-107",
        "alerta_operativa": "informativa",
        "score": 2.6,
        "n_focos": 1,
        "n_ultimas_6h": 0,
        "n_ultimas_24h": 0,
        "frp_total_mw": 1.2,
        "frp_max_mw": 1.2,
        "edad_min_h": 29.1,
        "ultima_deteccion_utc": "2026-09-13 02:58:00",
        "sensores": "VIIRS_SNPP_NRT",
        "satellites": "N",
        "instruments": "VIIRS",
        "popup_label": "<strong>ALERT-20260914-107<\/strong><br>Nivel: informativa<br>Focos: 1<br>Últimas 6 h: 0<br>FRP total: 1.2 MW<br>Última detección UTC: 2026-09-13 02:58:00"
      }
    },
    {
      "type": "Feature",
      "geometry": {
        "type": "Point",
        "coordinates": [0.5395, 35.7823]
      },
      "properties": {
        "cluster_id": "ALERT-20260914-108",
        "alerta_operativa": "informativa",
        "score": 2.5,
        "n_focos": 1,
        "n_ultimas_6h": 0,
        "n_ultimas_24h": 0,
        "frp_total_mw": 1.1,
        "frp_max_mw": 1.1,
        "edad_min_h": 30.4,
        "ultima_deteccion_utc": "2026-09-13 01:37:00",
        "sensores": "VIIRS_NOAA20_NRT",
        "satellites": "N20",
        "instruments": "VIIRS",
        "popup_label": "<strong>ALERT-20260914-108<\/strong><br>Nivel: informativa<br>Focos: 1<br>Últimas 6 h: 0<br>FRP total: 1.1 MW<br>Última detección UTC: 2026-09-13 01:37:00"
      }
    },
    {
      "type": "Feature",
      "geometry": {
        "type": "Point",
        "coordinates": [-0.3975, 35.4605]
      },
      "properties": {
        "cluster_id": "ALERT-20260914-109",
        "alerta_operativa": "informativa",
        "score": 2.5,
        "n_focos": 1,
        "n_ultimas_6h": 0,
        "n_ultimas_24h": 0,
        "frp_total_mw": 1.1,
        "frp_max_mw": 1.1,
        "edad_min_h": 30.5,
        "ultima_deteccion_utc": "2026-09-13 01:34:00",
        "sensores": "VIIRS_NOAA20_NRT",
        "satellites": "N20",
        "instruments": "VIIRS",
        "popup_label": "<strong>ALERT-20260914-109<\/strong><br>Nivel: informativa<br>Focos: 1<br>Últimas 6 h: 0<br>FRP total: 1.1 MW<br>Última detección UTC: 2026-09-13 01:34:00"
      }
    },
    {
      "type": "Feature",
      "geometry": {
        "type": "Point",
        "coordinates": [-0.0033, 39.9517]
      },
      "properties": {
        "cluster_id": "ALERT-20260914-110",
        "alerta_operativa": "informativa",
        "score": 2.4,
        "n_focos": 1,
        "n_ultimas_6h": 0,
        "n_ultimas_24h": 0,
        "frp_total_mw": 1,
        "frp_max_mw": 1,
        "edad_min_h": 29.1,
        "ultima_deteccion_utc": "2026-09-13 02:56:00",
        "sensores": "VIIRS_SNPP_NRT",
        "satellites": "N",
        "instruments": "VIIRS",
        "popup_label": "<strong>ALERT-20260914-110<\/strong><br>Nivel: informativa<br>Focos: 1<br>Últimas 6 h: 0<br>FRP total: 1 MW<br>Última detección UTC: 2026-09-13 02:56:00"
      }
    },
    {
      "type": "Feature",
      "geometry": {
        "type": "Point",
        "coordinates": [0.329, 34.7998]
      },
      "properties": {
        "cluster_id": "ALERT-20260914-111",
        "alerta_operativa": "informativa",
        "score": 2.4,
        "n_focos": 1,
        "n_ultimas_6h": 0,
        "n_ultimas_24h": 0,
        "frp_total_mw": 1,
        "frp_max_mw": 1,
        "edad_min_h": 30.5,
        "ultima_deteccion_utc": "2026-09-13 01:34:00",
        "sensores": "VIIRS_NOAA20_NRT",
        "satellites": "N20",
        "instruments": "VIIRS",
        "popup_label": "<strong>ALERT-20260914-111<\/strong><br>Nivel: informativa<br>Focos: 1<br>Últimas 6 h: 0<br>FRP total: 1 MW<br>Última detección UTC: 2026-09-13 01:34:00"
      }
    },
    {
      "type": "Feature",
      "geometry": {
        "type": "Point",
        "coordinates": [-5.9468, 34.2749]
      },
      "properties": {
        "cluster_id": "ALERT-20260914-112",
        "alerta_operativa": "informativa",
        "score": 2.3,
        "n_focos": 1,
        "n_ultimas_6h": 0,
        "n_ultimas_24h": 0,
        "frp_total_mw": 0.9,
        "frp_max_mw": 0.9,
        "edad_min_h": 29.1,
        "ultima_deteccion_utc": "2026-09-13 02:58:00",
        "sensores": "VIIRS_SNPP_NRT",
        "satellites": "N",
        "instruments": "VIIRS",
        "popup_label": "<strong>ALERT-20260914-112<\/strong><br>Nivel: informativa<br>Focos: 1<br>Últimas 6 h: 0<br>FRP total: 0.9 MW<br>Última detección UTC: 2026-09-13 02:58:00"
      }
    },
    {
      "type": "Feature",
      "geometry": {
        "type": "Point",
        "coordinates": [-8.4358, 43.3463]
      },
      "properties": {
        "cluster_id": "ALERT-20260914-113",
        "alerta_operativa": "informativa",
        "score": 2.1,
        "n_focos": 1,
        "n_ultimas_6h": 0,
        "n_ultimas_24h": 0,
        "frp_total_mw": 0.7,
        "frp_max_mw": 0.7,
        "edad_min_h": 29.1,
        "ultima_deteccion_utc": "2026-09-13 02:56:00",
        "sensores": "VIIRS_SNPP_NRT",
        "satellites": "N",
        "instruments": "VIIRS",
        "popup_label": "<strong>ALERT-20260914-113<\/strong><br>Nivel: informativa<br>Focos: 1<br>Últimas 6 h: 0<br>FRP total: 0.7 MW<br>Última detección UTC: 2026-09-13 02:56:00"
      }
    },
    {
      "type": "Feature",
      "geometry": {
        "type": "Point",
        "coordinates": [-5.2319, 39.9616]
      },
      "properties": {
        "cluster_id": "ALERT-20260914-114",
        "alerta_operativa": "informativa",
        "score": 1.7,
        "n_focos": 1,
        "n_ultimas_6h": 0,
        "n_ultimas_24h": 0,
        "frp_total_mw": 0.4,
        "frp_max_mw": 0.4,
        "edad_min_h": 28.8,
        "ultima_deteccion_utc": "2026-09-13 03:17:00",
        "sensores": "VIIRS_NOAA20_NRT",
        "satellites": "N20",
        "instruments": "VIIRS",
        "popup_label": "<strong>ALERT-20260914-114<\/strong><br>Nivel: informativa<br>Focos: 1<br>Últimas 6 h: 0<br>FRP total: 0.4 MW<br>Última detección UTC: 2026-09-13 03:17:00"
      }
    }
  ]
}
