{
  "type": "FeatureCollection",
  "features": [
    {
      "type": "Feature",
      "geometry": {
        "type": "Point",
        "coordinates": [-0.2584, 35.8044]
      },
      "properties": {
        "cluster_id": "ALERT-20260921-001",
        "alerta_operativa": "alta",
        "score": 142.3,
        "n_focos": 37,
        "n_ultimas_6h": 12,
        "n_ultimas_24h": 18,
        "frp_total_mw": 103.7,
        "frp_max_mw": 12.6,
        "edad_min_h": 5.7,
        "ultima_deteccion_utc": "2026-09-21 02:26:00",
        "sensores": "VIIRS_NOAA20_NRT, VIIRS_SNPP_NRT",
        "satellites": "N, N20",
        "instruments": "VIIRS",
        "popup_label": "<strong>ALERT-20260921-001<\/strong><br>Nivel: alta<br>Focos: 37<br>Últimas 6 h: 12<br>FRP total: 103.7 MW<br>Última detección UTC: 2026-09-21 02:26:00"
      }
    },
    {
      "type": "Feature",
      "geometry": {
        "type": "Point",
        "coordinates": [-5.7657, 43.5314]
      },
      "properties": {
        "cluster_id": "ALERT-20260921-002",
        "alerta_operativa": "alta",
        "score": 126.7,
        "n_focos": 33,
        "n_ultimas_6h": 8,
        "n_ultimas_24h": 22,
        "frp_total_mw": 129.9,
        "frp_max_mw": 19.6,
        "edad_min_h": 4.4,
        "ultima_deteccion_utc": "2026-09-21 03:45:00",
        "sensores": "VIIRS_NOAA20_NRT, VIIRS_SNPP_NRT",
        "satellites": "N, N20",
        "instruments": "VIIRS",
        "popup_label": "<strong>ALERT-20260921-002<\/strong><br>Nivel: alta<br>Focos: 33<br>Últimas 6 h: 8<br>FRP total: 129.9 MW<br>Última detección UTC: 2026-09-21 03:45:00"
      }
    },
    {
      "type": "Feature",
      "geometry": {
        "type": "Point",
        "coordinates": [-0.5174, 28.1999]
      },
      "properties": {
        "cluster_id": "ALERT-20260921-003",
        "alerta_operativa": "alta",
        "score": 64.5,
        "n_focos": 12,
        "n_ultimas_6h": 6,
        "n_ultimas_24h": 8,
        "frp_total_mw": 24.3,
        "frp_max_mw": 3.9,
        "edad_min_h": 5.7,
        "ultima_deteccion_utc": "2026-09-21 02:28:00",
        "sensores": "VIIRS_NOAA20_NRT, VIIRS_SNPP_NRT",
        "satellites": "N, N20",
        "instruments": "VIIRS",
        "popup_label": "<strong>ALERT-20260921-003<\/strong><br>Nivel: alta<br>Focos: 12<br>Últimas 6 h: 6<br>FRP total: 24.3 MW<br>Última detección UTC: 2026-09-21 02:28:00"
      }
    },
    {
      "type": "Feature",
      "geometry": {
        "type": "Point",
        "coordinates": [-8.1447, 41.0696]
      },
      "properties": {
        "cluster_id": "ALERT-20260921-004",
        "alerta_operativa": "alta",
        "score": 64,
        "n_focos": 8,
        "n_ultimas_6h": 7,
        "n_ultimas_24h": 7,
        "frp_total_mw": 32.6,
        "frp_max_mw": 13.4,
        "edad_min_h": 5.7,
        "ultima_deteccion_utc": "2026-09-21 02:26:00",
        "sensores": "VIIRS_NOAA20_NRT, VIIRS_SNPP_NRT",
        "satellites": "N, N20",
        "instruments": "VIIRS",
        "popup_label": "<strong>ALERT-20260921-004<\/strong><br>Nivel: alta<br>Focos: 8<br>Últimas 6 h: 7<br>FRP total: 32.6 MW<br>Última detección UTC: 2026-09-21 02:26:00"
      }
    },
    {
      "type": "Feature",
      "geometry": {
        "type": "Point",
        "coordinates": [-8.0288, 41.7478]
      },
      "properties": {
        "cluster_id": "ALERT-20260921-005",
        "alerta_operativa": "alta",
        "score": 54.1,
        "n_focos": 6,
        "n_ultimas_6h": 6,
        "n_ultimas_24h": 6,
        "frp_total_mw": 19.9,
        "frp_max_mw": 4,
        "edad_min_h": 5.7,
        "ultima_deteccion_utc": "2026-09-21 02:26:00",
        "sensores": "VIIRS_NOAA20_NRT, VIIRS_SNPP_NRT",
        "satellites": "N, N20",
        "instruments": "VIIRS",
        "popup_label": "<strong>ALERT-20260921-005<\/strong><br>Nivel: alta<br>Focos: 6<br>Últimas 6 h: 6<br>FRP total: 19.9 MW<br>Última detección UTC: 2026-09-21 02:26:00"
      }
    },
    {
      "type": "Feature",
      "geometry": {
        "type": "Point",
        "coordinates": [-7.9125, 40.9244]
      },
      "properties": {
        "cluster_id": "ALERT-20260921-006",
        "alerta_operativa": "alta",
        "score": 53.8,
        "n_focos": 6,
        "n_ultimas_6h": 6,
        "n_ultimas_24h": 6,
        "frp_total_mw": 16.8,
        "frp_max_mw": 4.1,
        "edad_min_h": 5.7,
        "ultima_deteccion_utc": "2026-09-21 02:26:00",
        "sensores": "VIIRS_NOAA20_NRT, VIIRS_SNPP_NRT",
        "satellites": "N, N20",
        "instruments": "VIIRS",
        "popup_label": "<strong>ALERT-20260921-006<\/strong><br>Nivel: alta<br>Focos: 6<br>Últimas 6 h: 6<br>FRP total: 16.8 MW<br>Última detección UTC: 2026-09-21 02:26:00"
      }
    },
    {
      "type": "Feature",
      "geometry": {
        "type": "Point",
        "coordinates": [3.9866, 32.2779]
      },
      "properties": {
        "cluster_id": "ALERT-20260921-007",
        "alerta_operativa": "alta",
        "score": 46.7,
        "n_focos": 17,
        "n_ultimas_6h": 2,
        "n_ultimas_24h": 6,
        "frp_total_mw": 46.2,
        "frp_max_mw": 6,
        "edad_min_h": 6,
        "ultima_deteccion_utc": "2026-09-21 02:09:00",
        "sensores": "VIIRS_NOAA20_NRT, VIIRS_SNPP_NRT",
        "satellites": "N, N20",
        "instruments": "VIIRS",
        "popup_label": "<strong>ALERT-20260921-007<\/strong><br>Nivel: alta<br>Focos: 17<br>Últimas 6 h: 2<br>FRP total: 46.2 MW<br>Última detección UTC: 2026-09-21 02:09:00"
      }
    },
    {
      "type": "Feature",
      "geometry": {
        "type": "Point",
        "coordinates": [-5.6605, 35.718]
      },
      "properties": {
        "cluster_id": "ALERT-20260921-008",
        "alerta_operativa": "alta",
        "score": 41.4,
        "n_focos": 13,
        "n_ultimas_6h": 3,
        "n_ultimas_24h": 3,
        "frp_total_mw": 39.4,
        "frp_max_mw": 6.8,
        "edad_min_h": 5.7,
        "ultima_deteccion_utc": "2026-09-21 02:26:00",
        "sensores": "VIIRS_NOAA20_NRT, VIIRS_SNPP_NRT",
        "satellites": "N, N20",
        "instruments": "VIIRS",
        "popup_label": "<strong>ALERT-20260921-008<\/strong><br>Nivel: alta<br>Focos: 13<br>Últimas 6 h: 3<br>FRP total: 39.4 MW<br>Última detección UTC: 2026-09-21 02:26:00"
      }
    },
    {
      "type": "Feature",
      "geometry": {
        "type": "Point",
        "coordinates": [-8.4603, 43.3546]
      },
      "properties": {
        "cluster_id": "ALERT-20260921-009",
        "alerta_operativa": "alta",
        "score": 41.4,
        "n_focos": 6,
        "n_ultimas_6h": 4,
        "n_ultimas_24h": 5,
        "frp_total_mw": 13.6,
        "frp_max_mw": 3.5,
        "edad_min_h": 4.4,
        "ultima_deteccion_utc": "2026-09-21 03:47:00",
        "sensores": "VIIRS_NOAA20_NRT, VIIRS_SNPP_NRT",
        "satellites": "N, N20",
        "instruments": "VIIRS",
        "popup_label": "<strong>ALERT-20260921-009<\/strong><br>Nivel: alta<br>Focos: 6<br>Últimas 6 h: 4<br>FRP total: 13.6 MW<br>Última detección UTC: 2026-09-21 03:47:00"
      }
    },
    {
      "type": "Feature",
      "geometry": {
        "type": "Point",
        "coordinates": [-3.475, 40.2449]
      },
      "properties": {
        "cluster_id": "ALERT-20260921-010",
        "alerta_operativa": "alta",
        "score": 40.1,
        "n_focos": 11,
        "n_ultimas_6h": 2,
        "n_ultimas_24h": 6,
        "frp_total_mw": 33,
        "frp_max_mw": 4.2,
        "edad_min_h": 5.7,
        "ultima_deteccion_utc": "2026-09-21 02:26:00",
        "sensores": "VIIRS_NOAA20_NRT, VIIRS_SNPP_NRT",
        "satellites": "N, N20",
        "instruments": "VIIRS",
        "popup_label": "<strong>ALERT-20260921-010<\/strong><br>Nivel: alta<br>Focos: 11<br>Últimas 6 h: 2<br>FRP total: 33 MW<br>Última detección UTC: 2026-09-21 02:26:00"
      }
    },
    {
      "type": "Feature",
      "geometry": {
        "type": "Point",
        "coordinates": [3.0957, 36.7257]
      },
      "properties": {
        "cluster_id": "ALERT-20260921-011",
        "alerta_operativa": "alta",
        "score": 38.1,
        "n_focos": 6,
        "n_ultimas_6h": 4,
        "n_ultimas_24h": 4,
        "frp_total_mw": 6.8,
        "frp_max_mw": 1.7,
        "edad_min_h": 5.7,
        "ultima_deteccion_utc": "2026-09-21 02:26:00",
        "sensores": "VIIRS_NOAA20_NRT, VIIRS_SNPP_NRT",
        "satellites": "N, N20",
        "instruments": "VIIRS",
        "popup_label": "<strong>ALERT-20260921-011<\/strong><br>Nivel: alta<br>Focos: 6<br>Últimas 6 h: 4<br>FRP total: 6.8 MW<br>Última detección UTC: 2026-09-21 02:26:00"
      }
    },
    {
      "type": "Feature",
      "geometry": {
        "type": "Point",
        "coordinates": [0.127, 36.0182]
      },
      "properties": {
        "cluster_id": "ALERT-20260921-012",
        "alerta_operativa": "alta",
        "score": 27.9,
        "n_focos": 4,
        "n_ultimas_6h": 3,
        "n_ultimas_24h": 3,
        "frp_total_mw": 3.2,
        "frp_max_mw": 1.1,
        "edad_min_h": 5.7,
        "ultima_deteccion_utc": "2026-09-21 02:26:00",
        "sensores": "VIIRS_NOAA20_NRT, VIIRS_SNPP_NRT",
        "satellites": "N, N20",
        "instruments": "VIIRS",
        "popup_label": "<strong>ALERT-20260921-012<\/strong><br>Nivel: alta<br>Focos: 4<br>Últimas 6 h: 3<br>FRP total: 3.2 MW<br>Última detección UTC: 2026-09-21 02:26:00"
      }
    },
    {
      "type": "Feature",
      "geometry": {
        "type": "Point",
        "coordinates": [0.1785, 41.9245]
      },
      "properties": {
        "cluster_id": "ALERT-20260921-013",
        "alerta_operativa": "alta",
        "score": 25.4,
        "n_focos": 4,
        "n_ultimas_6h": 2,
        "n_ultimas_24h": 3,
        "frp_total_mw": 13.7,
        "frp_max_mw": 8.8,
        "edad_min_h": 5.7,
        "ultima_deteccion_utc": "2026-09-21 02:24:00",
        "sensores": "VIIRS_NOAA20_NRT",
        "satellites": "N20",
        "instruments": "VIIRS",
        "popup_label": "<strong>ALERT-20260921-013<\/strong><br>Nivel: alta<br>Focos: 4<br>Últimas 6 h: 2<br>FRP total: 13.7 MW<br>Última detección UTC: 2026-09-21 02:24:00"
      }
    },
    {
      "type": "Feature",
      "geometry": {
        "type": "Point",
        "coordinates": [-9.0116, 38.9224]
      },
      "properties": {
        "cluster_id": "ALERT-20260921-014",
        "alerta_operativa": "alta",
        "score": 22,
        "n_focos": 4,
        "n_ultimas_6h": 2,
        "n_ultimas_24h": 2,
        "frp_total_mw": 6.5,
        "frp_max_mw": 1.9,
        "edad_min_h": 5.7,
        "ultima_deteccion_utc": "2026-09-21 02:26:00",
        "sensores": "VIIRS_NOAA20_NRT, VIIRS_SNPP_NRT",
        "satellites": "N, N20",
        "instruments": "VIIRS",
        "popup_label": "<strong>ALERT-20260921-014<\/strong><br>Nivel: alta<br>Focos: 4<br>Últimas 6 h: 2<br>FRP total: 6.5 MW<br>Última detección UTC: 2026-09-21 02:26:00"
      }
    },
    {
      "type": "Feature",
      "geometry": {
        "type": "Point",
        "coordinates": [-2.3476, 34.5969]
      },
      "properties": {
        "cluster_id": "ALERT-20260921-015",
        "alerta_operativa": "alta",
        "score": 21.3,
        "n_focos": 4,
        "n_ultimas_6h": 2,
        "n_ultimas_24h": 2,
        "frp_total_mw": 4.3,
        "frp_max_mw": 1.3,
        "edad_min_h": 5.7,
        "ultima_deteccion_utc": "2026-09-21 02:26:00",
        "sensores": "VIIRS_NOAA20_NRT, VIIRS_SNPP_NRT",
        "satellites": "N, N20",
        "instruments": "VIIRS",
        "popup_label": "<strong>ALERT-20260921-015<\/strong><br>Nivel: alta<br>Focos: 4<br>Últimas 6 h: 2<br>FRP total: 4.3 MW<br>Última detección UTC: 2026-09-21 02:26:00"
      }
    },
    {
      "type": "Feature",
      "geometry": {
        "type": "Point",
        "coordinates": [-8.4198, 40.2893]
      },
      "properties": {
        "cluster_id": "ALERT-20260921-016",
        "alerta_operativa": "alta",
        "score": 20.8,
        "n_focos": 4,
        "n_ultimas_6h": 2,
        "n_ultimas_24h": 2,
        "frp_total_mw": 3,
        "frp_max_mw": 0.9,
        "edad_min_h": 4.4,
        "ultima_deteccion_utc": "2026-09-21 03:47:00",
        "sensores": "VIIRS_NOAA20_NRT, VIIRS_SNPP_NRT",
        "satellites": "N, N20",
        "instruments": "VIIRS",
        "popup_label": "<strong>ALERT-20260921-016<\/strong><br>Nivel: alta<br>Focos: 4<br>Últimas 6 h: 2<br>FRP total: 3 MW<br>Última detección UTC: 2026-09-21 03:47:00"
      }
    },
    {
      "type": "Feature",
      "geometry": {
        "type": "Point",
        "coordinates": [-0.9377, 35.5667]
      },
      "properties": {
        "cluster_id": "ALERT-20260921-017",
        "alerta_operativa": "alta",
        "score": 19.6,
        "n_focos": 3,
        "n_ultimas_6h": 2,
        "n_ultimas_24h": 2,
        "frp_total_mw": 2.7,
        "frp_max_mw": 1.1,
        "edad_min_h": 5.7,
        "ultima_deteccion_utc": "2026-09-21 02:26:00",
        "sensores": "VIIRS_NOAA20_NRT, VIIRS_SNPP_NRT",
        "satellites": "N, N20",
        "instruments": "VIIRS",
        "popup_label": "<strong>ALERT-20260921-017<\/strong><br>Nivel: alta<br>Focos: 3<br>Últimas 6 h: 2<br>FRP total: 2.7 MW<br>Última detección UTC: 2026-09-21 02:26:00"
      }
    },
    {
      "type": "Feature",
      "geometry": {
        "type": "Point",
        "coordinates": [-5.9619, 38.9637]
      },
      "properties": {
        "cluster_id": "ALERT-20260921-018",
        "alerta_operativa": "alta",
        "score": 19,
        "n_focos": 2,
        "n_ultimas_6h": 2,
        "n_ultimas_24h": 2,
        "frp_total_mw": 3.4,
        "frp_max_mw": 1.7,
        "edad_min_h": 5.7,
        "ultima_deteccion_utc": "2026-09-21 02:26:00",
        "sensores": "VIIRS_NOAA20_NRT, VIIRS_SNPP_NRT",
        "satellites": "N, N20",
        "instruments": "VIIRS",
        "popup_label": "<strong>ALERT-20260921-018<\/strong><br>Nivel: alta<br>Focos: 2<br>Últimas 6 h: 2<br>FRP total: 3.4 MW<br>Última detección UTC: 2026-09-21 02:26:00"
      }
    },
    {
      "type": "Feature",
      "geometry": {
        "type": "Point",
        "coordinates": [-0.3435, 33.474]
      },
      "properties": {
        "cluster_id": "ALERT-20260921-019",
        "alerta_operativa": "alta",
        "score": 18.1,
        "n_focos": 2,
        "n_ultimas_6h": 2,
        "n_ultimas_24h": 2,
        "frp_total_mw": 1.9,
        "frp_max_mw": 1.1,
        "edad_min_h": 5.7,
        "ultima_deteccion_utc": "2026-09-21 02:26:00",
        "sensores": "VIIRS_NOAA20_NRT, VIIRS_SNPP_NRT",
        "satellites": "N, N20",
        "instruments": "VIIRS",
        "popup_label": "<strong>ALERT-20260921-019<\/strong><br>Nivel: alta<br>Focos: 2<br>Últimas 6 h: 2<br>FRP total: 1.9 MW<br>Última detección UTC: 2026-09-21 02:26:00"
      }
    },
    {
      "type": "Feature",
      "geometry": {
        "type": "Point",
        "coordinates": [-5.2709, 35.1838]
      },
      "properties": {
        "cluster_id": "ALERT-20260921-020",
        "alerta_operativa": "alta",
        "score": 18.1,
        "n_focos": 2,
        "n_ultimas_6h": 2,
        "n_ultimas_24h": 2,
        "frp_total_mw": 1.8,
        "frp_max_mw": 1.1,
        "edad_min_h": 5.7,
        "ultima_deteccion_utc": "2026-09-21 02:26:00",
        "sensores": "VIIRS_NOAA20_NRT, VIIRS_SNPP_NRT",
        "satellites": "N, N20",
        "instruments": "VIIRS",
        "popup_label": "<strong>ALERT-20260921-020<\/strong><br>Nivel: alta<br>Focos: 2<br>Últimas 6 h: 2<br>FRP total: 1.8 MW<br>Última detección UTC: 2026-09-21 02:26:00"
      }
    },
    {
      "type": "Feature",
      "geometry": {
        "type": "Point",
        "coordinates": [-4.5569, 37.8349]
      },
      "properties": {
        "cluster_id": "ALERT-20260921-021",
        "alerta_operativa": "alta",
        "score": 17.9,
        "n_focos": 2,
        "n_ultimas_6h": 2,
        "n_ultimas_24h": 2,
        "frp_total_mw": 1.6,
        "frp_max_mw": 0.9,
        "edad_min_h": 5.7,
        "ultima_deteccion_utc": "2026-09-21 02:26:00",
        "sensores": "VIIRS_NOAA20_NRT, VIIRS_SNPP_NRT",
        "satellites": "N, N20",
        "instruments": "VIIRS",
        "popup_label": "<strong>ALERT-20260921-021<\/strong><br>Nivel: alta<br>Focos: 2<br>Últimas 6 h: 2<br>FRP total: 1.6 MW<br>Última detección UTC: 2026-09-21 02:26:00"
      }
    },
    {
      "type": "Feature",
      "geometry": {
        "type": "Point",
        "coordinates": [2.8779, 36.5962]
      },
      "properties": {
        "cluster_id": "ALERT-20260921-022",
        "alerta_operativa": "alta",
        "score": 17.8,
        "n_focos": 2,
        "n_ultimas_6h": 2,
        "n_ultimas_24h": 2,
        "frp_total_mw": 1.4,
        "frp_max_mw": 0.7,
        "edad_min_h": 5.7,
        "ultima_deteccion_utc": "2026-09-21 02:26:00",
        "sensores": "VIIRS_NOAA20_NRT, VIIRS_SNPP_NRT",
        "satellites": "N, N20",
        "instruments": "VIIRS",
        "popup_label": "<strong>ALERT-20260921-022<\/strong><br>Nivel: alta<br>Focos: 2<br>Últimas 6 h: 2<br>FRP total: 1.4 MW<br>Última detección UTC: 2026-09-21 02:26:00"
      }
    },
    {
      "type": "Feature",
      "geometry": {
        "type": "Point",
        "coordinates": [-3.0956, 39.1186]
      },
      "properties": {
        "cluster_id": "ALERT-20260921-023",
        "alerta_operativa": "alta",
        "score": 17.8,
        "n_focos": 2,
        "n_ultimas_6h": 2,
        "n_ultimas_24h": 2,
        "frp_total_mw": 1.4,
        "frp_max_mw": 0.9,
        "edad_min_h": 5.7,
        "ultima_deteccion_utc": "2026-09-21 02:26:00",
        "sensores": "VIIRS_NOAA20_NRT, VIIRS_SNPP_NRT",
        "satellites": "N, N20",
        "instruments": "VIIRS",
        "popup_label": "<strong>ALERT-20260921-023<\/strong><br>Nivel: alta<br>Focos: 2<br>Últimas 6 h: 2<br>FRP total: 1.4 MW<br>Última detección UTC: 2026-09-21 02:26:00"
      }
    },
    {
      "type": "Feature",
      "geometry": {
        "type": "Point",
        "coordinates": [4.4765, 35.7096]
      },
      "properties": {
        "cluster_id": "ALERT-20260921-024",
        "alerta_operativa": "alta",
        "score": 17.6,
        "n_focos": 2,
        "n_ultimas_6h": 2,
        "n_ultimas_24h": 2,
        "frp_total_mw": 1.2,
        "frp_max_mw": 0.6,
        "edad_min_h": 5.7,
        "ultima_deteccion_utc": "2026-09-21 02:26:00",
        "sensores": "VIIRS_NOAA20_NRT, VIIRS_SNPP_NRT",
        "satellites": "N, N20",
        "instruments": "VIIRS",
        "popup_label": "<strong>ALERT-20260921-024<\/strong><br>Nivel: alta<br>Focos: 2<br>Últimas 6 h: 2<br>FRP total: 1.2 MW<br>Última detección UTC: 2026-09-21 02:26:00"
      }
    },
    {
      "type": "Feature",
      "geometry": {
        "type": "Point",
        "coordinates": [0.9563, 36.161]
      },
      "properties": {
        "cluster_id": "ALERT-20260921-025",
        "alerta_operativa": "alta",
        "score": 17.6,
        "n_focos": 2,
        "n_ultimas_6h": 2,
        "n_ultimas_24h": 2,
        "frp_total_mw": 1.2,
        "frp_max_mw": 0.7,
        "edad_min_h": 5.7,
        "ultima_deteccion_utc": "2026-09-21 02:26:00",
        "sensores": "VIIRS_NOAA20_NRT",
        "satellites": "N20",
        "instruments": "VIIRS",
        "popup_label": "<strong>ALERT-20260921-025<\/strong><br>Nivel: alta<br>Focos: 2<br>Últimas 6 h: 2<br>FRP total: 1.2 MW<br>Última detección UTC: 2026-09-21 02:26:00"
      }
    },
    {
      "type": "Feature",
      "geometry": {
        "type": "Point",
        "coordinates": [2.057, 34.4383]
      },
      "properties": {
        "cluster_id": "ALERT-20260921-026",
        "alerta_operativa": "alta",
        "score": 17.5,
        "n_focos": 2,
        "n_ultimas_6h": 2,
        "n_ultimas_24h": 2,
        "frp_total_mw": 1.1,
        "frp_max_mw": 0.6,
        "edad_min_h": 5.7,
        "ultima_deteccion_utc": "2026-09-21 02:26:00",
        "sensores": "VIIRS_NOAA20_NRT, VIIRS_SNPP_NRT",
        "satellites": "N, N20",
        "instruments": "VIIRS",
        "popup_label": "<strong>ALERT-20260921-026<\/strong><br>Nivel: alta<br>Focos: 2<br>Últimas 6 h: 2<br>FRP total: 1.1 MW<br>Última detección UTC: 2026-09-21 02:26:00"
      }
    },
    {
      "type": "Feature",
      "geometry": {
        "type": "Point",
        "coordinates": [2.6579, 33.8735]
      },
      "properties": {
        "cluster_id": "ALERT-20260921-027",
        "alerta_operativa": "alta",
        "score": 17.1,
        "n_focos": 2,
        "n_ultimas_6h": 2,
        "n_ultimas_24h": 2,
        "frp_total_mw": 0.7,
        "frp_max_mw": 0.4,
        "edad_min_h": 5.7,
        "ultima_deteccion_utc": "2026-09-21 02:26:00",
        "sensores": "VIIRS_NOAA20_NRT, VIIRS_SNPP_NRT",
        "satellites": "N, N20",
        "instruments": "VIIRS",
        "popup_label": "<strong>ALERT-20260921-027<\/strong><br>Nivel: alta<br>Focos: 2<br>Últimas 6 h: 2<br>FRP total: 0.7 MW<br>Última detección UTC: 2026-09-21 02:26:00"
      }
    },
    {
      "type": "Feature",
      "geometry": {
        "type": "Point",
        "coordinates": [4.8948, 43.4419]
      },
      "properties": {
        "cluster_id": "ALERT-20260921-028",
        "alerta_operativa": "media",
        "score": 70.2,
        "n_focos": 39,
        "n_ultimas_6h": 0,
        "n_ultimas_24h": 11,
        "frp_total_mw": 98.2,
        "frp_max_mw": 10.2,
        "edad_min_h": 6.1,
        "ultima_deteccion_utc": "2026-09-21 02:04:00",
        "sensores": "VIIRS_NOAA20_NRT, VIIRS_SNPP_NRT",
        "satellites": "N, N20",
        "instruments": "VIIRS",
        "popup_label": "<strong>ALERT-20260921-028<\/strong><br>Nivel: media<br>Focos: 39<br>Últimas 6 h: 0<br>FRP total: 98.2 MW<br>Última detección UTC: 2026-09-21 02:04:00"
      }
    },
    {
      "type": "Feature",
      "geometry": {
        "type": "Point",
        "coordinates": [-2.8085, 42.4595]
      },
      "properties": {
        "cluster_id": "ALERT-20260921-029",
        "alerta_operativa": "media",
        "score": 33.1,
        "n_focos": 7,
        "n_ultimas_6h": 1,
        "n_ultimas_24h": 7,
        "frp_total_mw": 33,
        "frp_max_mw": 8.8,
        "edad_min_h": 5.7,
        "ultima_deteccion_utc": "2026-09-21 02:24:00",
        "sensores": "VIIRS_NOAA20_NRT, VIIRS_SNPP_NRT",
        "satellites": "N, N20",
        "instruments": "VIIRS",
        "popup_label": "<strong>ALERT-20260921-029<\/strong><br>Nivel: media<br>Focos: 7<br>Últimas 6 h: 1<br>FRP total: 33 MW<br>Última detección UTC: 2026-09-21 02:24:00"
      }
    },
    {
      "type": "Feature",
      "geometry": {
        "type": "Point",
        "coordinates": [-6.3115, 38.8843]
      },
      "properties": {
        "cluster_id": "ALERT-20260921-030",
        "alerta_operativa": "media",
        "score": 20.6,
        "n_focos": 4,
        "n_ultimas_6h": 0,
        "n_ultimas_24h": 4,
        "frp_total_mw": 71.1,
        "frp_max_mw": 23.8,
        "edad_min_h": 18.1,
        "ultima_deteccion_utc": "2026-09-20 14:05:00",
        "sensores": "VIIRS_NOAA20_NRT, VIIRS_SNPP_NRT",
        "satellites": "N, N20",
        "instruments": "VIIRS",
        "popup_label": "<strong>ALERT-20260921-030<\/strong><br>Nivel: media<br>Focos: 4<br>Últimas 6 h: 0<br>FRP total: 71.1 MW<br>Última detección UTC: 2026-09-20 14:05:00"
      }
    },
    {
      "type": "Feature",
      "geometry": {
        "type": "Point",
        "coordinates": [-2.2221, 43.0368]
      },
      "properties": {
        "cluster_id": "ALERT-20260921-031",
        "alerta_operativa": "media",
        "score": 17.6,
        "n_focos": 5,
        "n_ultimas_6h": 1,
        "n_ultimas_24h": 2,
        "frp_total_mw": 5.2,
        "frp_max_mw": 1.3,
        "edad_min_h": 5.7,
        "ultima_deteccion_utc": "2026-09-21 02:24:00",
        "sensores": "VIIRS_NOAA20_NRT, VIIRS_SNPP_NRT",
        "satellites": "N, N20",
        "instruments": "VIIRS",
        "popup_label": "<strong>ALERT-20260921-031<\/strong><br>Nivel: media<br>Focos: 5<br>Últimas 6 h: 1<br>FRP total: 5.2 MW<br>Última detección UTC: 2026-09-21 02:24:00"
      }
    },
    {
      "type": "Feature",
      "geometry": {
        "type": "Point",
        "coordinates": [-6.7699, 42.553]
      },
      "properties": {
        "cluster_id": "ALERT-20260921-032",
        "alerta_operativa": "media",
        "score": 15.9,
        "n_focos": 4,
        "n_ultimas_6h": 1,
        "n_ultimas_24h": 2,
        "frp_total_mw": 3.3,
        "frp_max_mw": 1,
        "edad_min_h": 5.7,
        "ultima_deteccion_utc": "2026-09-21 02:24:00",
        "sensores": "VIIRS_NOAA20_NRT, VIIRS_SNPP_NRT",
        "satellites": "N, N20",
        "instruments": "VIIRS",
        "popup_label": "<strong>ALERT-20260921-032<\/strong><br>Nivel: media<br>Focos: 4<br>Últimas 6 h: 1<br>FRP total: 3.3 MW<br>Última detección UTC: 2026-09-21 02:24:00"
      }
    },
    {
      "type": "Feature",
      "geometry": {
        "type": "Point",
        "coordinates": [1.9874, 41.4306]
      },
      "properties": {
        "cluster_id": "ALERT-20260921-033",
        "alerta_operativa": "media",
        "score": 15.9,
        "n_focos": 4,
        "n_ultimas_6h": 1,
        "n_ultimas_24h": 2,
        "frp_total_mw": 3.2,
        "frp_max_mw": 1.1,
        "edad_min_h": 5.7,
        "ultima_deteccion_utc": "2026-09-21 02:24:00",
        "sensores": "VIIRS_NOAA20_NRT, VIIRS_SNPP_NRT",
        "satellites": "N, N20",
        "instruments": "VIIRS",
        "popup_label": "<strong>ALERT-20260921-033<\/strong><br>Nivel: media<br>Focos: 4<br>Últimas 6 h: 1<br>FRP total: 3.2 MW<br>Última detección UTC: 2026-09-21 02:24:00"
      }
    },
    {
      "type": "Feature",
      "geometry": {
        "type": "Point",
        "coordinates": [-7.7619, 33.3685]
      },
      "properties": {
        "cluster_id": "ALERT-20260921-034",
        "alerta_operativa": "media",
        "score": 14.4,
        "n_focos": 4,
        "n_ultimas_6h": 1,
        "n_ultimas_24h": 1,
        "frp_total_mw": 4.4,
        "frp_max_mw": 1.6,
        "edad_min_h": 5.7,
        "ultima_deteccion_utc": "2026-09-21 02:28:00",
        "sensores": "VIIRS_NOAA20_NRT, VIIRS_SNPP_NRT",
        "satellites": "N, N20",
        "instruments": "VIIRS",
        "popup_label": "<strong>ALERT-20260921-034<\/strong><br>Nivel: media<br>Focos: 4<br>Últimas 6 h: 1<br>FRP total: 4.4 MW<br>Última detección UTC: 2026-09-21 02:28:00"
      }
    },
    {
      "type": "Feature",
      "geometry": {
        "type": "Point",
        "coordinates": [0.9918, 43.1869]
      },
      "properties": {
        "cluster_id": "ALERT-20260921-035",
        "alerta_operativa": "media",
        "score": 14.1,
        "n_focos": 3,
        "n_ultimas_6h": 1,
        "n_ultimas_24h": 2,
        "frp_total_mw": 1.9,
        "frp_max_mw": 0.7,
        "edad_min_h": 5.7,
        "ultima_deteccion_utc": "2026-09-21 02:24:00",
        "sensores": "VIIRS_NOAA20_NRT, VIIRS_SNPP_NRT",
        "satellites": "N, N20",
        "instruments": "VIIRS",
        "popup_label": "<strong>ALERT-20260921-035<\/strong><br>Nivel: media<br>Focos: 3<br>Últimas 6 h: 1<br>FRP total: 1.9 MW<br>Última detección UTC: 2026-09-21 02:24:00"
      }
    },
    {
      "type": "Feature",
      "geometry": {
        "type": "Point",
        "coordinates": [4.4457, 35.8808]
      },
      "properties": {
        "cluster_id": "ALERT-20260921-036",
        "alerta_operativa": "media",
        "score": 13.4,
        "n_focos": 3,
        "n_ultimas_6h": 1,
        "n_ultimas_24h": 1,
        "frp_total_mw": 4.4,
        "frp_max_mw": 1.6,
        "edad_min_h": 5.7,
        "ultima_deteccion_utc": "2026-09-21 02:26:00",
        "sensores": "VIIRS_NOAA20_NRT, VIIRS_SNPP_NRT",
        "satellites": "N, N20",
        "instruments": "VIIRS",
        "popup_label": "<strong>ALERT-20260921-036<\/strong><br>Nivel: media<br>Focos: 3<br>Últimas 6 h: 1<br>FRP total: 4.4 MW<br>Última detección UTC: 2026-09-21 02:26:00"
      }
    },
    {
      "type": "Feature",
      "geometry": {
        "type": "Point",
        "coordinates": [-8.5598, 40.378]
      },
      "properties": {
        "cluster_id": "ALERT-20260921-037",
        "alerta_operativa": "media",
        "score": 12.5,
        "n_focos": 2,
        "n_ultimas_6h": 0,
        "n_ultimas_24h": 2,
        "frp_total_mw": 24.4,
        "frp_max_mw": 13.7,
        "edad_min_h": 18.3,
        "ultima_deteccion_utc": "2026-09-20 13:48:00",
        "sensores": "VIIRS_SNPP_NRT",
        "satellites": "N",
        "instruments": "VIIRS",
        "popup_label": "<strong>ALERT-20260921-037<\/strong><br>Nivel: media<br>Focos: 2<br>Últimas 6 h: 0<br>FRP total: 24.4 MW<br>Última detección UTC: 2026-09-20 13:48:00"
      }
    },
    {
      "type": "Feature",
      "geometry": {
        "type": "Point",
        "coordinates": [-8.9373, 38.5022]
      },
      "properties": {
        "cluster_id": "ALERT-20260921-038",
        "alerta_operativa": "media",
        "score": 12.3,
        "n_focos": 3,
        "n_ultimas_6h": 1,
        "n_ultimas_24h": 1,
        "frp_total_mw": 2.1,
        "frp_max_mw": 0.8,
        "edad_min_h": 5.7,
        "ultima_deteccion_utc": "2026-09-21 02:26:00",
        "sensores": "VIIRS_NOAA20_NRT, VIIRS_SNPP_NRT",
        "satellites": "N, N20",
        "instruments": "VIIRS",
        "popup_label": "<strong>ALERT-20260921-038<\/strong><br>Nivel: media<br>Focos: 3<br>Últimas 6 h: 1<br>FRP total: 2.1 MW<br>Última detección UTC: 2026-09-21 02:26:00"
      }
    },
    {
      "type": "Feature",
      "geometry": {
        "type": "Point",
        "coordinates": [-1.9043, 36.9657]
      },
      "properties": {
        "cluster_id": "ALERT-20260921-039",
        "alerta_operativa": "media",
        "score": 12.1,
        "n_focos": 2,
        "n_ultimas_6h": 1,
        "n_ultimas_24h": 1,
        "frp_total_mw": 3.7,
        "frp_max_mw": 1.9,
        "edad_min_h": 6,
        "ultima_deteccion_utc": "2026-09-21 02:06:00",
        "sensores": "VIIRS_SNPP_NRT",
        "satellites": "N",
        "instruments": "VIIRS",
        "popup_label": "<strong>ALERT-20260921-039<\/strong><br>Nivel: media<br>Focos: 2<br>Últimas 6 h: 1<br>FRP total: 3.7 MW<br>Última detección UTC: 2026-09-21 02:06:00"
      }
    },
    {
      "type": "Feature",
      "geometry": {
        "type": "Point",
        "coordinates": [-6.8191, 37.3327]
      },
      "properties": {
        "cluster_id": "ALERT-20260921-040",
        "alerta_operativa": "media",
        "score": 11.9,
        "n_focos": 2,
        "n_ultimas_6h": 0,
        "n_ultimas_24h": 2,
        "frp_total_mw": 18,
        "frp_max_mw": 9,
        "edad_min_h": 19.7,
        "ultima_deteccion_utc": "2026-09-20 12:25:00",
        "sensores": "VIIRS_NOAA20_NRT",
        "satellites": "N20",
        "instruments": "VIIRS",
        "popup_label": "<strong>ALERT-20260921-040<\/strong><br>Nivel: media<br>Focos: 2<br>Últimas 6 h: 0<br>FRP total: 18 MW<br>Última detección UTC: 2026-09-20 12:25:00"
      }
    },
    {
      "type": "Feature",
      "geometry": {
        "type": "Point",
        "coordinates": [-5.9296, 37.0186]
      },
      "properties": {
        "cluster_id": "ALERT-20260921-041",
        "alerta_operativa": "media",
        "score": 11.5,
        "n_focos": 2,
        "n_ultimas_6h": 0,
        "n_ultimas_24h": 2,
        "frp_total_mw": 14.5,
        "frp_max_mw": 11.2,
        "edad_min_h": 18.1,
        "ultima_deteccion_utc": "2026-09-20 14:05:00",
        "sensores": "VIIRS_NOAA20_NRT, VIIRS_SNPP_NRT",
        "satellites": "N, N20",
        "instruments": "VIIRS",
        "popup_label": "<strong>ALERT-20260921-041<\/strong><br>Nivel: media<br>Focos: 2<br>Últimas 6 h: 0<br>FRP total: 14.5 MW<br>Última detección UTC: 2026-09-20 14:05:00"
      }
    },
    {
      "type": "Feature",
      "geometry": {
        "type": "Point",
        "coordinates": [-5.5614, 33.9768]
      },
      "properties": {
        "cluster_id": "ALERT-20260921-042",
        "alerta_operativa": "media",
        "score": 11.3,
        "n_focos": 2,
        "n_ultimas_6h": 0,
        "n_ultimas_24h": 2,
        "frp_total_mw": 12.9,
        "frp_max_mw": 9.2,
        "edad_min_h": 18.4,
        "ultima_deteccion_utc": "2026-09-20 13:46:00",
        "sensores": "VIIRS_SNPP_NRT",
        "satellites": "N",
        "instruments": "VIIRS",
        "popup_label": "<strong>ALERT-20260921-042<\/strong><br>Nivel: media<br>Focos: 2<br>Últimas 6 h: 0<br>FRP total: 12.9 MW<br>Última detección UTC: 2026-09-20 13:46:00"
      }
    },
    {
      "type": "Feature",
      "geometry": {
        "type": "Point",
        "coordinates": [-0.5445, 38.3774]
      },
      "properties": {
        "cluster_id": "ALERT-20260921-043",
        "alerta_operativa": "media",
        "score": 11.1,
        "n_focos": 2,
        "n_ultimas_6h": 1,
        "n_ultimas_24h": 1,
        "frp_total_mw": 1.8,
        "frp_max_mw": 1,
        "edad_min_h": 6,
        "ultima_deteccion_utc": "2026-09-21 02:06:00",
        "sensores": "VIIRS_NOAA20_NRT, VIIRS_SNPP_NRT",
        "satellites": "N, N20",
        "instruments": "VIIRS",
        "popup_label": "<strong>ALERT-20260921-043<\/strong><br>Nivel: media<br>Focos: 2<br>Últimas 6 h: 1<br>FRP total: 1.8 MW<br>Última detección UTC: 2026-09-21 02:06:00"
      }
    },
    {
      "type": "Feature",
      "geometry": {
        "type": "Point",
        "coordinates": [-5.4233, 36.178]
      },
      "properties": {
        "cluster_id": "ALERT-20260921-044",
        "alerta_operativa": "media",
        "score": 11,
        "n_focos": 2,
        "n_ultimas_6h": 1,
        "n_ultimas_24h": 1,
        "frp_total_mw": 1.7,
        "frp_max_mw": 1,
        "edad_min_h": 5.7,
        "ultima_deteccion_utc": "2026-09-21 02:26:00",
        "sensores": "VIIRS_NOAA20_NRT",
        "satellites": "N20",
        "instruments": "VIIRS",
        "popup_label": "<strong>ALERT-20260921-044<\/strong><br>Nivel: media<br>Focos: 2<br>Últimas 6 h: 1<br>FRP total: 1.7 MW<br>Última detección UTC: 2026-09-21 02:26:00"
      }
    },
    {
      "type": "Feature",
      "geometry": {
        "type": "Point",
        "coordinates": [-1.4873, 41.4752]
      },
      "properties": {
        "cluster_id": "ALERT-20260921-045",
        "alerta_operativa": "media",
        "score": 10.8,
        "n_focos": 2,
        "n_ultimas_6h": 1,
        "n_ultimas_24h": 1,
        "frp_total_mw": 1.4,
        "frp_max_mw": 0.8,
        "edad_min_h": 6,
        "ultima_deteccion_utc": "2026-09-21 02:06:00",
        "sensores": "VIIRS_SNPP_NRT",
        "satellites": "N",
        "instruments": "VIIRS",
        "popup_label": "<strong>ALERT-20260921-045<\/strong><br>Nivel: media<br>Focos: 2<br>Últimas 6 h: 1<br>FRP total: 1.4 MW<br>Última detección UTC: 2026-09-21 02:06:00"
      }
    },
    {
      "type": "Feature",
      "geometry": {
        "type": "Point",
        "coordinates": [-3.0161, 43.3137]
      },
      "properties": {
        "cluster_id": "ALERT-20260921-046",
        "alerta_operativa": "media",
        "score": 10.7,
        "n_focos": 4,
        "n_ultimas_6h": 0,
        "n_ultimas_24h": 2,
        "frp_total_mw": 2.8,
        "frp_max_mw": 1,
        "edad_min_h": 6.1,
        "ultima_deteccion_utc": "2026-09-21 02:04:00",
        "sensores": "VIIRS_NOAA20_NRT, VIIRS_SNPP_NRT",
        "satellites": "N, N20",
        "instruments": "VIIRS",
        "popup_label": "<strong>ALERT-20260921-046<\/strong><br>Nivel: media<br>Focos: 4<br>Últimas 6 h: 0<br>FRP total: 2.8 MW<br>Última detección UTC: 2026-09-21 02:04:00"
      }
    },
    {
      "type": "Feature",
      "geometry": {
        "type": "Point",
        "coordinates": [-6.4846, 38.3784]
      },
      "properties": {
        "cluster_id": "ALERT-20260921-047",
        "alerta_operativa": "media",
        "score": 10.6,
        "n_focos": 2,
        "n_ultimas_6h": 1,
        "n_ultimas_24h": 1,
        "frp_total_mw": 1.2,
        "frp_max_mw": 0.6,
        "edad_min_h": 6,
        "ultima_deteccion_utc": "2026-09-21 02:06:00",
        "sensores": "VIIRS_SNPP_NRT",
        "satellites": "N",
        "instruments": "VIIRS",
        "popup_label": "<strong>ALERT-20260921-047<\/strong><br>Nivel: media<br>Focos: 2<br>Últimas 6 h: 1<br>FRP total: 1.2 MW<br>Última detección UTC: 2026-09-21 02:06:00"
      }
    },
    {
      "type": "Feature",
      "geometry": {
        "type": "Point",
        "coordinates": [-0.4005, 42.9428]
      },
      "properties": {
        "cluster_id": "ALERT-20260921-048",
        "alerta_operativa": "media",
        "score": 10.3,
        "n_focos": 2,
        "n_ultimas_6h": 0,
        "n_ultimas_24h": 2,
        "frp_total_mw": 7.6,
        "frp_max_mw": 4,
        "edad_min_h": 19.7,
        "ultima_deteccion_utc": "2026-09-20 12:25:00",
        "sensores": "VIIRS_NOAA20_NRT, VIIRS_SNPP_NRT",
        "satellites": "N, N20",
        "instruments": "VIIRS",
        "popup_label": "<strong>ALERT-20260921-048<\/strong><br>Nivel: media<br>Focos: 2<br>Últimas 6 h: 0<br>FRP total: 7.6 MW<br>Última detección UTC: 2026-09-20 12:25:00"
      }
    },
    {
      "type": "Feature",
      "geometry": {
        "type": "Point",
        "coordinates": [4.9627, 43.5896]
      },
      "properties": {
        "cluster_id": "ALERT-20260921-049",
        "alerta_operativa": "media",
        "score": 10.3,
        "n_focos": 2,
        "n_ultimas_6h": 0,
        "n_ultimas_24h": 2,
        "frp_total_mw": 7.4,
        "frp_max_mw": 3.9,
        "edad_min_h": 19.7,
        "ultima_deteccion_utc": "2026-09-20 12:25:00",
        "sensores": "VIIRS_NOAA20_NRT",
        "satellites": "N20",
        "instruments": "VIIRS",
        "popup_label": "<strong>ALERT-20260921-049<\/strong><br>Nivel: media<br>Focos: 2<br>Últimas 6 h: 0<br>FRP total: 7.4 MW<br>Última detección UTC: 2026-09-20 12:25:00"
      }
    },
    {
      "type": "Feature",
      "geometry": {
        "type": "Point",
        "coordinates": [-8.4506, 42.4318]
      },
      "properties": {
        "cluster_id": "ALERT-20260921-050",
        "alerta_operativa": "media",
        "score": 10.2,
        "n_focos": 1,
        "n_ultimas_6h": 1,
        "n_ultimas_24h": 1,
        "frp_total_mw": 2,
        "frp_max_mw": 2,
        "edad_min_h": 5.7,
        "ultima_deteccion_utc": "2026-09-21 02:24:00",
        "sensores": "VIIRS_NOAA20_NRT",
        "satellites": "N20",
        "instruments": "VIIRS",
        "popup_label": "<strong>ALERT-20260921-050<\/strong><br>Nivel: media<br>Focos: 1<br>Últimas 6 h: 1<br>FRP total: 2 MW<br>Última detección UTC: 2026-09-21 02:24:00"
      }
    },
    {
      "type": "Feature",
      "geometry": {
        "type": "Point",
        "coordinates": [-5.3323, 37.3717]
      },
      "properties": {
        "cluster_id": "ALERT-20260921-051",
        "alerta_operativa": "media",
        "score": 9.9,
        "n_focos": 2,
        "n_ultimas_6h": 0,
        "n_ultimas_24h": 2,
        "frp_total_mw": 6.1,
        "frp_max_mw": 3.3,
        "edad_min_h": 19.7,
        "ultima_deteccion_utc": "2026-09-20 12:25:00",
        "sensores": "VIIRS_NOAA20_NRT",
        "satellites": "N20",
        "instruments": "VIIRS",
        "popup_label": "<strong>ALERT-20260921-051<\/strong><br>Nivel: media<br>Focos: 2<br>Últimas 6 h: 0<br>FRP total: 6.1 MW<br>Última detección UTC: 2026-09-20 12:25:00"
      }
    },
    {
      "type": "Feature",
      "geometry": {
        "type": "Point",
        "coordinates": [-0.0035, 39.9514]
      },
      "properties": {
        "cluster_id": "ALERT-20260921-052",
        "alerta_operativa": "media",
        "score": 9.7,
        "n_focos": 1,
        "n_ultimas_6h": 1,
        "n_ultimas_24h": 1,
        "frp_total_mw": 1.3,
        "frp_max_mw": 1.3,
        "edad_min_h": 6,
        "ultima_deteccion_utc": "2026-09-21 02:06:00",
        "sensores": "VIIRS_SNPP_NRT",
        "satellites": "N",
        "instruments": "VIIRS",
        "popup_label": "<strong>ALERT-20260921-052<\/strong><br>Nivel: media<br>Focos: 1<br>Últimas 6 h: 1<br>FRP total: 1.3 MW<br>Última detección UTC: 2026-09-21 02:06:00"
      }
    },
    {
      "type": "Feature",
      "geometry": {
        "type": "Point",
        "coordinates": [4.4774, 44.1341]
      },
      "properties": {
        "cluster_id": "ALERT-20260921-053",
        "alerta_operativa": "media",
        "score": 9.6,
        "n_focos": 1,
        "n_ultimas_6h": 1,
        "n_ultimas_24h": 1,
        "frp_total_mw": 1.2,
        "frp_max_mw": 1.2,
        "edad_min_h": 5.7,
        "ultima_deteccion_utc": "2026-09-21 02:24:00",
        "sensores": "VIIRS_NOAA20_NRT",
        "satellites": "N20",
        "instruments": "VIIRS",
        "popup_label": "<strong>ALERT-20260921-053<\/strong><br>Nivel: media<br>Focos: 1<br>Últimas 6 h: 1<br>FRP total: 1.2 MW<br>Última detección UTC: 2026-09-21 02:24:00"
      }
    },
    {
      "type": "Feature",
      "geometry": {
        "type": "Point",
        "coordinates": [4.0025, 32.4023]
      },
      "properties": {
        "cluster_id": "ALERT-20260921-054",
        "alerta_operativa": "media",
        "score": 9.3,
        "n_focos": 3,
        "n_ultimas_6h": 0,
        "n_ultimas_24h": 2,
        "frp_total_mw": 2.2,
        "frp_max_mw": 0.8,
        "edad_min_h": 7.4,
        "ultima_deteccion_utc": "2026-09-21 00:45:00",
        "sensores": "VIIRS_NOAA20_NRT",
        "satellites": "N20",
        "instruments": "VIIRS",
        "popup_label": "<strong>ALERT-20260921-054<\/strong><br>Nivel: media<br>Focos: 3<br>Últimas 6 h: 0<br>FRP total: 2.2 MW<br>Última detección UTC: 2026-09-21 00:45:00"
      }
    },
    {
      "type": "Feature",
      "geometry": {
        "type": "Point",
        "coordinates": [-5.6053, 37.261]
      },
      "properties": {
        "cluster_id": "ALERT-20260921-055",
        "alerta_operativa": "media",
        "score": 9.3,
        "n_focos": 1,
        "n_ultimas_6h": 1,
        "n_ultimas_24h": 1,
        "frp_total_mw": 0.9,
        "frp_max_mw": 0.9,
        "edad_min_h": 5.7,
        "ultima_deteccion_utc": "2026-09-21 02:26:00",
        "sensores": "VIIRS_NOAA20_NRT",
        "satellites": "N20",
        "instruments": "VIIRS",
        "popup_label": "<strong>ALERT-20260921-055<\/strong><br>Nivel: media<br>Focos: 1<br>Últimas 6 h: 1<br>FRP total: 0.9 MW<br>Última detección UTC: 2026-09-21 02:26:00"
      }
    },
    {
      "type": "Feature",
      "geometry": {
        "type": "Point",
        "coordinates": [1.6608, 41.312]
      },
      "properties": {
        "cluster_id": "ALERT-20260921-056",
        "alerta_operativa": "media",
        "score": 9.2,
        "n_focos": 1,
        "n_ultimas_6h": 1,
        "n_ultimas_24h": 1,
        "frp_total_mw": 0.8,
        "frp_max_mw": 0.8,
        "edad_min_h": 5.7,
        "ultima_deteccion_utc": "2026-09-21 02:24:00",
        "sensores": "VIIRS_NOAA20_NRT",
        "satellites": "N20",
        "instruments": "VIIRS",
        "popup_label": "<strong>ALERT-20260921-056<\/strong><br>Nivel: media<br>Focos: 1<br>Últimas 6 h: 1<br>FRP total: 0.8 MW<br>Última detección UTC: 2026-09-21 02:24:00"
      }
    },
    {
      "type": "Feature",
      "geometry": {
        "type": "Point",
        "coordinates": [-8.5908, 33.1667]
      },
      "properties": {
        "cluster_id": "ALERT-20260921-057",
        "alerta_operativa": "media",
        "score": 9.1,
        "n_focos": 1,
        "n_ultimas_6h": 1,
        "n_ultimas_24h": 1,
        "frp_total_mw": 0.7,
        "frp_max_mw": 0.7,
        "edad_min_h": 6,
        "ultima_deteccion_utc": "2026-09-21 02:09:00",
        "sensores": "VIIRS_SNPP_NRT",
        "satellites": "N",
        "instruments": "VIIRS",
        "popup_label": "<strong>ALERT-20260921-057<\/strong><br>Nivel: media<br>Focos: 1<br>Últimas 6 h: 1<br>FRP total: 0.7 MW<br>Última detección UTC: 2026-09-21 02:09:00"
      }
    },
    {
      "type": "Feature",
      "geometry": {
        "type": "Point",
        "coordinates": [-6.1371, 32.569]
      },
      "properties": {
        "cluster_id": "ALERT-20260921-058",
        "alerta_operativa": "media",
        "score": 9.1,
        "n_focos": 1,
        "n_ultimas_6h": 1,
        "n_ultimas_24h": 1,
        "frp_total_mw": 0.7,
        "frp_max_mw": 0.7,
        "edad_min_h": 5.7,
        "ultima_deteccion_utc": "2026-09-21 02:28:00",
        "sensores": "VIIRS_NOAA20_NRT",
        "satellites": "N20",
        "instruments": "VIIRS",
        "popup_label": "<strong>ALERT-20260921-058<\/strong><br>Nivel: media<br>Focos: 1<br>Últimas 6 h: 1<br>FRP total: 0.7 MW<br>Última detección UTC: 2026-09-21 02:28:00"
      }
    },
    {
      "type": "Feature",
      "geometry": {
        "type": "Point",
        "coordinates": [-8.6191, 42.4679]
      },
      "properties": {
        "cluster_id": "ALERT-20260921-059",
        "alerta_operativa": "media",
        "score": 9.1,
        "n_focos": 1,
        "n_ultimas_6h": 1,
        "n_ultimas_24h": 1,
        "frp_total_mw": 0.7,
        "frp_max_mw": 0.7,
        "edad_min_h": 5.7,
        "ultima_deteccion_utc": "2026-09-21 02:24:00",
        "sensores": "VIIRS_NOAA20_NRT",
        "satellites": "N20",
        "instruments": "VIIRS",
        "popup_label": "<strong>ALERT-20260921-059<\/strong><br>Nivel: media<br>Focos: 1<br>Últimas 6 h: 1<br>FRP total: 0.7 MW<br>Última detección UTC: 2026-09-21 02:24:00"
      }
    },
    {
      "type": "Feature",
      "geometry": {
        "type": "Point",
        "coordinates": [0.5416, 35.7837]
      },
      "properties": {
        "cluster_id": "ALERT-20260921-060",
        "alerta_operativa": "media",
        "score": 8.9,
        "n_focos": 1,
        "n_ultimas_6h": 1,
        "n_ultimas_24h": 1,
        "frp_total_mw": 0.6,
        "frp_max_mw": 0.6,
        "edad_min_h": 6,
        "ultima_deteccion_utc": "2026-09-21 02:06:00",
        "sensores": "VIIRS_SNPP_NRT",
        "satellites": "N",
        "instruments": "VIIRS",
        "popup_label": "<strong>ALERT-20260921-060<\/strong><br>Nivel: media<br>Focos: 1<br>Últimas 6 h: 1<br>FRP total: 0.6 MW<br>Última detección UTC: 2026-09-21 02:06:00"
      }
    },
    {
      "type": "Feature",
      "geometry": {
        "type": "Point",
        "coordinates": [2.9291, 36.1401]
      },
      "properties": {
        "cluster_id": "ALERT-20260921-061",
        "alerta_operativa": "media",
        "score": 8.9,
        "n_focos": 1,
        "n_ultimas_6h": 1,
        "n_ultimas_24h": 1,
        "frp_total_mw": 0.6,
        "frp_max_mw": 0.6,
        "edad_min_h": 6,
        "ultima_deteccion_utc": "2026-09-21 02:06:00",
        "sensores": "VIIRS_SNPP_NRT",
        "satellites": "N",
        "instruments": "VIIRS",
        "popup_label": "<strong>ALERT-20260921-061<\/strong><br>Nivel: media<br>Focos: 1<br>Últimas 6 h: 1<br>FRP total: 0.6 MW<br>Última detección UTC: 2026-09-21 02:06:00"
      }
    },
    {
      "type": "Feature",
      "geometry": {
        "type": "Point",
        "coordinates": [-0.2476, 39.6633]
      },
      "properties": {
        "cluster_id": "ALERT-20260921-062",
        "alerta_operativa": "media",
        "score": 8.9,
        "n_focos": 1,
        "n_ultimas_6h": 1,
        "n_ultimas_24h": 1,
        "frp_total_mw": 0.6,
        "frp_max_mw": 0.6,
        "edad_min_h": 6,
        "ultima_deteccion_utc": "2026-09-21 02:06:00",
        "sensores": "VIIRS_SNPP_NRT",
        "satellites": "N",
        "instruments": "VIIRS",
        "popup_label": "<strong>ALERT-20260921-062<\/strong><br>Nivel: media<br>Focos: 1<br>Últimas 6 h: 1<br>FRP total: 0.6 MW<br>Última detección UTC: 2026-09-21 02:06:00"
      }
    },
    {
      "type": "Feature",
      "geometry": {
        "type": "Point",
        "coordinates": [-9.1535, 30.222]
      },
      "properties": {
        "cluster_id": "ALERT-20260921-063",
        "alerta_operativa": "media",
        "score": 8.8,
        "n_focos": 1,
        "n_ultimas_6h": 1,
        "n_ultimas_24h": 1,
        "frp_total_mw": 0.5,
        "frp_max_mw": 0.5,
        "edad_min_h": 5.7,
        "ultima_deteccion_utc": "2026-09-21 02:28:00",
        "sensores": "VIIRS_NOAA20_NRT",
        "satellites": "N20",
        "instruments": "VIIRS",
        "popup_label": "<strong>ALERT-20260921-063<\/strong><br>Nivel: media<br>Focos: 1<br>Últimas 6 h: 1<br>FRP total: 0.5 MW<br>Última detección UTC: 2026-09-21 02:28:00"
      }
    },
    {
      "type": "Feature",
      "geometry": {
        "type": "Point",
        "coordinates": [-5.8644, 37.3594]
      },
      "properties": {
        "cluster_id": "ALERT-20260921-064",
        "alerta_operativa": "media",
        "score": 8.8,
        "n_focos": 1,
        "n_ultimas_6h": 1,
        "n_ultimas_24h": 1,
        "frp_total_mw": 0.5,
        "frp_max_mw": 0.5,
        "edad_min_h": 5.7,
        "ultima_deteccion_utc": "2026-09-21 02:26:00",
        "sensores": "VIIRS_NOAA20_NRT",
        "satellites": "N20",
        "instruments": "VIIRS",
        "popup_label": "<strong>ALERT-20260921-064<\/strong><br>Nivel: media<br>Focos: 1<br>Últimas 6 h: 1<br>FRP total: 0.5 MW<br>Última detección UTC: 2026-09-21 02:26:00"
      }
    },
    {
      "type": "Feature",
      "geometry": {
        "type": "Point",
        "coordinates": [-0.5918, 35.5105]
      },
      "properties": {
        "cluster_id": "ALERT-20260921-065",
        "alerta_operativa": "media",
        "score": 8.5,
        "n_focos": 1,
        "n_ultimas_6h": 1,
        "n_ultimas_24h": 1,
        "frp_total_mw": 0.3,
        "frp_max_mw": 0.3,
        "edad_min_h": 6,
        "ultima_deteccion_utc": "2026-09-21 02:06:00",
        "sensores": "VIIRS_SNPP_NRT",
        "satellites": "N",
        "instruments": "VIIRS",
        "popup_label": "<strong>ALERT-20260921-065<\/strong><br>Nivel: media<br>Focos: 1<br>Últimas 6 h: 1<br>FRP total: 0.3 MW<br>Última detección UTC: 2026-09-21 02:06:00"
      }
    },
    {
      "type": "Feature",
      "geometry": {
        "type": "Point",
        "coordinates": [0.3169, 41.0878]
      },
      "properties": {
        "cluster_id": "ALERT-20260921-066",
        "alerta_operativa": "media",
        "score": 8.5,
        "n_focos": 1,
        "n_ultimas_6h": 1,
        "n_ultimas_24h": 1,
        "frp_total_mw": 0.3,
        "frp_max_mw": 0.3,
        "edad_min_h": 6,
        "ultima_deteccion_utc": "2026-09-21 02:06:00",
        "sensores": "VIIRS_SNPP_NRT",
        "satellites": "N",
        "instruments": "VIIRS",
        "popup_label": "<strong>ALERT-20260921-066<\/strong><br>Nivel: media<br>Focos: 1<br>Últimas 6 h: 1<br>FRP total: 0.3 MW<br>Última detección UTC: 2026-09-21 02:06:00"
      }
    },
    {
      "type": "Feature",
      "geometry": {
        "type": "Point",
        "coordinates": [4.369, 44.5451]
      },
      "properties": {
        "cluster_id": "ALERT-20260921-067",
        "alerta_operativa": "seguimiento",
        "score": 9.1,
        "n_focos": 1,
        "n_ultimas_6h": 0,
        "n_ultimas_24h": 1,
        "frp_total_mw": 19.8,
        "frp_max_mw": 19.8,
        "edad_min_h": 19.7,
        "ultima_deteccion_utc": "2026-09-20 12:25:00",
        "sensores": "VIIRS_NOAA20_NRT",
        "satellites": "N20",
        "instruments": "VIIRS",
        "popup_label": "<strong>ALERT-20260921-067<\/strong><br>Nivel: seguimiento<br>Focos: 1<br>Últimas 6 h: 0<br>FRP total: 19.8 MW<br>Última detección UTC: 2026-09-20 12:25:00"
      }
    },
    {
      "type": "Feature",
      "geometry": {
        "type": "Point",
        "coordinates": [-0.8213, 38.9757]
      },
      "properties": {
        "cluster_id": "ALERT-20260921-068",
        "alerta_operativa": "seguimiento",
        "score": 6.7,
        "n_focos": 1,
        "n_ultimas_6h": 0,
        "n_ultimas_24h": 1,
        "frp_total_mw": 5.3,
        "frp_max_mw": 5.3,
        "edad_min_h": 18.4,
        "ultima_deteccion_utc": "2026-09-20 13:46:00",
        "sensores": "VIIRS_SNPP_NRT",
        "satellites": "N",
        "instruments": "VIIRS",
        "popup_label": "<strong>ALERT-20260921-068<\/strong><br>Nivel: seguimiento<br>Focos: 1<br>Últimas 6 h: 0<br>FRP total: 5.3 MW<br>Última detección UTC: 2026-09-20 13:46:00"
      }
    },
    {
      "type": "Feature",
      "geometry": {
        "type": "Point",
        "coordinates": [2.3416, 43.3196]
      },
      "properties": {
        "cluster_id": "ALERT-20260921-069",
        "alerta_operativa": "seguimiento",
        "score": 6.6,
        "n_focos": 1,
        "n_ultimas_6h": 0,
        "n_ultimas_24h": 1,
        "frp_total_mw": 5.2,
        "frp_max_mw": 5.2,
        "edad_min_h": 19.7,
        "ultima_deteccion_utc": "2026-09-20 12:25:00",
        "sensores": "VIIRS_NOAA20_NRT",
        "satellites": "N20",
        "instruments": "VIIRS",
        "popup_label": "<strong>ALERT-20260921-069<\/strong><br>Nivel: seguimiento<br>Focos: 1<br>Últimas 6 h: 0<br>FRP total: 5.2 MW<br>Última detección UTC: 2026-09-20 12:25:00"
      }
    },
    {
      "type": "Feature",
      "geometry": {
        "type": "Point",
        "coordinates": [-6.5418, 38.8834]
      },
      "properties": {
        "cluster_id": "ALERT-20260921-070",
        "alerta_operativa": "seguimiento",
        "score": 6.5,
        "n_focos": 1,
        "n_ultimas_6h": 0,
        "n_ultimas_24h": 1,
        "frp_total_mw": 4.8,
        "frp_max_mw": 4.8,
        "edad_min_h": 18.4,
        "ultima_deteccion_utc": "2026-09-20 13:46:00",
        "sensores": "VIIRS_SNPP_NRT",
        "satellites": "N",
        "instruments": "VIIRS",
        "popup_label": "<strong>ALERT-20260921-070<\/strong><br>Nivel: seguimiento<br>Focos: 1<br>Últimas 6 h: 0<br>FRP total: 4.8 MW<br>Última detección UTC: 2026-09-20 13:46:00"
      }
    },
    {
      "type": "Feature",
      "geometry": {
        "type": "Point",
        "coordinates": [-5.6498, 38.7624]
      },
      "properties": {
        "cluster_id": "ALERT-20260921-071",
        "alerta_operativa": "seguimiento",
        "score": 6.5,
        "n_focos": 1,
        "n_ultimas_6h": 0,
        "n_ultimas_24h": 1,
        "frp_total_mw": 4.8,
        "frp_max_mw": 4.8,
        "edad_min_h": 19.7,
        "ultima_deteccion_utc": "2026-09-20 12:25:00",
        "sensores": "VIIRS_NOAA20_NRT",
        "satellites": "N20",
        "instruments": "VIIRS",
        "popup_label": "<strong>ALERT-20260921-071<\/strong><br>Nivel: seguimiento<br>Focos: 1<br>Últimas 6 h: 0<br>FRP total: 4.8 MW<br>Última detección UTC: 2026-09-20 12:25:00"
      }
    },
    {
      "type": "Feature",
      "geometry": {
        "type": "Point",
        "coordinates": [0.1472, 34.8124]
      },
      "properties": {
        "cluster_id": "ALERT-20260921-072",
        "alerta_operativa": "seguimiento",
        "score": 6.2,
        "n_focos": 1,
        "n_ultimas_6h": 0,
        "n_ultimas_24h": 1,
        "frp_total_mw": 4,
        "frp_max_mw": 4,
        "edad_min_h": 19.8,
        "ultima_deteccion_utc": "2026-09-20 12:23:00",
        "sensores": "VIIRS_NOAA20_NRT",
        "satellites": "N20",
        "instruments": "VIIRS",
        "popup_label": "<strong>ALERT-20260921-072<\/strong><br>Nivel: seguimiento<br>Focos: 1<br>Últimas 6 h: 0<br>FRP total: 4 MW<br>Última detección UTC: 2026-09-20 12:23:00"
      }
    },
    {
      "type": "Feature",
      "geometry": {
        "type": "Point",
        "coordinates": [-7.1376, 38.7215]
      },
      "properties": {
        "cluster_id": "ALERT-20260921-073",
        "alerta_operativa": "seguimiento",
        "score": 5.8,
        "n_focos": 1,
        "n_ultimas_6h": 0,
        "n_ultimas_24h": 1,
        "frp_total_mw": 3,
        "frp_max_mw": 3,
        "edad_min_h": 18.4,
        "ultima_deteccion_utc": "2026-09-20 13:46:00",
        "sensores": "VIIRS_SNPP_NRT",
        "satellites": "N",
        "instruments": "VIIRS",
        "popup_label": "<strong>ALERT-20260921-073<\/strong><br>Nivel: seguimiento<br>Focos: 1<br>Últimas 6 h: 0<br>FRP total: 3 MW<br>Última detección UTC: 2026-09-20 13:46:00"
      }
    },
    {
      "type": "Feature",
      "geometry": {
        "type": "Point",
        "coordinates": [4.6353, 43.9666]
      },
      "properties": {
        "cluster_id": "ALERT-20260921-074",
        "alerta_operativa": "seguimiento",
        "score": 5.3,
        "n_focos": 1,
        "n_ultimas_6h": 0,
        "n_ultimas_24h": 1,
        "frp_total_mw": 2.2,
        "frp_max_mw": 2.2,
        "edad_min_h": 19.7,
        "ultima_deteccion_utc": "2026-09-20 12:25:00",
        "sensores": "VIIRS_NOAA20_NRT",
        "satellites": "N20",
        "instruments": "VIIRS",
        "popup_label": "<strong>ALERT-20260921-074<\/strong><br>Nivel: seguimiento<br>Focos: 1<br>Últimas 6 h: 0<br>FRP total: 2.2 MW<br>Última detección UTC: 2026-09-20 12:25:00"
      }
    },
    {
      "type": "Feature",
      "geometry": {
        "type": "Point",
        "coordinates": [4.7088, 44.0903]
      },
      "properties": {
        "cluster_id": "ALERT-20260921-075",
        "alerta_operativa": "seguimiento",
        "score": 5.3,
        "n_focos": 1,
        "n_ultimas_6h": 0,
        "n_ultimas_24h": 1,
        "frp_total_mw": 2.2,
        "frp_max_mw": 2.2,
        "edad_min_h": 19.7,
        "ultima_deteccion_utc": "2026-09-20 12:25:00",
        "sensores": "VIIRS_NOAA20_NRT",
        "satellites": "N20",
        "instruments": "VIIRS",
        "popup_label": "<strong>ALERT-20260921-075<\/strong><br>Nivel: seguimiento<br>Focos: 1<br>Últimas 6 h: 0<br>FRP total: 2.2 MW<br>Última detección UTC: 2026-09-20 12:25:00"
      }
    },
    {
      "type": "Feature",
      "geometry": {
        "type": "Point",
        "coordinates": [-4.4886, 37.5365]
      },
      "properties": {
        "cluster_id": "ALERT-20260921-076",
        "alerta_operativa": "seguimiento",
        "score": 5.3,
        "n_focos": 1,
        "n_ultimas_6h": 0,
        "n_ultimas_24h": 1,
        "frp_total_mw": 2.1,
        "frp_max_mw": 2.1,
        "edad_min_h": 18.1,
        "ultima_deteccion_utc": "2026-09-20 14:05:00",
        "sensores": "VIIRS_NOAA20_NRT",
        "satellites": "N20",
        "instruments": "VIIRS",
        "popup_label": "<strong>ALERT-20260921-076<\/strong><br>Nivel: seguimiento<br>Focos: 1<br>Últimas 6 h: 0<br>FRP total: 2.1 MW<br>Última detección UTC: 2026-09-20 14:05:00"
      }
    },
    {
      "type": "Feature",
      "geometry": {
        "type": "Point",
        "coordinates": [2.907, 42.7092]
      },
      "properties": {
        "cluster_id": "ALERT-20260921-077",
        "alerta_operativa": "seguimiento",
        "score": 5.3,
        "n_focos": 1,
        "n_ultimas_6h": 0,
        "n_ultimas_24h": 1,
        "frp_total_mw": 2.1,
        "frp_max_mw": 2.1,
        "edad_min_h": 19.7,
        "ultima_deteccion_utc": "2026-09-20 12:25:00",
        "sensores": "VIIRS_NOAA20_NRT",
        "satellites": "N20",
        "instruments": "VIIRS",
        "popup_label": "<strong>ALERT-20260921-077<\/strong><br>Nivel: seguimiento<br>Focos: 1<br>Últimas 6 h: 0<br>FRP total: 2.1 MW<br>Última detección UTC: 2026-09-20 12:25:00"
      }
    },
    {
      "type": "Feature",
      "geometry": {
        "type": "Point",
        "coordinates": [-1.7291, 39.3614]
      },
      "properties": {
        "cluster_id": "ALERT-20260921-078",
        "alerta_operativa": "seguimiento",
        "score": 5,
        "n_focos": 1,
        "n_ultimas_6h": 0,
        "n_ultimas_24h": 1,
        "frp_total_mw": 1.7,
        "frp_max_mw": 1.7,
        "edad_min_h": 19.7,
        "ultima_deteccion_utc": "2026-09-20 12:25:00",
        "sensores": "VIIRS_NOAA20_NRT",
        "satellites": "N20",
        "instruments": "VIIRS",
        "popup_label": "<strong>ALERT-20260921-078<\/strong><br>Nivel: seguimiento<br>Focos: 1<br>Últimas 6 h: 0<br>FRP total: 1.7 MW<br>Última detección UTC: 2026-09-20 12:25:00"
      }
    },
    {
      "type": "Feature",
      "geometry": {
        "type": "Point",
        "coordinates": [3.1666, 32.5559]
      },
      "properties": {
        "cluster_id": "ALERT-20260921-079",
        "alerta_operativa": "informativa",
        "score": 8.8,
        "n_focos": 4,
        "n_ultimas_6h": 0,
        "n_ultimas_24h": 0,
        "frp_total_mw": 9.8,
        "frp_max_mw": 4.3,
        "edad_min_h": 29.4,
        "ultima_deteccion_utc": "2026-09-20 02:45:00",
        "sensores": "VIIRS_NOAA20_NRT, VIIRS_SNPP_NRT",
        "satellites": "N, N20",
        "instruments": "VIIRS",
        "popup_label": "<strong>ALERT-20260921-079<\/strong><br>Nivel: informativa<br>Focos: 4<br>Últimas 6 h: 0<br>FRP total: 9.8 MW<br>Última detección UTC: 2026-09-20 02:45:00"
      }
    },
    {
      "type": "Feature",
      "geometry": {
        "type": "Point",
        "coordinates": [-4.4854, 39.9495]
      },
      "properties": {
        "cluster_id": "ALERT-20260921-080",
        "alerta_operativa": "informativa",
        "score": 7.4,
        "n_focos": 3,
        "n_ultimas_6h": 0,
        "n_ultimas_24h": 0,
        "frp_total_mw": 8,
        "frp_max_mw": 5.9,
        "edad_min_h": 29.4,
        "ultima_deteccion_utc": "2026-09-20 02:43:00",
        "sensores": "VIIRS_NOAA20_NRT, VIIRS_SNPP_NRT",
        "satellites": "N, N20",
        "instruments": "VIIRS",
        "popup_label": "<strong>ALERT-20260921-080<\/strong><br>Nivel: informativa<br>Focos: 3<br>Últimas 6 h: 0<br>FRP total: 8 MW<br>Última detección UTC: 2026-09-20 02:43:00"
      }
    },
    {
      "type": "Feature",
      "geometry": {
        "type": "Point",
        "coordinates": [3.3163, 33.1278]
      },
      "properties": {
        "cluster_id": "ALERT-20260921-081",
        "alerta_operativa": "informativa",
        "score": 7.3,
        "n_focos": 3,
        "n_ultimas_6h": 0,
        "n_ultimas_24h": 0,
        "frp_total_mw": 7.6,
        "frp_max_mw": 4.4,
        "edad_min_h": 31.4,
        "ultima_deteccion_utc": "2026-09-20 00:45:00",
        "sensores": "VIIRS_SNPP_NRT",
        "satellites": "N",
        "instruments": "VIIRS",
        "popup_label": "<strong>ALERT-20260921-081<\/strong><br>Nivel: informativa<br>Focos: 3<br>Últimas 6 h: 0<br>FRP total: 7.6 MW<br>Última detección UTC: 2026-09-20 00:45:00"
      }
    },
    {
      "type": "Feature",
      "geometry": {
        "type": "Point",
        "coordinates": [-3.8396, 43.4115]
      },
      "properties": {
        "cluster_id": "ALERT-20260921-082",
        "alerta_operativa": "informativa",
        "score": 5.8,
        "n_focos": 2,
        "n_ultimas_6h": 0,
        "n_ultimas_24h": 0,
        "frp_total_mw": 5.7,
        "frp_max_mw": 4.8,
        "edad_min_h": 29.4,
        "ultima_deteccion_utc": "2026-09-20 02:43:00",
        "sensores": "VIIRS_NOAA20_NRT, VIIRS_SNPP_NRT",
        "satellites": "N, N20",
        "instruments": "VIIRS",
        "popup_label": "<strong>ALERT-20260921-082<\/strong><br>Nivel: informativa<br>Focos: 2<br>Últimas 6 h: 0<br>FRP total: 5.7 MW<br>Última detección UTC: 2026-09-20 02:43:00"
      }
    },
    {
      "type": "Feature",
      "geometry": {
        "type": "Point",
        "coordinates": [-5.8147, 38.9163]
      },
      "properties": {
        "cluster_id": "ALERT-20260921-083",
        "alerta_operativa": "informativa",
        "score": 4.3,
        "n_focos": 2,
        "n_ultimas_6h": 0,
        "n_ultimas_24h": 0,
        "frp_total_mw": 2.2,
        "frp_max_mw": 1.5,
        "edad_min_h": 29.4,
        "ultima_deteccion_utc": "2026-09-20 02:43:00",
        "sensores": "VIIRS_NOAA20_NRT, VIIRS_SNPP_NRT",
        "satellites": "N, N20",
        "instruments": "VIIRS",
        "popup_label": "<strong>ALERT-20260921-083<\/strong><br>Nivel: informativa<br>Focos: 2<br>Últimas 6 h: 0<br>FRP total: 2.2 MW<br>Última detección UTC: 2026-09-20 02:43:00"
      }
    },
    {
      "type": "Feature",
      "geometry": {
        "type": "Point",
        "coordinates": [-4.2475, 40.7156]
      },
      "properties": {
        "cluster_id": "ALERT-20260921-084",
        "alerta_operativa": "informativa",
        "score": 4.3,
        "n_focos": 2,
        "n_ultimas_6h": 0,
        "n_ultimas_24h": 0,
        "frp_total_mw": 2.2,
        "frp_max_mw": 1.1,
        "edad_min_h": 29.4,
        "ultima_deteccion_utc": "2026-09-20 02:43:00",
        "sensores": "VIIRS_NOAA20_NRT, VIIRS_SNPP_NRT",
        "satellites": "N, N20",
        "instruments": "VIIRS",
        "popup_label": "<strong>ALERT-20260921-084<\/strong><br>Nivel: informativa<br>Focos: 2<br>Últimas 6 h: 0<br>FRP total: 2.2 MW<br>Última detección UTC: 2026-09-20 02:43:00"
      }
    },
    {
      "type": "Feature",
      "geometry": {
        "type": "Point",
        "coordinates": [-8.9053, 39.6871]
      },
      "properties": {
        "cluster_id": "ALERT-20260921-085",
        "alerta_operativa": "informativa",
        "score": 4.1,
        "n_focos": 2,
        "n_ultimas_6h": 0,
        "n_ultimas_24h": 0,
        "frp_total_mw": 1.9,
        "frp_max_mw": 1,
        "edad_min_h": 29.4,
        "ultima_deteccion_utc": "2026-09-20 02:43:00",
        "sensores": "VIIRS_NOAA20_NRT, VIIRS_SNPP_NRT",
        "satellites": "N, N20",
        "instruments": "VIIRS",
        "popup_label": "<strong>ALERT-20260921-085<\/strong><br>Nivel: informativa<br>Focos: 2<br>Últimas 6 h: 0<br>FRP total: 1.9 MW<br>Última detección UTC: 2026-09-20 02:43:00"
      }
    },
    {
      "type": "Feature",
      "geometry": {
        "type": "Point",
        "coordinates": [-6.9458, 32.8464]
      },
      "properties": {
        "cluster_id": "ALERT-20260921-086",
        "alerta_operativa": "informativa",
        "score": 4.1,
        "n_focos": 2,
        "n_ultimas_6h": 0,
        "n_ultimas_24h": 0,
        "frp_total_mw": 1.8,
        "frp_max_mw": 0.9,
        "edad_min_h": 29.4,
        "ultima_deteccion_utc": "2026-09-20 02:45:00",
        "sensores": "VIIRS_NOAA20_NRT, VIIRS_SNPP_NRT",
        "satellites": "N, N20",
        "instruments": "VIIRS",
        "popup_label": "<strong>ALERT-20260921-086<\/strong><br>Nivel: informativa<br>Focos: 2<br>Últimas 6 h: 0<br>FRP total: 1.8 MW<br>Última detección UTC: 2026-09-20 02:45:00"
      }
    },
    {
      "type": "Feature",
      "geometry": {
        "type": "Point",
        "coordinates": [-5.6704, 42.0166]
      },
      "properties": {
        "cluster_id": "ALERT-20260921-087",
        "alerta_operativa": "informativa",
        "score": 3.1,
        "n_focos": 1,
        "n_ultimas_6h": 0,
        "n_ultimas_24h": 0,
        "frp_total_mw": 1.9,
        "frp_max_mw": 1.9,
        "edad_min_h": 29.4,
        "ultima_deteccion_utc": "2026-09-20 02:43:00",
        "sensores": "VIIRS_NOAA20_NRT",
        "satellites": "N20",
        "instruments": "VIIRS",
        "popup_label": "<strong>ALERT-20260921-087<\/strong><br>Nivel: informativa<br>Focos: 1<br>Últimas 6 h: 0<br>FRP total: 1.9 MW<br>Última detección UTC: 2026-09-20 02:43:00"
      }
    },
    {
      "type": "Feature",
      "geometry": {
        "type": "Point",
        "coordinates": [-7.5379, 38.9012]
      },
      "properties": {
        "cluster_id": "ALERT-20260921-088",
        "alerta_operativa": "informativa",
        "score": 2.6,
        "n_focos": 1,
        "n_ultimas_6h": 0,
        "n_ultimas_24h": 0,
        "frp_total_mw": 1.2,
        "frp_max_mw": 1.2,
        "edad_min_h": 29.4,
        "ultima_deteccion_utc": "2026-09-20 02:43:00",
        "sensores": "VIIRS_NOAA20_NRT",
        "satellites": "N20",
        "instruments": "VIIRS",
        "popup_label": "<strong>ALERT-20260921-088<\/strong><br>Nivel: informativa<br>Focos: 1<br>Últimas 6 h: 0<br>FRP total: 1.2 MW<br>Última detección UTC: 2026-09-20 02:43:00"
      }
    },
    {
      "type": "Feature",
      "geometry": {
        "type": "Point",
        "coordinates": [-9.0783, 38.6297]
      },
      "properties": {
        "cluster_id": "ALERT-20260921-089",
        "alerta_operativa": "informativa",
        "score": 2.4,
        "n_focos": 1,
        "n_ultimas_6h": 0,
        "n_ultimas_24h": 0,
        "frp_total_mw": 1,
        "frp_max_mw": 1,
        "edad_min_h": 29.4,
        "ultima_deteccion_utc": "2026-09-20 02:43:00",
        "sensores": "VIIRS_NOAA20_NRT",
        "satellites": "N20",
        "instruments": "VIIRS",
        "popup_label": "<strong>ALERT-20260921-089<\/strong><br>Nivel: informativa<br>Focos: 1<br>Últimas 6 h: 0<br>FRP total: 1 MW<br>Última detección UTC: 2026-09-20 02:43:00"
      }
    },
    {
      "type": "Feature",
      "geometry": {
        "type": "Point",
        "coordinates": [-9.5252, 30.3372]
      },
      "properties": {
        "cluster_id": "ALERT-20260921-090",
        "alerta_operativa": "informativa",
        "score": 2.3,
        "n_focos": 1,
        "n_ultimas_6h": 0,
        "n_ultimas_24h": 0,
        "frp_total_mw": 0.9,
        "frp_max_mw": 0.9,
        "edad_min_h": 29.4,
        "ultima_deteccion_utc": "2026-09-20 02:45:00",
        "sensores": "VIIRS_NOAA20_NRT",
        "satellites": "N20",
        "instruments": "VIIRS",
        "popup_label": "<strong>ALERT-20260921-090<\/strong><br>Nivel: informativa<br>Focos: 1<br>Últimas 6 h: 0<br>FRP total: 0.9 MW<br>Última detección UTC: 2026-09-20 02:45:00"
      }
    },
    {
      "type": "Feature",
      "geometry": {
        "type": "Point",
        "coordinates": [-1.7446, 42.8159]
      },
      "properties": {
        "cluster_id": "ALERT-20260921-091",
        "alerta_operativa": "informativa",
        "score": 2.2,
        "n_focos": 1,
        "n_ultimas_6h": 0,
        "n_ultimas_24h": 0,
        "frp_total_mw": 0.8,
        "frp_max_mw": 0.8,
        "edad_min_h": 29.7,
        "ultima_deteccion_utc": "2026-09-20 02:24:00",
        "sensores": "VIIRS_SNPP_NRT",
        "satellites": "N",
        "instruments": "VIIRS",
        "popup_label": "<strong>ALERT-20260921-091<\/strong><br>Nivel: informativa<br>Focos: 1<br>Últimas 6 h: 0<br>FRP total: 0.8 MW<br>Última detección UTC: 2026-09-20 02:24:00"
      }
    },
    {
      "type": "Feature",
      "geometry": {
        "type": "Point",
        "coordinates": [-7.5366, 33.4355]
      },
      "properties": {
        "cluster_id": "ALERT-20260921-092",
        "alerta_operativa": "informativa",
        "score": 1.9,
        "n_focos": 1,
        "n_ultimas_6h": 0,
        "n_ultimas_24h": 0,
        "frp_total_mw": 0.6,
        "frp_max_mw": 0.6,
        "edad_min_h": 29.7,
        "ultima_deteccion_utc": "2026-09-20 02:26:00",
        "sensores": "VIIRS_SNPP_NRT",
        "satellites": "N",
        "instruments": "VIIRS",
        "popup_label": "<strong>ALERT-20260921-092<\/strong><br>Nivel: informativa<br>Focos: 1<br>Últimas 6 h: 0<br>FRP total: 0.6 MW<br>Última detección UTC: 2026-09-20 02:26:00"
      }
    },
    {
      "type": "Feature",
      "geometry": {
        "type": "Point",
        "coordinates": [-6.9503, 33.8923]
      },
      "properties": {
        "cluster_id": "ALERT-20260921-093",
        "alerta_operativa": "informativa",
        "score": 1.9,
        "n_focos": 1,
        "n_ultimas_6h": 0,
        "n_ultimas_24h": 0,
        "frp_total_mw": 0.6,
        "frp_max_mw": 0.6,
        "edad_min_h": 29.7,
        "ultima_deteccion_utc": "2026-09-20 02:26:00",
        "sensores": "VIIRS_SNPP_NRT",
        "satellites": "N",
        "instruments": "VIIRS",
        "popup_label": "<strong>ALERT-20260921-093<\/strong><br>Nivel: informativa<br>Focos: 1<br>Últimas 6 h: 0<br>FRP total: 0.6 MW<br>Última detección UTC: 2026-09-20 02:26:00"
      }
    },
    {
      "type": "Feature",
      "geometry": {
        "type": "Point",
        "coordinates": [-8.5558, 41.2536]
      },
      "properties": {
        "cluster_id": "ALERT-20260921-094",
        "alerta_operativa": "informativa",
        "score": 1.8,
        "n_focos": 1,
        "n_ultimas_6h": 0,
        "n_ultimas_24h": 0,
        "frp_total_mw": 0.5,
        "frp_max_mw": 0.5,
        "edad_min_h": 29.4,
        "ultima_deteccion_utc": "2026-09-20 02:43:00",
        "sensores": "VIIRS_NOAA20_NRT",
        "satellites": "N20",
        "instruments": "VIIRS",
        "popup_label": "<strong>ALERT-20260921-094<\/strong><br>Nivel: informativa<br>Focos: 1<br>Últimas 6 h: 0<br>FRP total: 0.5 MW<br>Última detección UTC: 2026-09-20 02:43:00"
      }
    },
    {
      "type": "Feature",
      "geometry": {
        "type": "Point",
        "coordinates": [-1.5112, 42.923]
      },
      "properties": {
        "cluster_id": "ALERT-20260921-095",
        "alerta_operativa": "informativa",
        "score": 1.7,
        "n_focos": 1,
        "n_ultimas_6h": 0,
        "n_ultimas_24h": 0,
        "frp_total_mw": 0.4,
        "frp_max_mw": 0.4,
        "edad_min_h": 29.7,
        "ultima_deteccion_utc": "2026-09-20 02:24:00",
        "sensores": "VIIRS_SNPP_NRT",
        "satellites": "N",
        "instruments": "VIIRS",
        "popup_label": "<strong>ALERT-20260921-095<\/strong><br>Nivel: informativa<br>Focos: 1<br>Últimas 6 h: 0<br>FRP total: 0.4 MW<br>Última detección UTC: 2026-09-20 02:24:00"
      }
    },
    {
      "type": "Feature",
      "geometry": {
        "type": "Point",
        "coordinates": [-2.7726, 43.2071]
      },
      "properties": {
        "cluster_id": "ALERT-20260921-096",
        "alerta_operativa": "informativa",
        "score": 1.5,
        "n_focos": 1,
        "n_ultimas_6h": 0,
        "n_ultimas_24h": 0,
        "frp_total_mw": 0.3,
        "frp_max_mw": 0.3,
        "edad_min_h": 29.4,
        "ultima_deteccion_utc": "2026-09-20 02:43:00",
        "sensores": "VIIRS_NOAA20_NRT",
        "satellites": "N20",
        "instruments": "VIIRS",
        "popup_label": "<strong>ALERT-20260921-096<\/strong><br>Nivel: informativa<br>Focos: 1<br>Últimas 6 h: 0<br>FRP total: 0.3 MW<br>Última detección UTC: 2026-09-20 02:43:00"
      }
    }
  ]
}
