{
  "type": "FeatureCollection",
  "features": [
    {
      "type": "Feature",
      "geometry": {
        "type": "Point",
        "coordinates": [-8.5531, 40.6059]
      },
      "properties": {
        "cluster_id": "ALERT-20260919-001",
        "alerta_operativa": "alta",
        "score": 70.2,
        "n_focos": 19,
        "n_ultimas_6h": 0,
        "n_ultimas_24h": 19,
        "frp_total_mw": 739.8,
        "frp_max_mw": 87.2,
        "edad_min_h": 21.3,
        "ultima_deteccion_utc": "2026-09-18 14:44:00",
        "sensores": "VIIRS_NOAA20_NRT, VIIRS_SNPP_NRT",
        "satellites": "N, N20",
        "instruments": "VIIRS",
        "popup_label": "<strong>ALERT-20260919-001<\/strong><br>Nivel: alta<br>Focos: 19<br>Últimas 6 h: 0<br>FRP total: 739.8 MW<br>Última detección UTC: 2026-09-18 14:44:00"
      }
    },
    {
      "type": "Feature",
      "geometry": {
        "type": "Point",
        "coordinates": [-2.0234, 42.0759]
      },
      "properties": {
        "cluster_id": "ALERT-20260919-002",
        "alerta_operativa": "alta",
        "score": 34.2,
        "n_focos": 8,
        "n_ultimas_6h": 0,
        "n_ultimas_24h": 8,
        "frp_total_mw": 165.2,
        "frp_max_mw": 28.9,
        "edad_min_h": 21.6,
        "ultima_deteccion_utc": "2026-09-18 14:27:00",
        "sensores": "VIIRS_NOAA20_NRT, VIIRS_SNPP_NRT",
        "satellites": "N, N20",
        "instruments": "VIIRS",
        "popup_label": "<strong>ALERT-20260919-002<\/strong><br>Nivel: alta<br>Focos: 8<br>Últimas 6 h: 0<br>FRP total: 165.2 MW<br>Última detección UTC: 2026-09-18 14:27:00"
      }
    },
    {
      "type": "Feature",
      "geometry": {
        "type": "Point",
        "coordinates": [4.8971, 43.4413]
      },
      "properties": {
        "cluster_id": "ALERT-20260919-003",
        "alerta_operativa": "media",
        "score": 109.9,
        "n_focos": 51,
        "n_ultimas_6h": 0,
        "n_ultimas_24h": 25,
        "frp_total_mw": 82.8,
        "frp_max_mw": 5.4,
        "edad_min_h": 9,
        "ultima_deteccion_utc": "2026-09-19 03:02:00",
        "sensores": "VIIRS_NOAA20_NRT, VIIRS_SNPP_NRT",
        "satellites": "N, N20",
        "instruments": "VIIRS",
        "popup_label": "<strong>ALERT-20260919-003<\/strong><br>Nivel: media<br>Focos: 51<br>Últimas 6 h: 0<br>FRP total: 82.8 MW<br>Última detección UTC: 2026-09-19 03:02:00"
      }
    },
    {
      "type": "Feature",
      "geometry": {
        "type": "Point",
        "coordinates": [3.2307, 32.9373]
      },
      "properties": {
        "cluster_id": "ALERT-20260919-004",
        "alerta_operativa": "media",
        "score": 78.7,
        "n_focos": 24,
        "n_ultimas_6h": 0,
        "n_ultimas_24h": 24,
        "frp_total_mw": 27.6,
        "frp_max_mw": 2.5,
        "edad_min_h": 9.3,
        "ultima_deteccion_utc": "2026-09-19 02:43:00",
        "sensores": "VIIRS_NOAA20_NRT, VIIRS_SNPP_NRT",
        "satellites": "N, N20",
        "instruments": "VIIRS",
        "popup_label": "<strong>ALERT-20260919-004<\/strong><br>Nivel: media<br>Focos: 24<br>Últimas 6 h: 0<br>FRP total: 27.6 MW<br>Última detección UTC: 2026-09-19 02:43:00"
      }
    },
    {
      "type": "Feature",
      "geometry": {
        "type": "Point",
        "coordinates": [-0.2619, 35.8105]
      },
      "properties": {
        "cluster_id": "ALERT-20260919-005",
        "alerta_operativa": "media",
        "score": 58.3,
        "n_focos": 24,
        "n_ultimas_6h": 0,
        "n_ultimas_24h": 13,
        "frp_total_mw": 61.6,
        "frp_max_mw": 5.3,
        "edad_min_h": 9.3,
        "ultima_deteccion_utc": "2026-09-19 02:43:00",
        "sensores": "VIIRS_NOAA20_NRT, VIIRS_SNPP_NRT",
        "satellites": "N, N20",
        "instruments": "VIIRS",
        "popup_label": "<strong>ALERT-20260919-005<\/strong><br>Nivel: media<br>Focos: 24<br>Últimas 6 h: 0<br>FRP total: 61.6 MW<br>Última detección UTC: 2026-09-19 02:43:00"
      }
    },
    {
      "type": "Feature",
      "geometry": {
        "type": "Point",
        "coordinates": [3.3323, 33.1226]
      },
      "properties": {
        "cluster_id": "ALERT-20260919-006",
        "alerta_operativa": "media",
        "score": 47.2,
        "n_focos": 16,
        "n_ultimas_6h": 0,
        "n_ultimas_24h": 13,
        "frp_total_mw": 12.4,
        "frp_max_mw": 1.5,
        "edad_min_h": 9.3,
        "ultima_deteccion_utc": "2026-09-19 02:43:00",
        "sensores": "VIIRS_NOAA20_NRT, VIIRS_SNPP_NRT",
        "satellites": "N, N20",
        "instruments": "VIIRS",
        "popup_label": "<strong>ALERT-20260919-006<\/strong><br>Nivel: media<br>Focos: 16<br>Últimas 6 h: 0<br>FRP total: 12.4 MW<br>Última detección UTC: 2026-09-19 02:43:00"
      }
    },
    {
      "type": "Feature",
      "geometry": {
        "type": "Point",
        "coordinates": [-5.7659, 43.533]
      },
      "properties": {
        "cluster_id": "ALERT-20260919-007",
        "alerta_operativa": "media",
        "score": 44.4,
        "n_focos": 13,
        "n_ultimas_6h": 0,
        "n_ultimas_24h": 13,
        "frp_total_mw": 13.6,
        "frp_max_mw": 2.2,
        "edad_min_h": 9,
        "ultima_deteccion_utc": "2026-09-19 03:02:00",
        "sensores": "VIIRS_NOAA20_NRT, VIIRS_SNPP_NRT",
        "satellites": "N, N20",
        "instruments": "VIIRS",
        "popup_label": "<strong>ALERT-20260919-007<\/strong><br>Nivel: media<br>Focos: 13<br>Últimas 6 h: 0<br>FRP total: 13.6 MW<br>Última detección UTC: 2026-09-19 03:02:00"
      }
    },
    {
      "type": "Feature",
      "geometry": {
        "type": "Point",
        "coordinates": [1.2302, 41.1803]
      },
      "properties": {
        "cluster_id": "ALERT-20260919-008",
        "alerta_operativa": "media",
        "score": 38.3,
        "n_focos": 10,
        "n_ultimas_6h": 0,
        "n_ultimas_24h": 10,
        "frp_total_mw": 63.8,
        "frp_max_mw": 11.5,
        "edad_min_h": 9,
        "ultima_deteccion_utc": "2026-09-19 03:02:00",
        "sensores": "VIIRS_NOAA20_NRT, VIIRS_SNPP_NRT",
        "satellites": "N, N20",
        "instruments": "VIIRS",
        "popup_label": "<strong>ALERT-20260919-008<\/strong><br>Nivel: media<br>Focos: 10<br>Últimas 6 h: 0<br>FRP total: 63.8 MW<br>Última detección UTC: 2026-09-19 03:02:00"
      }
    },
    {
      "type": "Feature",
      "geometry": {
        "type": "Point",
        "coordinates": [3.9868, 32.2766]
      },
      "properties": {
        "cluster_id": "ALERT-20260919-009",
        "alerta_operativa": "media",
        "score": 30.3,
        "n_focos": 8,
        "n_ultimas_6h": 0,
        "n_ultimas_24h": 8,
        "frp_total_mw": 21.8,
        "frp_max_mw": 6.9,
        "edad_min_h": 9.3,
        "ultima_deteccion_utc": "2026-09-19 02:43:00",
        "sensores": "VIIRS_NOAA20_NRT, VIIRS_SNPP_NRT",
        "satellites": "N, N20",
        "instruments": "VIIRS",
        "popup_label": "<strong>ALERT-20260919-009<\/strong><br>Nivel: media<br>Focos: 8<br>Últimas 6 h: 0<br>FRP total: 21.8 MW<br>Última detección UTC: 2026-09-19 02:43:00"
      }
    },
    {
      "type": "Feature",
      "geometry": {
        "type": "Point",
        "coordinates": [-3.4756, 40.2454]
      },
      "properties": {
        "cluster_id": "ALERT-20260919-010",
        "alerta_operativa": "media",
        "score": 29.5,
        "n_focos": 11,
        "n_ultimas_6h": 0,
        "n_ultimas_24h": 6,
        "frp_total_mw": 24.4,
        "frp_max_mw": 3.8,
        "edad_min_h": 9,
        "ultima_deteccion_utc": "2026-09-19 03:02:00",
        "sensores": "VIIRS_NOAA20_NRT, VIIRS_SNPP_NRT",
        "satellites": "N, N20",
        "instruments": "VIIRS",
        "popup_label": "<strong>ALERT-20260919-010<\/strong><br>Nivel: media<br>Focos: 11<br>Últimas 6 h: 0<br>FRP total: 24.4 MW<br>Última detección UTC: 2026-09-19 03:02:00"
      }
    },
    {
      "type": "Feature",
      "geometry": {
        "type": "Point",
        "coordinates": [3.1827, 32.7453]
      },
      "properties": {
        "cluster_id": "ALERT-20260919-011",
        "alerta_operativa": "media",
        "score": 28.7,
        "n_focos": 8,
        "n_ultimas_6h": 0,
        "n_ultimas_24h": 8,
        "frp_total_mw": 9.7,
        "frp_max_mw": 1.5,
        "edad_min_h": 9.3,
        "ultima_deteccion_utc": "2026-09-19 02:43:00",
        "sensores": "VIIRS_NOAA20_NRT, VIIRS_SNPP_NRT",
        "satellites": "N, N20",
        "instruments": "VIIRS",
        "popup_label": "<strong>ALERT-20260919-011<\/strong><br>Nivel: media<br>Focos: 8<br>Últimas 6 h: 0<br>FRP total: 9.7 MW<br>Última detección UTC: 2026-09-19 02:43:00"
      }
    },
    {
      "type": "Feature",
      "geometry": {
        "type": "Point",
        "coordinates": [-1.1306, 44.1392]
      },
      "properties": {
        "cluster_id": "ALERT-20260919-012",
        "alerta_operativa": "media",
        "score": 25.9,
        "n_focos": 9,
        "n_ultimas_6h": 0,
        "n_ultimas_24h": 5,
        "frp_total_mw": 30.2,
        "frp_max_mw": 6,
        "edad_min_h": 23,
        "ultima_deteccion_utc": "2026-09-18 13:04:00",
        "sensores": "VIIRS_NOAA20_NRT, VIIRS_SNPP_NRT",
        "satellites": "N, N20",
        "instruments": "VIIRS",
        "popup_label": "<strong>ALERT-20260919-012<\/strong><br>Nivel: media<br>Focos: 9<br>Últimas 6 h: 0<br>FRP total: 30.2 MW<br>Última detección UTC: 2026-09-18 13:04:00"
      }
    },
    {
      "type": "Feature",
      "geometry": {
        "type": "Point",
        "coordinates": [-5.7469, 38.899]
      },
      "properties": {
        "cluster_id": "ALERT-20260919-013",
        "alerta_operativa": "media",
        "score": 23.3,
        "n_focos": 9,
        "n_ultimas_6h": 0,
        "n_ultimas_24h": 4,
        "frp_total_mw": 21.9,
        "frp_max_mw": 5,
        "edad_min_h": 21.6,
        "ultima_deteccion_utc": "2026-09-18 14:25:00",
        "sensores": "VIIRS_NOAA20_NRT, VIIRS_SNPP_NRT",
        "satellites": "N, N20",
        "instruments": "VIIRS",
        "popup_label": "<strong>ALERT-20260919-013<\/strong><br>Nivel: media<br>Focos: 9<br>Últimas 6 h: 0<br>FRP total: 21.9 MW<br>Última detección UTC: 2026-09-18 14:25:00"
      }
    },
    {
      "type": "Feature",
      "geometry": {
        "type": "Point",
        "coordinates": [3.1275, 44.3871]
      },
      "properties": {
        "cluster_id": "ALERT-20260919-014",
        "alerta_operativa": "media",
        "score": 21.8,
        "n_focos": 4,
        "n_ultimas_6h": 0,
        "n_ultimas_24h": 4,
        "frp_total_mw": 134.8,
        "frp_max_mw": 87.4,
        "edad_min_h": 23.3,
        "ultima_deteccion_utc": "2026-09-18 12:46:00",
        "sensores": "VIIRS_SNPP_NRT",
        "satellites": "N",
        "instruments": "VIIRS",
        "popup_label": "<strong>ALERT-20260919-014<\/strong><br>Nivel: media<br>Focos: 4<br>Últimas 6 h: 0<br>FRP total: 134.8 MW<br>Última detección UTC: 2026-09-18 12:46:00"
      }
    },
    {
      "type": "Feature",
      "geometry": {
        "type": "Point",
        "coordinates": [-8.4287, 42.439]
      },
      "properties": {
        "cluster_id": "ALERT-20260919-015",
        "alerta_operativa": "media",
        "score": 19.5,
        "n_focos": 5,
        "n_ultimas_6h": 0,
        "n_ultimas_24h": 5,
        "frp_total_mw": 8.3,
        "frp_max_mw": 5.6,
        "edad_min_h": 9,
        "ultima_deteccion_utc": "2026-09-19 03:02:00",
        "sensores": "VIIRS_NOAA20_NRT, VIIRS_SNPP_NRT",
        "satellites": "N, N20",
        "instruments": "VIIRS",
        "popup_label": "<strong>ALERT-20260919-015<\/strong><br>Nivel: media<br>Focos: 5<br>Últimas 6 h: 0<br>FRP total: 8.3 MW<br>Última detección UTC: 2026-09-19 03:02:00"
      }
    },
    {
      "type": "Feature",
      "geometry": {
        "type": "Point",
        "coordinates": [-6.5472, 38.8227]
      },
      "properties": {
        "cluster_id": "ALERT-20260919-016",
        "alerta_operativa": "media",
        "score": 17.8,
        "n_focos": 9,
        "n_ultimas_6h": 0,
        "n_ultimas_24h": 2,
        "frp_total_mw": 9.8,
        "frp_max_mw": 4.2,
        "edad_min_h": 10.7,
        "ultima_deteccion_utc": "2026-09-19 01:22:00",
        "sensores": "VIIRS_NOAA20_NRT, VIIRS_SNPP_NRT",
        "satellites": "N, N20",
        "instruments": "VIIRS",
        "popup_label": "<strong>ALERT-20260919-016<\/strong><br>Nivel: media<br>Focos: 9<br>Últimas 6 h: 0<br>FRP total: 9.8 MW<br>Última detección UTC: 2026-09-19 01:22:00"
      }
    },
    {
      "type": "Feature",
      "geometry": {
        "type": "Point",
        "coordinates": [3.3055, 43.3008]
      },
      "properties": {
        "cluster_id": "ALERT-20260919-017",
        "alerta_operativa": "media",
        "score": 16,
        "n_focos": 3,
        "n_ultimas_6h": 0,
        "n_ultimas_24h": 3,
        "frp_total_mw": 32.3,
        "frp_max_mw": 11.2,
        "edad_min_h": 23,
        "ultima_deteccion_utc": "2026-09-18 13:04:00",
        "sensores": "VIIRS_NOAA20_NRT, VIIRS_SNPP_NRT",
        "satellites": "N, N20",
        "instruments": "VIIRS",
        "popup_label": "<strong>ALERT-20260919-017<\/strong><br>Nivel: media<br>Focos: 3<br>Últimas 6 h: 0<br>FRP total: 32.3 MW<br>Última detección UTC: 2026-09-18 13:04:00"
      }
    },
    {
      "type": "Feature",
      "geometry": {
        "type": "Point",
        "coordinates": [3.1677, 32.556]
      },
      "properties": {
        "cluster_id": "ALERT-20260919-018",
        "alerta_operativa": "media",
        "score": 15.7,
        "n_focos": 4,
        "n_ultimas_6h": 0,
        "n_ultimas_24h": 4,
        "frp_total_mw": 5.4,
        "frp_max_mw": 2.8,
        "edad_min_h": 10.6,
        "ultima_deteccion_utc": "2026-09-19 01:24:00",
        "sensores": "VIIRS_NOAA20_NRT, VIIRS_SNPP_NRT",
        "satellites": "N, N20",
        "instruments": "VIIRS",
        "popup_label": "<strong>ALERT-20260919-018<\/strong><br>Nivel: media<br>Focos: 4<br>Últimas 6 h: 0<br>FRP total: 5.4 MW<br>Última detección UTC: 2026-09-19 01:24:00"
      }
    },
    {
      "type": "Feature",
      "geometry": {
        "type": "Point",
        "coordinates": [3.1007, 36.7143]
      },
      "properties": {
        "cluster_id": "ALERT-20260919-019",
        "alerta_operativa": "media",
        "score": 15.6,
        "n_focos": 4,
        "n_ultimas_6h": 0,
        "n_ultimas_24h": 4,
        "frp_total_mw": 5,
        "frp_max_mw": 2.1,
        "edad_min_h": 10.7,
        "ultima_deteccion_utc": "2026-09-19 01:22:00",
        "sensores": "VIIRS_NOAA20_NRT, VIIRS_SNPP_NRT",
        "satellites": "N, N20",
        "instruments": "VIIRS",
        "popup_label": "<strong>ALERT-20260919-019<\/strong><br>Nivel: media<br>Focos: 4<br>Últimas 6 h: 0<br>FRP total: 5 MW<br>Última detección UTC: 2026-09-19 01:22:00"
      }
    },
    {
      "type": "Feature",
      "geometry": {
        "type": "Point",
        "coordinates": [-0.3716, 33.2731]
      },
      "properties": {
        "cluster_id": "ALERT-20260919-020",
        "alerta_operativa": "media",
        "score": 13.5,
        "n_focos": 3,
        "n_ultimas_6h": 0,
        "n_ultimas_24h": 3,
        "frp_total_mw": 8.5,
        "frp_max_mw": 2.8,
        "edad_min_h": 23,
        "ultima_deteccion_utc": "2026-09-18 13:01:00",
        "sensores": "VIIRS_NOAA20_NRT",
        "satellites": "N20",
        "instruments": "VIIRS",
        "popup_label": "<strong>ALERT-20260919-020<\/strong><br>Nivel: media<br>Focos: 3<br>Últimas 6 h: 0<br>FRP total: 8.5 MW<br>Última detección UTC: 2026-09-18 13:01:00"
      }
    },
    {
      "type": "Feature",
      "geometry": {
        "type": "Point",
        "coordinates": [-7.2594, 38.6476]
      },
      "properties": {
        "cluster_id": "ALERT-20260919-021",
        "alerta_operativa": "media",
        "score": 13.2,
        "n_focos": 3,
        "n_ultimas_6h": 0,
        "n_ultimas_24h": 3,
        "frp_total_mw": 7.3,
        "frp_max_mw": 3.7,
        "edad_min_h": 21.6,
        "ultima_deteccion_utc": "2026-09-18 14:25:00",
        "sensores": "VIIRS_SNPP_NRT",
        "satellites": "N",
        "instruments": "VIIRS",
        "popup_label": "<strong>ALERT-20260919-021<\/strong><br>Nivel: media<br>Focos: 3<br>Últimas 6 h: 0<br>FRP total: 7.3 MW<br>Última detección UTC: 2026-09-18 14:25:00"
      }
    },
    {
      "type": "Feature",
      "geometry": {
        "type": "Point",
        "coordinates": [-8.2736, 37.4909]
      },
      "properties": {
        "cluster_id": "ALERT-20260919-022",
        "alerta_operativa": "media",
        "score": 13.1,
        "n_focos": 2,
        "n_ultimas_6h": 0,
        "n_ultimas_24h": 2,
        "frp_total_mw": 33.2,
        "frp_max_mw": 18.3,
        "edad_min_h": 21.3,
        "ultima_deteccion_utc": "2026-09-18 14:44:00",
        "sensores": "VIIRS_NOAA20_NRT",
        "satellites": "N20",
        "instruments": "VIIRS",
        "popup_label": "<strong>ALERT-20260919-022<\/strong><br>Nivel: media<br>Focos: 2<br>Últimas 6 h: 0<br>FRP total: 33.2 MW<br>Última detección UTC: 2026-09-18 14:44:00"
      }
    },
    {
      "type": "Feature",
      "geometry": {
        "type": "Point",
        "coordinates": [-8.6116, 41.148]
      },
      "properties": {
        "cluster_id": "ALERT-20260919-023",
        "alerta_operativa": "media",
        "score": 12.7,
        "n_focos": 3,
        "n_ultimas_6h": 0,
        "n_ultimas_24h": 3,
        "frp_total_mw": 5.3,
        "frp_max_mw": 2.1,
        "edad_min_h": 9,
        "ultima_deteccion_utc": "2026-09-19 03:02:00",
        "sensores": "VIIRS_NOAA20_NRT, VIIRS_SNPP_NRT",
        "satellites": "N, N20",
        "instruments": "VIIRS",
        "popup_label": "<strong>ALERT-20260919-023<\/strong><br>Nivel: media<br>Focos: 3<br>Últimas 6 h: 0<br>FRP total: 5.3 MW<br>Última detección UTC: 2026-09-19 03:02:00"
      }
    },
    {
      "type": "Feature",
      "geometry": {
        "type": "Point",
        "coordinates": [-3.6529, 42.2231]
      },
      "properties": {
        "cluster_id": "ALERT-20260919-024",
        "alerta_operativa": "media",
        "score": 12.2,
        "n_focos": 2,
        "n_ultimas_6h": 0,
        "n_ultimas_24h": 2,
        "frp_total_mw": 21.5,
        "frp_max_mw": 14,
        "edad_min_h": 23,
        "ultima_deteccion_utc": "2026-09-18 13:04:00",
        "sensores": "VIIRS_NOAA20_NRT, VIIRS_SNPP_NRT",
        "satellites": "N, N20",
        "instruments": "VIIRS",
        "popup_label": "<strong>ALERT-20260919-024<\/strong><br>Nivel: media<br>Focos: 2<br>Últimas 6 h: 0<br>FRP total: 21.5 MW<br>Última detección UTC: 2026-09-18 13:04:00"
      }
    },
    {
      "type": "Feature",
      "geometry": {
        "type": "Point",
        "coordinates": [-6.0094, 36.9751]
      },
      "properties": {
        "cluster_id": "ALERT-20260919-025",
        "alerta_operativa": "media",
        "score": 11.5,
        "n_focos": 2,
        "n_ultimas_6h": 0,
        "n_ultimas_24h": 2,
        "frp_total_mw": 14.8,
        "frp_max_mw": 12.1,
        "edad_min_h": 23,
        "ultima_deteccion_utc": "2026-09-18 13:01:00",
        "sensores": "VIIRS_NOAA20_NRT, VIIRS_SNPP_NRT",
        "satellites": "N, N20",
        "instruments": "VIIRS",
        "popup_label": "<strong>ALERT-20260919-025<\/strong><br>Nivel: media<br>Focos: 2<br>Últimas 6 h: 0<br>FRP total: 14.8 MW<br>Última detección UTC: 2026-09-18 13:01:00"
      }
    },
    {
      "type": "Feature",
      "geometry": {
        "type": "Point",
        "coordinates": [-1.4891, 41.4754]
      },
      "properties": {
        "cluster_id": "ALERT-20260919-026",
        "alerta_operativa": "media",
        "score": 11,
        "n_focos": 4,
        "n_ultimas_6h": 0,
        "n_ultimas_24h": 2,
        "frp_total_mw": 3.5,
        "frp_max_mw": 1.3,
        "edad_min_h": 9.4,
        "ultima_deteccion_utc": "2026-09-19 02:41:00",
        "sensores": "VIIRS_NOAA20_NRT, VIIRS_SNPP_NRT",
        "satellites": "N, N20",
        "instruments": "VIIRS",
        "popup_label": "<strong>ALERT-20260919-026<\/strong><br>Nivel: media<br>Focos: 4<br>Últimas 6 h: 0<br>FRP total: 3.5 MW<br>Última detección UTC: 2026-09-19 02:41:00"
      }
    },
    {
      "type": "Feature",
      "geometry": {
        "type": "Point",
        "coordinates": [2.8345, 44.3761]
      },
      "properties": {
        "cluster_id": "ALERT-20260919-027",
        "alerta_operativa": "media",
        "score": 10.5,
        "n_focos": 2,
        "n_ultimas_6h": 0,
        "n_ultimas_24h": 2,
        "frp_total_mw": 8.3,
        "frp_max_mw": 4.2,
        "edad_min_h": 23.3,
        "ultima_deteccion_utc": "2026-09-18 12:46:00",
        "sensores": "VIIRS_SNPP_NRT",
        "satellites": "N",
        "instruments": "VIIRS",
        "popup_label": "<strong>ALERT-20260919-027<\/strong><br>Nivel: media<br>Focos: 2<br>Últimas 6 h: 0<br>FRP total: 8.3 MW<br>Última detección UTC: 2026-09-18 12:46:00"
      }
    },
    {
      "type": "Feature",
      "geometry": {
        "type": "Point",
        "coordinates": [-9.4691, 30.2393]
      },
      "properties": {
        "cluster_id": "ALERT-20260919-028",
        "alerta_operativa": "media",
        "score": 10.3,
        "n_focos": 2,
        "n_ultimas_6h": 0,
        "n_ultimas_24h": 2,
        "frp_total_mw": 7.7,
        "frp_max_mw": 4.3,
        "edad_min_h": 23,
        "ultima_deteccion_utc": "2026-09-18 13:01:00",
        "sensores": "VIIRS_NOAA20_NRT",
        "satellites": "N20",
        "instruments": "VIIRS",
        "popup_label": "<strong>ALERT-20260919-028<\/strong><br>Nivel: media<br>Focos: 2<br>Últimas 6 h: 0<br>FRP total: 7.7 MW<br>Última detección UTC: 2026-09-18 13:01:00"
      }
    },
    {
      "type": "Feature",
      "geometry": {
        "type": "Point",
        "coordinates": [1.1966, 36.1422]
      },
      "properties": {
        "cluster_id": "ALERT-20260919-029",
        "alerta_operativa": "media",
        "score": 10,
        "n_focos": 2,
        "n_ultimas_6h": 0,
        "n_ultimas_24h": 2,
        "frp_total_mw": 6.5,
        "frp_max_mw": 3.9,
        "edad_min_h": 10.6,
        "ultima_deteccion_utc": "2026-09-19 01:24:00",
        "sensores": "VIIRS_NOAA20_NRT",
        "satellites": "N20",
        "instruments": "VIIRS",
        "popup_label": "<strong>ALERT-20260919-029<\/strong><br>Nivel: media<br>Focos: 2<br>Últimas 6 h: 0<br>FRP total: 6.5 MW<br>Última detección UTC: 2026-09-19 01:24:00"
      }
    },
    {
      "type": "Feature",
      "geometry": {
        "type": "Point",
        "coordinates": [3.8265, 40.0272]
      },
      "properties": {
        "cluster_id": "ALERT-20260919-030",
        "alerta_operativa": "media",
        "score": 10,
        "n_focos": 2,
        "n_ultimas_6h": 0,
        "n_ultimas_24h": 2,
        "frp_total_mw": 6.3,
        "frp_max_mw": 3.1,
        "edad_min_h": 23.3,
        "ultima_deteccion_utc": "2026-09-18 12:44:00",
        "sensores": "VIIRS_SNPP_NRT",
        "satellites": "N",
        "instruments": "VIIRS",
        "popup_label": "<strong>ALERT-20260919-030<\/strong><br>Nivel: media<br>Focos: 2<br>Últimas 6 h: 0<br>FRP total: 6.3 MW<br>Última detección UTC: 2026-09-18 12:44:00"
      }
    },
    {
      "type": "Feature",
      "geometry": {
        "type": "Point",
        "coordinates": [-5.1827, 36.9474]
      },
      "properties": {
        "cluster_id": "ALERT-20260919-031",
        "alerta_operativa": "media",
        "score": 9.9,
        "n_focos": 2,
        "n_ultimas_6h": 0,
        "n_ultimas_24h": 2,
        "frp_total_mw": 6,
        "frp_max_mw": 3.2,
        "edad_min_h": 9,
        "ultima_deteccion_utc": "2026-09-19 03:04:00",
        "sensores": "VIIRS_NOAA20_NRT, VIIRS_SNPP_NRT",
        "satellites": "N, N20",
        "instruments": "VIIRS",
        "popup_label": "<strong>ALERT-20260919-031<\/strong><br>Nivel: media<br>Focos: 2<br>Últimas 6 h: 0<br>FRP total: 6 MW<br>Última detección UTC: 2026-09-19 03:04:00"
      }
    },
    {
      "type": "Feature",
      "geometry": {
        "type": "Point",
        "coordinates": [-3.2445, 40.7171]
      },
      "properties": {
        "cluster_id": "ALERT-20260919-032",
        "alerta_operativa": "media",
        "score": 9.5,
        "n_focos": 2,
        "n_ultimas_6h": 0,
        "n_ultimas_24h": 2,
        "frp_total_mw": 4.7,
        "frp_max_mw": 2.3,
        "edad_min_h": 23,
        "ultima_deteccion_utc": "2026-09-18 13:04:00",
        "sensores": "VIIRS_NOAA20_NRT",
        "satellites": "N20",
        "instruments": "VIIRS",
        "popup_label": "<strong>ALERT-20260919-032<\/strong><br>Nivel: media<br>Focos: 2<br>Últimas 6 h: 0<br>FRP total: 4.7 MW<br>Última detección UTC: 2026-09-18 13:04:00"
      }
    },
    {
      "type": "Feature",
      "geometry": {
        "type": "Point",
        "coordinates": [-6.7719, 42.5528]
      },
      "properties": {
        "cluster_id": "ALERT-20260919-033",
        "alerta_operativa": "media",
        "score": 9.5,
        "n_focos": 3,
        "n_ultimas_6h": 0,
        "n_ultimas_24h": 2,
        "frp_total_mw": 2.5,
        "frp_max_mw": 1,
        "edad_min_h": 9.4,
        "ultima_deteccion_utc": "2026-09-19 02:41:00",
        "sensores": "VIIRS_NOAA20_NRT, VIIRS_SNPP_NRT",
        "satellites": "N, N20",
        "instruments": "VIIRS",
        "popup_label": "<strong>ALERT-20260919-033<\/strong><br>Nivel: media<br>Focos: 3<br>Últimas 6 h: 0<br>FRP total: 2.5 MW<br>Última detección UTC: 2026-09-19 02:41:00"
      }
    },
    {
      "type": "Feature",
      "geometry": {
        "type": "Point",
        "coordinates": [-4.2175, 40.2931]
      },
      "properties": {
        "cluster_id": "ALERT-20260919-034",
        "alerta_operativa": "media",
        "score": 9.4,
        "n_focos": 2,
        "n_ultimas_6h": 0,
        "n_ultimas_24h": 2,
        "frp_total_mw": 4.4,
        "frp_max_mw": 3.5,
        "edad_min_h": 9,
        "ultima_deteccion_utc": "2026-09-19 03:02:00",
        "sensores": "VIIRS_NOAA20_NRT, VIIRS_SNPP_NRT",
        "satellites": "N, N20",
        "instruments": "VIIRS",
        "popup_label": "<strong>ALERT-20260919-034<\/strong><br>Nivel: media<br>Focos: 2<br>Últimas 6 h: 0<br>FRP total: 4.4 MW<br>Última detección UTC: 2026-09-19 03:02:00"
      }
    },
    {
      "type": "Feature",
      "geometry": {
        "type": "Point",
        "coordinates": [-1.9456, 42.7612]
      },
      "properties": {
        "cluster_id": "ALERT-20260919-035",
        "alerta_operativa": "media",
        "score": 9.4,
        "n_focos": 2,
        "n_ultimas_6h": 0,
        "n_ultimas_24h": 2,
        "frp_total_mw": 4.4,
        "frp_max_mw": 2.2,
        "edad_min_h": 23.3,
        "ultima_deteccion_utc": "2026-09-18 12:44:00",
        "sensores": "VIIRS_SNPP_NRT",
        "satellites": "N",
        "instruments": "VIIRS",
        "popup_label": "<strong>ALERT-20260919-035<\/strong><br>Nivel: media<br>Focos: 2<br>Últimas 6 h: 0<br>FRP total: 4.4 MW<br>Última detección UTC: 2026-09-18 12:44:00"
      }
    },
    {
      "type": "Feature",
      "geometry": {
        "type": "Point",
        "coordinates": [0.1781, 41.9241]
      },
      "properties": {
        "cluster_id": "ALERT-20260919-036",
        "alerta_operativa": "media",
        "score": 8.4,
        "n_focos": 2,
        "n_ultimas_6h": 0,
        "n_ultimas_24h": 2,
        "frp_total_mw": 2.4,
        "frp_max_mw": 1.7,
        "edad_min_h": 9,
        "ultima_deteccion_utc": "2026-09-19 03:02:00",
        "sensores": "VIIRS_NOAA20_NRT, VIIRS_SNPP_NRT",
        "satellites": "N, N20",
        "instruments": "VIIRS",
        "popup_label": "<strong>ALERT-20260919-036<\/strong><br>Nivel: media<br>Focos: 2<br>Últimas 6 h: 0<br>FRP total: 2.4 MW<br>Última detección UTC: 2026-09-19 03:02:00"
      }
    },
    {
      "type": "Feature",
      "geometry": {
        "type": "Point",
        "coordinates": [-9.0792, 38.6309]
      },
      "properties": {
        "cluster_id": "ALERT-20260919-037",
        "alerta_operativa": "media",
        "score": 8.1,
        "n_focos": 2,
        "n_ultimas_6h": 0,
        "n_ultimas_24h": 2,
        "frp_total_mw": 1.8,
        "frp_max_mw": 1.1,
        "edad_min_h": 9,
        "ultima_deteccion_utc": "2026-09-19 03:04:00",
        "sensores": "VIIRS_NOAA20_NRT, VIIRS_SNPP_NRT",
        "satellites": "N, N20",
        "instruments": "VIIRS",
        "popup_label": "<strong>ALERT-20260919-037<\/strong><br>Nivel: media<br>Focos: 2<br>Últimas 6 h: 0<br>FRP total: 1.8 MW<br>Última detección UTC: 2026-09-19 03:04:00"
      }
    },
    {
      "type": "Feature",
      "geometry": {
        "type": "Point",
        "coordinates": [-8.4198, 40.2904]
      },
      "properties": {
        "cluster_id": "ALERT-20260919-038",
        "alerta_operativa": "media",
        "score": 7.9,
        "n_focos": 2,
        "n_ultimas_6h": 0,
        "n_ultimas_24h": 2,
        "frp_total_mw": 1.6,
        "frp_max_mw": 0.9,
        "edad_min_h": 9,
        "ultima_deteccion_utc": "2026-09-19 03:02:00",
        "sensores": "VIIRS_NOAA20_NRT, VIIRS_SNPP_NRT",
        "satellites": "N, N20",
        "instruments": "VIIRS",
        "popup_label": "<strong>ALERT-20260919-038<\/strong><br>Nivel: media<br>Focos: 2<br>Últimas 6 h: 0<br>FRP total: 1.6 MW<br>Última detección UTC: 2026-09-19 03:02:00"
      }
    },
    {
      "type": "Feature",
      "geometry": {
        "type": "Point",
        "coordinates": [-5.7718, 42.3692]
      },
      "properties": {
        "cluster_id": "ALERT-20260919-039",
        "alerta_operativa": "media",
        "score": 7.9,
        "n_focos": 2,
        "n_ultimas_6h": 0,
        "n_ultimas_24h": 2,
        "frp_total_mw": 1.6,
        "frp_max_mw": 0.8,
        "edad_min_h": 9.4,
        "ultima_deteccion_utc": "2026-09-19 02:41:00",
        "sensores": "VIIRS_NOAA20_NRT, VIIRS_SNPP_NRT",
        "satellites": "N, N20",
        "instruments": "VIIRS",
        "popup_label": "<strong>ALERT-20260919-039<\/strong><br>Nivel: media<br>Focos: 2<br>Últimas 6 h: 0<br>FRP total: 1.6 MW<br>Última detección UTC: 2026-09-19 02:41:00"
      }
    },
    {
      "type": "Feature",
      "geometry": {
        "type": "Point",
        "coordinates": [-9.1524, 30.219]
      },
      "properties": {
        "cluster_id": "ALERT-20260919-040",
        "alerta_operativa": "media",
        "score": 7.8,
        "n_focos": 2,
        "n_ultimas_6h": 0,
        "n_ultimas_24h": 2,
        "frp_total_mw": 1.5,
        "frp_max_mw": 0.9,
        "edad_min_h": 8.9,
        "ultima_deteccion_utc": "2026-09-19 03:06:00",
        "sensores": "VIIRS_NOAA20_NRT, VIIRS_SNPP_NRT",
        "satellites": "N, N20",
        "instruments": "VIIRS",
        "popup_label": "<strong>ALERT-20260919-040<\/strong><br>Nivel: media<br>Focos: 2<br>Últimas 6 h: 0<br>FRP total: 1.5 MW<br>Última detección UTC: 2026-09-19 03:06:00"
      }
    },
    {
      "type": "Feature",
      "geometry": {
        "type": "Point",
        "coordinates": [-8.4358, 43.3475]
      },
      "properties": {
        "cluster_id": "ALERT-20260919-041",
        "alerta_operativa": "media",
        "score": 7.7,
        "n_focos": 2,
        "n_ultimas_6h": 0,
        "n_ultimas_24h": 2,
        "frp_total_mw": 1.3,
        "frp_max_mw": 0.6,
        "edad_min_h": 9.4,
        "ultima_deteccion_utc": "2026-09-19 02:41:00",
        "sensores": "VIIRS_SNPP_NRT",
        "satellites": "N",
        "instruments": "VIIRS",
        "popup_label": "<strong>ALERT-20260919-041<\/strong><br>Nivel: media<br>Focos: 2<br>Últimas 6 h: 0<br>FRP total: 1.3 MW<br>Última detección UTC: 2026-09-19 02:41:00"
      }
    },
    {
      "type": "Feature",
      "geometry": {
        "type": "Point",
        "coordinates": [1.9867, 41.4311]
      },
      "properties": {
        "cluster_id": "ALERT-20260919-042",
        "alerta_operativa": "media",
        "score": 7.7,
        "n_focos": 2,
        "n_ultimas_6h": 0,
        "n_ultimas_24h": 2,
        "frp_total_mw": 1.3,
        "frp_max_mw": 0.7,
        "edad_min_h": 9,
        "ultima_deteccion_utc": "2026-09-19 03:02:00",
        "sensores": "VIIRS_NOAA20_NRT",
        "satellites": "N20",
        "instruments": "VIIRS",
        "popup_label": "<strong>ALERT-20260919-042<\/strong><br>Nivel: media<br>Focos: 2<br>Últimas 6 h: 0<br>FRP total: 1.3 MW<br>Última detección UTC: 2026-09-19 03:02:00"
      }
    },
    {
      "type": "Feature",
      "geometry": {
        "type": "Point",
        "coordinates": [4.0048, 32.4012]
      },
      "properties": {
        "cluster_id": "ALERT-20260919-043",
        "alerta_operativa": "media",
        "score": 7.5,
        "n_focos": 2,
        "n_ultimas_6h": 0,
        "n_ultimas_24h": 2,
        "frp_total_mw": 1.1,
        "frp_max_mw": 0.6,
        "edad_min_h": 10.6,
        "ultima_deteccion_utc": "2026-09-19 01:24:00",
        "sensores": "VIIRS_NOAA20_NRT, VIIRS_SNPP_NRT",
        "satellites": "N, N20",
        "instruments": "VIIRS",
        "popup_label": "<strong>ALERT-20260919-043<\/strong><br>Nivel: media<br>Focos: 2<br>Últimas 6 h: 0<br>FRP total: 1.1 MW<br>Última detección UTC: 2026-09-19 01:24:00"
      }
    },
    {
      "type": "Feature",
      "geometry": {
        "type": "Point",
        "coordinates": [-0.545, 38.3765]
      },
      "properties": {
        "cluster_id": "ALERT-20260919-044",
        "alerta_operativa": "seguimiento",
        "score": 10,
        "n_focos": 5,
        "n_ultimas_6h": 0,
        "n_ultimas_24h": 1,
        "frp_total_mw": 3.4,
        "frp_max_mw": 0.8,
        "edad_min_h": 9.3,
        "ultima_deteccion_utc": "2026-09-19 02:43:00",
        "sensores": "VIIRS_NOAA20_NRT, VIIRS_SNPP_NRT",
        "satellites": "N, N20",
        "instruments": "VIIRS",
        "popup_label": "<strong>ALERT-20260919-044<\/strong><br>Nivel: seguimiento<br>Focos: 5<br>Últimas 6 h: 0<br>FRP total: 3.4 MW<br>Última detección UTC: 2026-09-19 02:43:00"
      }
    },
    {
      "type": "Feature",
      "geometry": {
        "type": "Point",
        "coordinates": [-1.9048, 36.9673]
      },
      "properties": {
        "cluster_id": "ALERT-20260919-045",
        "alerta_operativa": "seguimiento",
        "score": 9.5,
        "n_focos": 4,
        "n_ultimas_6h": 0,
        "n_ultimas_24h": 1,
        "frp_total_mw": 4.9,
        "frp_max_mw": 2,
        "edad_min_h": 10.7,
        "ultima_deteccion_utc": "2026-09-19 01:22:00",
        "sensores": "VIIRS_NOAA20_NRT, VIIRS_SNPP_NRT",
        "satellites": "N, N20",
        "instruments": "VIIRS",
        "popup_label": "<strong>ALERT-20260919-045<\/strong><br>Nivel: seguimiento<br>Focos: 4<br>Últimas 6 h: 0<br>FRP total: 4.9 MW<br>Última detección UTC: 2026-09-19 01:22:00"
      }
    },
    {
      "type": "Feature",
      "geometry": {
        "type": "Point",
        "coordinates": [4.8472, 43.9711]
      },
      "properties": {
        "cluster_id": "ALERT-20260919-046",
        "alerta_operativa": "seguimiento",
        "score": 9.3,
        "n_focos": 3,
        "n_ultimas_6h": 0,
        "n_ultimas_24h": 1,
        "frp_total_mw": 7.4,
        "frp_max_mw": 5.1,
        "edad_min_h": 23.3,
        "ultima_deteccion_utc": "2026-09-18 12:44:00",
        "sensores": "VIIRS_NOAA20_NRT, VIIRS_SNPP_NRT",
        "satellites": "N, N20",
        "instruments": "VIIRS",
        "popup_label": "<strong>ALERT-20260919-046<\/strong><br>Nivel: seguimiento<br>Focos: 3<br>Últimas 6 h: 0<br>FRP total: 7.4 MW<br>Última detección UTC: 2026-09-18 12:44:00"
      }
    },
    {
      "type": "Feature",
      "geometry": {
        "type": "Point",
        "coordinates": [-2.3486, 34.5965]
      },
      "properties": {
        "cluster_id": "ALERT-20260919-047",
        "alerta_operativa": "seguimiento",
        "score": 7.4,
        "n_focos": 3,
        "n_ultimas_6h": 0,
        "n_ultimas_24h": 1,
        "frp_total_mw": 2.3,
        "frp_max_mw": 1.1,
        "edad_min_h": 10.6,
        "ultima_deteccion_utc": "2026-09-19 01:24:00",
        "sensores": "VIIRS_NOAA20_NRT, VIIRS_SNPP_NRT",
        "satellites": "N, N20",
        "instruments": "VIIRS",
        "popup_label": "<strong>ALERT-20260919-047<\/strong><br>Nivel: seguimiento<br>Focos: 3<br>Últimas 6 h: 0<br>FRP total: 2.3 MW<br>Última detección UTC: 2026-09-19 01:24:00"
      }
    },
    {
      "type": "Feature",
      "geometry": {
        "type": "Point",
        "coordinates": [0.1271, 36.0172]
      },
      "properties": {
        "cluster_id": "ALERT-20260919-048",
        "alerta_operativa": "seguimiento",
        "score": 7.3,
        "n_focos": 2,
        "n_ultimas_6h": 0,
        "n_ultimas_24h": 1,
        "frp_total_mw": 4.1,
        "frp_max_mw": 2.3,
        "edad_min_h": 23,
        "ultima_deteccion_utc": "2026-09-18 13:01:00",
        "sensores": "VIIRS_NOAA20_NRT",
        "satellites": "N20",
        "instruments": "VIIRS",
        "popup_label": "<strong>ALERT-20260919-048<\/strong><br>Nivel: seguimiento<br>Focos: 2<br>Últimas 6 h: 0<br>FRP total: 4.1 MW<br>Última detección UTC: 2026-09-18 13:01:00"
      }
    },
    {
      "type": "Feature",
      "geometry": {
        "type": "Point",
        "coordinates": [3.1412, 39.7565]
      },
      "properties": {
        "cluster_id": "ALERT-20260919-049",
        "alerta_operativa": "seguimiento",
        "score": 6.5,
        "n_focos": 1,
        "n_ultimas_6h": 0,
        "n_ultimas_24h": 1,
        "frp_total_mw": 4.9,
        "frp_max_mw": 4.9,
        "edad_min_h": 23.3,
        "ultima_deteccion_utc": "2026-09-18 12:44:00",
        "sensores": "VIIRS_SNPP_NRT",
        "satellites": "N",
        "instruments": "VIIRS",
        "popup_label": "<strong>ALERT-20260919-049<\/strong><br>Nivel: seguimiento<br>Focos: 1<br>Últimas 6 h: 0<br>FRP total: 4.9 MW<br>Última detección UTC: 2026-09-18 12:44:00"
      }
    },
    {
      "type": "Feature",
      "geometry": {
        "type": "Point",
        "coordinates": [-5.3829, 34.3852]
      },
      "properties": {
        "cluster_id": "ALERT-20260919-050",
        "alerta_operativa": "seguimiento",
        "score": 6.4,
        "n_focos": 1,
        "n_ultimas_6h": 0,
        "n_ultimas_24h": 1,
        "frp_total_mw": 4.6,
        "frp_max_mw": 4.6,
        "edad_min_h": 23,
        "ultima_deteccion_utc": "2026-09-18 13:01:00",
        "sensores": "VIIRS_NOAA20_NRT",
        "satellites": "N20",
        "instruments": "VIIRS",
        "popup_label": "<strong>ALERT-20260919-050<\/strong><br>Nivel: seguimiento<br>Focos: 1<br>Últimas 6 h: 0<br>FRP total: 4.6 MW<br>Última detección UTC: 2026-09-18 13:01:00"
      }
    },
    {
      "type": "Feature",
      "geometry": {
        "type": "Point",
        "coordinates": [1.2547, 34.9749]
      },
      "properties": {
        "cluster_id": "ALERT-20260919-051",
        "alerta_operativa": "seguimiento",
        "score": 6.3,
        "n_focos": 1,
        "n_ultimas_6h": 0,
        "n_ultimas_24h": 1,
        "frp_total_mw": 4.2,
        "frp_max_mw": 4.2,
        "edad_min_h": 23,
        "ultima_deteccion_utc": "2026-09-18 13:01:00",
        "sensores": "VIIRS_NOAA20_NRT",
        "satellites": "N20",
        "instruments": "VIIRS",
        "popup_label": "<strong>ALERT-20260919-051<\/strong><br>Nivel: seguimiento<br>Focos: 1<br>Últimas 6 h: 0<br>FRP total: 4.2 MW<br>Última detección UTC: 2026-09-18 13:01:00"
      }
    },
    {
      "type": "Feature",
      "geometry": {
        "type": "Point",
        "coordinates": [2.2884, 43.1867]
      },
      "properties": {
        "cluster_id": "ALERT-20260919-052",
        "alerta_operativa": "seguimiento",
        "score": 6.1,
        "n_focos": 1,
        "n_ultimas_6h": 0,
        "n_ultimas_24h": 1,
        "frp_total_mw": 3.7,
        "frp_max_mw": 3.7,
        "edad_min_h": 23.3,
        "ultima_deteccion_utc": "2026-09-18 12:44:00",
        "sensores": "VIIRS_SNPP_NRT",
        "satellites": "N",
        "instruments": "VIIRS",
        "popup_label": "<strong>ALERT-20260919-052<\/strong><br>Nivel: seguimiento<br>Focos: 1<br>Últimas 6 h: 0<br>FRP total: 3.7 MW<br>Última detección UTC: 2026-09-18 12:44:00"
      }
    },
    {
      "type": "Feature",
      "geometry": {
        "type": "Point",
        "coordinates": [-9.5404, 30.3393]
      },
      "properties": {
        "cluster_id": "ALERT-20260919-053",
        "alerta_operativa": "seguimiento",
        "score": 6.1,
        "n_focos": 2,
        "n_ultimas_6h": 0,
        "n_ultimas_24h": 1,
        "frp_total_mw": 1.8,
        "frp_max_mw": 1.2,
        "edad_min_h": 9.3,
        "ultima_deteccion_utc": "2026-09-19 02:45:00",
        "sensores": "VIIRS_NOAA20_NRT, VIIRS_SNPP_NRT",
        "satellites": "N, N20",
        "instruments": "VIIRS",
        "popup_label": "<strong>ALERT-20260919-053<\/strong><br>Nivel: seguimiento<br>Focos: 2<br>Últimas 6 h: 0<br>FRP total: 1.8 MW<br>Última detección UTC: 2026-09-19 02:45:00"
      }
    },
    {
      "type": "Feature",
      "geometry": {
        "type": "Point",
        "coordinates": [-5.4824, 35.6138]
      },
      "properties": {
        "cluster_id": "ALERT-20260919-054",
        "alerta_operativa": "seguimiento",
        "score": 5.8,
        "n_focos": 1,
        "n_ultimas_6h": 0,
        "n_ultimas_24h": 1,
        "frp_total_mw": 3.1,
        "frp_max_mw": 3.1,
        "edad_min_h": 23,
        "ultima_deteccion_utc": "2026-09-18 13:01:00",
        "sensores": "VIIRS_NOAA20_NRT",
        "satellites": "N20",
        "instruments": "VIIRS",
        "popup_label": "<strong>ALERT-20260919-054<\/strong><br>Nivel: seguimiento<br>Focos: 1<br>Últimas 6 h: 0<br>FRP total: 3.1 MW<br>Última detección UTC: 2026-09-18 13:01:00"
      }
    },
    {
      "type": "Feature",
      "geometry": {
        "type": "Point",
        "coordinates": [1.4468, 43.7898]
      },
      "properties": {
        "cluster_id": "ALERT-20260919-055",
        "alerta_operativa": "seguimiento",
        "score": 5.6,
        "n_focos": 1,
        "n_ultimas_6h": 0,
        "n_ultimas_24h": 1,
        "frp_total_mw": 2.7,
        "frp_max_mw": 2.7,
        "edad_min_h": 23.3,
        "ultima_deteccion_utc": "2026-09-18 12:44:00",
        "sensores": "VIIRS_SNPP_NRT",
        "satellites": "N",
        "instruments": "VIIRS",
        "popup_label": "<strong>ALERT-20260919-055<\/strong><br>Nivel: seguimiento<br>Focos: 1<br>Últimas 6 h: 0<br>FRP total: 2.7 MW<br>Última detección UTC: 2026-09-18 12:44:00"
      }
    },
    {
      "type": "Feature",
      "geometry": {
        "type": "Point",
        "coordinates": [-5.9714, 34.5929]
      },
      "properties": {
        "cluster_id": "ALERT-20260919-056",
        "alerta_operativa": "seguimiento",
        "score": 5.5,
        "n_focos": 1,
        "n_ultimas_6h": 0,
        "n_ultimas_24h": 1,
        "frp_total_mw": 2.5,
        "frp_max_mw": 2.5,
        "edad_min_h": 23,
        "ultima_deteccion_utc": "2026-09-18 13:01:00",
        "sensores": "VIIRS_NOAA20_NRT",
        "satellites": "N20",
        "instruments": "VIIRS",
        "popup_label": "<strong>ALERT-20260919-056<\/strong><br>Nivel: seguimiento<br>Focos: 1<br>Últimas 6 h: 0<br>FRP total: 2.5 MW<br>Última detección UTC: 2026-09-18 13:01:00"
      }
    },
    {
      "type": "Feature",
      "geometry": {
        "type": "Point",
        "coordinates": [-6.4064, 38.4258]
      },
      "properties": {
        "cluster_id": "ALERT-20260919-057",
        "alerta_operativa": "seguimiento",
        "score": 5.4,
        "n_focos": 1,
        "n_ultimas_6h": 0,
        "n_ultimas_24h": 1,
        "frp_total_mw": 2.3,
        "frp_max_mw": 2.3,
        "edad_min_h": 23,
        "ultima_deteccion_utc": "2026-09-18 13:04:00",
        "sensores": "VIIRS_NOAA20_NRT",
        "satellites": "N20",
        "instruments": "VIIRS",
        "popup_label": "<strong>ALERT-20260919-057<\/strong><br>Nivel: seguimiento<br>Focos: 1<br>Últimas 6 h: 0<br>FRP total: 2.3 MW<br>Última detección UTC: 2026-09-18 13:04:00"
      }
    },
    {
      "type": "Feature",
      "geometry": {
        "type": "Point",
        "coordinates": [-6.8953, 37.18]
      },
      "properties": {
        "cluster_id": "ALERT-20260919-058",
        "alerta_operativa": "seguimiento",
        "score": 5.4,
        "n_focos": 1,
        "n_ultimas_6h": 0,
        "n_ultimas_24h": 1,
        "frp_total_mw": 2.3,
        "frp_max_mw": 2.3,
        "edad_min_h": 23,
        "ultima_deteccion_utc": "2026-09-18 13:01:00",
        "sensores": "VIIRS_NOAA20_NRT",
        "satellites": "N20",
        "instruments": "VIIRS",
        "popup_label": "<strong>ALERT-20260919-058<\/strong><br>Nivel: seguimiento<br>Focos: 1<br>Últimas 6 h: 0<br>FRP total: 2.3 MW<br>Última detección UTC: 2026-09-18 13:01:00"
      }
    },
    {
      "type": "Feature",
      "geometry": {
        "type": "Point",
        "coordinates": [-0.8011, 41.9327]
      },
      "properties": {
        "cluster_id": "ALERT-20260919-059",
        "alerta_operativa": "seguimiento",
        "score": 5.2,
        "n_focos": 1,
        "n_ultimas_6h": 0,
        "n_ultimas_24h": 1,
        "frp_total_mw": 2,
        "frp_max_mw": 2,
        "edad_min_h": 23,
        "ultima_deteccion_utc": "2026-09-18 13:04:00",
        "sensores": "VIIRS_NOAA20_NRT",
        "satellites": "N20",
        "instruments": "VIIRS",
        "popup_label": "<strong>ALERT-20260919-059<\/strong><br>Nivel: seguimiento<br>Focos: 1<br>Últimas 6 h: 0<br>FRP total: 2 MW<br>Última detección UTC: 2026-09-18 13:04:00"
      }
    },
    {
      "type": "Feature",
      "geometry": {
        "type": "Point",
        "coordinates": [-6.5824, 33.5663]
      },
      "properties": {
        "cluster_id": "ALERT-20260919-060",
        "alerta_operativa": "seguimiento",
        "score": 5.1,
        "n_focos": 1,
        "n_ultimas_6h": 0,
        "n_ultimas_24h": 1,
        "frp_total_mw": 1.8,
        "frp_max_mw": 1.8,
        "edad_min_h": 21.7,
        "ultima_deteccion_utc": "2026-09-18 14:22:00",
        "sensores": "VIIRS_SNPP_NRT",
        "satellites": "N",
        "instruments": "VIIRS",
        "popup_label": "<strong>ALERT-20260919-060<\/strong><br>Nivel: seguimiento<br>Focos: 1<br>Últimas 6 h: 0<br>FRP total: 1.8 MW<br>Última detección UTC: 2026-09-18 14:22:00"
      }
    },
    {
      "type": "Feature",
      "geometry": {
        "type": "Point",
        "coordinates": [4.3499, 43.7437]
      },
      "properties": {
        "cluster_id": "ALERT-20260919-061",
        "alerta_operativa": "seguimiento",
        "score": 5.1,
        "n_focos": 1,
        "n_ultimas_6h": 0,
        "n_ultimas_24h": 1,
        "frp_total_mw": 1.8,
        "frp_max_mw": 1.8,
        "edad_min_h": 23.3,
        "ultima_deteccion_utc": "2026-09-18 12:44:00",
        "sensores": "VIIRS_SNPP_NRT",
        "satellites": "N",
        "instruments": "VIIRS",
        "popup_label": "<strong>ALERT-20260919-061<\/strong><br>Nivel: seguimiento<br>Focos: 1<br>Últimas 6 h: 0<br>FRP total: 1.8 MW<br>Última detección UTC: 2026-09-18 12:44:00"
      }
    },
    {
      "type": "Feature",
      "geometry": {
        "type": "Point",
        "coordinates": [4.7003, 43.7947]
      },
      "properties": {
        "cluster_id": "ALERT-20260919-062",
        "alerta_operativa": "seguimiento",
        "score": 5.1,
        "n_focos": 1,
        "n_ultimas_6h": 0,
        "n_ultimas_24h": 1,
        "frp_total_mw": 1.8,
        "frp_max_mw": 1.8,
        "edad_min_h": 23.3,
        "ultima_deteccion_utc": "2026-09-18 12:44:00",
        "sensores": "VIIRS_SNPP_NRT",
        "satellites": "N",
        "instruments": "VIIRS",
        "popup_label": "<strong>ALERT-20260919-062<\/strong><br>Nivel: seguimiento<br>Focos: 1<br>Últimas 6 h: 0<br>FRP total: 1.8 MW<br>Última detección UTC: 2026-09-18 12:44:00"
      }
    },
    {
      "type": "Feature",
      "geometry": {
        "type": "Point",
        "coordinates": [-5.9521, 35.1948]
      },
      "properties": {
        "cluster_id": "ALERT-20260919-063",
        "alerta_operativa": "seguimiento",
        "score": 4.8,
        "n_focos": 1,
        "n_ultimas_6h": 0,
        "n_ultimas_24h": 1,
        "frp_total_mw": 1.4,
        "frp_max_mw": 1.4,
        "edad_min_h": 23,
        "ultima_deteccion_utc": "2026-09-18 13:01:00",
        "sensores": "VIIRS_NOAA20_NRT",
        "satellites": "N20",
        "instruments": "VIIRS",
        "popup_label": "<strong>ALERT-20260919-063<\/strong><br>Nivel: seguimiento<br>Focos: 1<br>Últimas 6 h: 0<br>FRP total: 1.4 MW<br>Última detección UTC: 2026-09-18 13:01:00"
      }
    },
    {
      "type": "Feature",
      "geometry": {
        "type": "Point",
        "coordinates": [0.9889, 43.1866]
      },
      "properties": {
        "cluster_id": "ALERT-20260919-064",
        "alerta_operativa": "seguimiento",
        "score": 4.5,
        "n_focos": 1,
        "n_ultimas_6h": 0,
        "n_ultimas_24h": 1,
        "frp_total_mw": 1.1,
        "frp_max_mw": 1.1,
        "edad_min_h": 10.7,
        "ultima_deteccion_utc": "2026-09-19 01:22:00",
        "sensores": "VIIRS_NOAA20_NRT",
        "satellites": "N20",
        "instruments": "VIIRS",
        "popup_label": "<strong>ALERT-20260919-064<\/strong><br>Nivel: seguimiento<br>Focos: 1<br>Últimas 6 h: 0<br>FRP total: 1.1 MW<br>Última detección UTC: 2026-09-19 01:22:00"
      }
    },
    {
      "type": "Feature",
      "geometry": {
        "type": "Point",
        "coordinates": [2.928, 36.1411]
      },
      "properties": {
        "cluster_id": "ALERT-20260919-065",
        "alerta_operativa": "seguimiento",
        "score": 4.2,
        "n_focos": 1,
        "n_ultimas_6h": 0,
        "n_ultimas_24h": 1,
        "frp_total_mw": 0.8,
        "frp_max_mw": 0.8,
        "edad_min_h": 10.7,
        "ultima_deteccion_utc": "2026-09-19 01:22:00",
        "sensores": "VIIRS_NOAA20_NRT",
        "satellites": "N20",
        "instruments": "VIIRS",
        "popup_label": "<strong>ALERT-20260919-065<\/strong><br>Nivel: seguimiento<br>Focos: 1<br>Últimas 6 h: 0<br>FRP total: 0.8 MW<br>Última detección UTC: 2026-09-19 01:22:00"
      }
    },
    {
      "type": "Feature",
      "geometry": {
        "type": "Point",
        "coordinates": [-8.1026, 37.1366]
      },
      "properties": {
        "cluster_id": "ALERT-20260919-066",
        "alerta_operativa": "seguimiento",
        "score": 4.1,
        "n_focos": 1,
        "n_ultimas_6h": 0,
        "n_ultimas_24h": 1,
        "frp_total_mw": 0.7,
        "frp_max_mw": 0.7,
        "edad_min_h": 9.3,
        "ultima_deteccion_utc": "2026-09-19 02:43:00",
        "sensores": "VIIRS_SNPP_NRT",
        "satellites": "N",
        "instruments": "VIIRS",
        "popup_label": "<strong>ALERT-20260919-066<\/strong><br>Nivel: seguimiento<br>Focos: 1<br>Últimas 6 h: 0<br>FRP total: 0.7 MW<br>Última detección UTC: 2026-09-19 02:43:00"
      }
    },
    {
      "type": "Feature",
      "geometry": {
        "type": "Point",
        "coordinates": [-1.5113, 42.923]
      },
      "properties": {
        "cluster_id": "ALERT-20260919-067",
        "alerta_operativa": "seguimiento",
        "score": 3.8,
        "n_focos": 1,
        "n_ultimas_6h": 0,
        "n_ultimas_24h": 1,
        "frp_total_mw": 0.5,
        "frp_max_mw": 0.5,
        "edad_min_h": 10.7,
        "ultima_deteccion_utc": "2026-09-19 01:22:00",
        "sensores": "VIIRS_NOAA20_NRT",
        "satellites": "N20",
        "instruments": "VIIRS",
        "popup_label": "<strong>ALERT-20260919-067<\/strong><br>Nivel: seguimiento<br>Focos: 1<br>Últimas 6 h: 0<br>FRP total: 0.5 MW<br>Última detección UTC: 2026-09-19 01:22:00"
      }
    },
    {
      "type": "Feature",
      "geometry": {
        "type": "Point",
        "coordinates": [-8.9378, 38.501]
      },
      "properties": {
        "cluster_id": "ALERT-20260919-068",
        "alerta_operativa": "seguimiento",
        "score": 3.7,
        "n_focos": 1,
        "n_ultimas_6h": 0,
        "n_ultimas_24h": 1,
        "frp_total_mw": 0.4,
        "frp_max_mw": 0.4,
        "edad_min_h": 9.3,
        "ultima_deteccion_utc": "2026-09-19 02:43:00",
        "sensores": "VIIRS_SNPP_NRT",
        "satellites": "N",
        "instruments": "VIIRS",
        "popup_label": "<strong>ALERT-20260919-068<\/strong><br>Nivel: seguimiento<br>Focos: 1<br>Últimas 6 h: 0<br>FRP total: 0.4 MW<br>Última detección UTC: 2026-09-19 02:43:00"
      }
    },
    {
      "type": "Feature",
      "geometry": {
        "type": "Point",
        "coordinates": [0.6152, 40.734]
      },
      "properties": {
        "cluster_id": "ALERT-20260919-069",
        "alerta_operativa": "seguimiento",
        "score": 3.7,
        "n_focos": 1,
        "n_ultimas_6h": 0,
        "n_ultimas_24h": 1,
        "frp_total_mw": 0.4,
        "frp_max_mw": 0.4,
        "edad_min_h": 9.4,
        "ultima_deteccion_utc": "2026-09-19 02:41:00",
        "sensores": "VIIRS_SNPP_NRT",
        "satellites": "N",
        "instruments": "VIIRS",
        "popup_label": "<strong>ALERT-20260919-069<\/strong><br>Nivel: seguimiento<br>Focos: 1<br>Últimas 6 h: 0<br>FRP total: 0.4 MW<br>Última detección UTC: 2026-09-19 02:41:00"
      }
    },
    {
      "type": "Feature",
      "geometry": {
        "type": "Point",
        "coordinates": [-4.9055, 33.9267]
      },
      "properties": {
        "cluster_id": "ALERT-20260919-070",
        "alerta_operativa": "informativa",
        "score": 7.8,
        "n_focos": 3,
        "n_ultimas_6h": 0,
        "n_ultimas_24h": 0,
        "frp_total_mw": 10.1,
        "frp_max_mw": 4.4,
        "edad_min_h": 33,
        "ultima_deteccion_utc": "2026-09-18 03:04:00",
        "sensores": "VIIRS_NOAA20_NRT, VIIRS_SNPP_NRT",
        "satellites": "N, N20",
        "instruments": "VIIRS",
        "popup_label": "<strong>ALERT-20260919-070<\/strong><br>Nivel: informativa<br>Focos: 3<br>Últimas 6 h: 0<br>FRP total: 10.1 MW<br>Última detección UTC: 2026-09-18 03:04:00"
      }
    },
    {
      "type": "Feature",
      "geometry": {
        "type": "Point",
        "coordinates": [4.4484, 35.8792]
      },
      "properties": {
        "cluster_id": "ALERT-20260919-071",
        "alerta_operativa": "informativa",
        "score": 4.8,
        "n_focos": 2,
        "n_ultimas_6h": 0,
        "n_ultimas_24h": 0,
        "frp_total_mw": 3.1,
        "frp_max_mw": 1.6,
        "edad_min_h": 34.4,
        "ultima_deteccion_utc": "2026-09-18 01:41:00",
        "sensores": "VIIRS_NOAA20_NRT, VIIRS_SNPP_NRT",
        "satellites": "N, N20",
        "instruments": "VIIRS",
        "popup_label": "<strong>ALERT-20260919-071<\/strong><br>Nivel: informativa<br>Focos: 2<br>Últimas 6 h: 0<br>FRP total: 3.1 MW<br>Última detección UTC: 2026-09-18 01:41:00"
      }
    },
    {
      "type": "Feature",
      "geometry": {
        "type": "Point",
        "coordinates": [2.0588, 34.4371]
      },
      "properties": {
        "cluster_id": "ALERT-20260919-072",
        "alerta_operativa": "informativa",
        "score": 4.7,
        "n_focos": 2,
        "n_ultimas_6h": 0,
        "n_ultimas_24h": 0,
        "frp_total_mw": 2.8,
        "frp_max_mw": 1.5,
        "edad_min_h": 34.4,
        "ultima_deteccion_utc": "2026-09-18 01:41:00",
        "sensores": "VIIRS_NOAA20_NRT, VIIRS_SNPP_NRT",
        "satellites": "N, N20",
        "instruments": "VIIRS",
        "popup_label": "<strong>ALERT-20260919-072<\/strong><br>Nivel: informativa<br>Focos: 2<br>Últimas 6 h: 0<br>FRP total: 2.8 MW<br>Última detección UTC: 2026-09-18 01:41:00"
      }
    },
    {
      "type": "Feature",
      "geometry": {
        "type": "Point",
        "coordinates": [4.4773, 35.7086]
      },
      "properties": {
        "cluster_id": "ALERT-20260919-073",
        "alerta_operativa": "informativa",
        "score": 4.4,
        "n_focos": 2,
        "n_ultimas_6h": 0,
        "n_ultimas_24h": 0,
        "frp_total_mw": 2.3,
        "frp_max_mw": 1.2,
        "edad_min_h": 34.4,
        "ultima_deteccion_utc": "2026-09-18 01:41:00",
        "sensores": "VIIRS_NOAA20_NRT, VIIRS_SNPP_NRT",
        "satellites": "N, N20",
        "instruments": "VIIRS",
        "popup_label": "<strong>ALERT-20260919-073<\/strong><br>Nivel: informativa<br>Focos: 2<br>Últimas 6 h: 0<br>FRP total: 2.3 MW<br>Última detección UTC: 2026-09-18 01:41:00"
      }
    },
    {
      "type": "Feature",
      "geometry": {
        "type": "Point",
        "coordinates": [-8.9061, 39.6867]
      },
      "properties": {
        "cluster_id": "ALERT-20260919-074",
        "alerta_operativa": "informativa",
        "score": 3.8,
        "n_focos": 2,
        "n_ultimas_6h": 0,
        "n_ultimas_24h": 0,
        "frp_total_mw": 1.5,
        "frp_max_mw": 0.8,
        "edad_min_h": 32.7,
        "ultima_deteccion_utc": "2026-09-18 03:21:00",
        "sensores": "VIIRS_NOAA20_NRT",
        "satellites": "N20",
        "instruments": "VIIRS",
        "popup_label": "<strong>ALERT-20260919-074<\/strong><br>Nivel: informativa<br>Focos: 2<br>Últimas 6 h: 0<br>FRP total: 1.5 MW<br>Última detección UTC: 2026-09-18 03:21:00"
      }
    },
    {
      "type": "Feature",
      "geometry": {
        "type": "Point",
        "coordinates": [-0.5182, 28.1998]
      },
      "properties": {
        "cluster_id": "ALERT-20260919-075",
        "alerta_operativa": "informativa",
        "score": 3.5,
        "n_focos": 1,
        "n_ultimas_6h": 0,
        "n_ultimas_24h": 0,
        "frp_total_mw": 2.5,
        "frp_max_mw": 2.5,
        "edad_min_h": 34.3,
        "ultima_deteccion_utc": "2026-09-18 01:43:00",
        "sensores": "VIIRS_NOAA20_NRT",
        "satellites": "N20",
        "instruments": "VIIRS",
        "popup_label": "<strong>ALERT-20260919-075<\/strong><br>Nivel: informativa<br>Focos: 1<br>Últimas 6 h: 0<br>FRP total: 2.5 MW<br>Última detección UTC: 2026-09-18 01:43:00"
      }
    },
    {
      "type": "Feature",
      "geometry": {
        "type": "Point",
        "coordinates": [-0.915, 37.5702]
      },
      "properties": {
        "cluster_id": "ALERT-20260919-076",
        "alerta_operativa": "informativa",
        "score": 3,
        "n_focos": 1,
        "n_ultimas_6h": 0,
        "n_ultimas_24h": 0,
        "frp_total_mw": 1.7,
        "frp_max_mw": 1.7,
        "edad_min_h": 34.3,
        "ultima_deteccion_utc": "2026-09-18 01:43:00",
        "sensores": "VIIRS_NOAA20_NRT",
        "satellites": "N20",
        "instruments": "VIIRS",
        "popup_label": "<strong>ALERT-20260919-076<\/strong><br>Nivel: informativa<br>Focos: 1<br>Últimas 6 h: 0<br>FRP total: 1.7 MW<br>Última detección UTC: 2026-09-18 01:43:00"
      }
    },
    {
      "type": "Feature",
      "geometry": {
        "type": "Point",
        "coordinates": [-7.7484, 33.3672]
      },
      "properties": {
        "cluster_id": "ALERT-20260919-077",
        "alerta_operativa": "informativa",
        "score": 2.9,
        "n_focos": 1,
        "n_ultimas_6h": 0,
        "n_ultimas_24h": 0,
        "frp_total_mw": 1.6,
        "frp_max_mw": 1.6,
        "edad_min_h": 33,
        "ultima_deteccion_utc": "2026-09-18 03:04:00",
        "sensores": "VIIRS_SNPP_NRT",
        "satellites": "N",
        "instruments": "VIIRS",
        "popup_label": "<strong>ALERT-20260919-077<\/strong><br>Nivel: informativa<br>Focos: 1<br>Últimas 6 h: 0<br>FRP total: 1.6 MW<br>Última detección UTC: 2026-09-18 03:04:00"
      }
    },
    {
      "type": "Feature",
      "geometry": {
        "type": "Point",
        "coordinates": [-8.2034, 41.5822]
      },
      "properties": {
        "cluster_id": "ALERT-20260919-078",
        "alerta_operativa": "informativa",
        "score": 2.8,
        "n_focos": 1,
        "n_ultimas_6h": 0,
        "n_ultimas_24h": 0,
        "frp_total_mw": 1.5,
        "frp_max_mw": 1.5,
        "edad_min_h": 34.4,
        "ultima_deteccion_utc": "2026-09-18 01:41:00",
        "sensores": "VIIRS_NOAA20_NRT",
        "satellites": "N20",
        "instruments": "VIIRS",
        "popup_label": "<strong>ALERT-20260919-078<\/strong><br>Nivel: informativa<br>Focos: 1<br>Últimas 6 h: 0<br>FRP total: 1.5 MW<br>Última detección UTC: 2026-09-18 01:41:00"
      }
    },
    {
      "type": "Feature",
      "geometry": {
        "type": "Point",
        "coordinates": [-8.49, 32.376]
      },
      "properties": {
        "cluster_id": "ALERT-20260919-079",
        "alerta_operativa": "informativa",
        "score": 2.7,
        "n_focos": 1,
        "n_ultimas_6h": 0,
        "n_ultimas_24h": 0,
        "frp_total_mw": 1.3,
        "frp_max_mw": 1.3,
        "edad_min_h": 34.3,
        "ultima_deteccion_utc": "2026-09-18 01:43:00",
        "sensores": "VIIRS_NOAA20_NRT",
        "satellites": "N20",
        "instruments": "VIIRS",
        "popup_label": "<strong>ALERT-20260919-079<\/strong><br>Nivel: informativa<br>Focos: 1<br>Últimas 6 h: 0<br>FRP total: 1.3 MW<br>Última detección UTC: 2026-09-18 01:43:00"
      }
    },
    {
      "type": "Feature",
      "geometry": {
        "type": "Point",
        "coordinates": [-0.9406, 35.5665]
      },
      "properties": {
        "cluster_id": "ALERT-20260919-080",
        "alerta_operativa": "informativa",
        "score": 2.4,
        "n_focos": 1,
        "n_ultimas_6h": 0,
        "n_ultimas_24h": 0,
        "frp_total_mw": 1,
        "frp_max_mw": 1,
        "edad_min_h": 34.7,
        "ultima_deteccion_utc": "2026-09-18 01:22:00",
        "sensores": "VIIRS_SNPP_NRT",
        "satellites": "N",
        "instruments": "VIIRS",
        "popup_label": "<strong>ALERT-20260919-080<\/strong><br>Nivel: informativa<br>Focos: 1<br>Últimas 6 h: 0<br>FRP total: 1 MW<br>Última detección UTC: 2026-09-18 01:22:00"
      }
    },
    {
      "type": "Feature",
      "geometry": {
        "type": "Point",
        "coordinates": [-5.9138, 36.7354]
      },
      "properties": {
        "cluster_id": "ALERT-20260919-081",
        "alerta_operativa": "informativa",
        "score": 2.4,
        "n_focos": 1,
        "n_ultimas_6h": 0,
        "n_ultimas_24h": 0,
        "frp_total_mw": 1,
        "frp_max_mw": 1,
        "edad_min_h": 32.7,
        "ultima_deteccion_utc": "2026-09-18 03:21:00",
        "sensores": "VIIRS_NOAA20_NRT",
        "satellites": "N20",
        "instruments": "VIIRS",
        "popup_label": "<strong>ALERT-20260919-081<\/strong><br>Nivel: informativa<br>Focos: 1<br>Últimas 6 h: 0<br>FRP total: 1 MW<br>Última detección UTC: 2026-09-18 03:21:00"
      }
    },
    {
      "type": "Feature",
      "geometry": {
        "type": "Point",
        "coordinates": [-5.4266, 36.1774]
      },
      "properties": {
        "cluster_id": "ALERT-20260919-082",
        "alerta_operativa": "informativa",
        "score": 2.4,
        "n_focos": 1,
        "n_ultimas_6h": 0,
        "n_ultimas_24h": 0,
        "frp_total_mw": 1,
        "frp_max_mw": 1,
        "edad_min_h": 34.4,
        "ultima_deteccion_utc": "2026-09-18 01:41:00",
        "sensores": "VIIRS_NOAA20_NRT",
        "satellites": "N20",
        "instruments": "VIIRS",
        "popup_label": "<strong>ALERT-20260919-082<\/strong><br>Nivel: informativa<br>Focos: 1<br>Últimas 6 h: 0<br>FRP total: 1 MW<br>Última detección UTC: 2026-09-18 01:41:00"
      }
    },
    {
      "type": "Feature",
      "geometry": {
        "type": "Point",
        "coordinates": [-5.6738, 41.982]
      },
      "properties": {
        "cluster_id": "ALERT-20260919-083",
        "alerta_operativa": "informativa",
        "score": 2.4,
        "n_focos": 1,
        "n_ultimas_6h": 0,
        "n_ultimas_24h": 0,
        "frp_total_mw": 1,
        "frp_max_mw": 1,
        "edad_min_h": 34.4,
        "ultima_deteccion_utc": "2026-09-18 01:41:00",
        "sensores": "VIIRS_NOAA20_NRT",
        "satellites": "N20",
        "instruments": "VIIRS",
        "popup_label": "<strong>ALERT-20260919-083<\/strong><br>Nivel: informativa<br>Focos: 1<br>Últimas 6 h: 0<br>FRP total: 1 MW<br>Última detección UTC: 2026-09-18 01:41:00"
      }
    },
    {
      "type": "Feature",
      "geometry": {
        "type": "Point",
        "coordinates": [-9.0145, 38.9241]
      },
      "properties": {
        "cluster_id": "ALERT-20260919-084",
        "alerta_operativa": "informativa",
        "score": 1.9,
        "n_focos": 1,
        "n_ultimas_6h": 0,
        "n_ultimas_24h": 0,
        "frp_total_mw": 0.6,
        "frp_max_mw": 0.6,
        "edad_min_h": 34.3,
        "ultima_deteccion_utc": "2026-09-18 01:43:00",
        "sensores": "VIIRS_NOAA20_NRT",
        "satellites": "N20",
        "instruments": "VIIRS",
        "popup_label": "<strong>ALERT-20260919-084<\/strong><br>Nivel: informativa<br>Focos: 1<br>Últimas 6 h: 0<br>FRP total: 0.6 MW<br>Última detección UTC: 2026-09-18 01:43:00"
      }
    },
    {
      "type": "Feature",
      "geometry": {
        "type": "Point",
        "coordinates": [-4.3302, 36.715]
      },
      "properties": {
        "cluster_id": "ALERT-20260919-085",
        "alerta_operativa": "informativa",
        "score": 1.7,
        "n_focos": 1,
        "n_ultimas_6h": 0,
        "n_ultimas_24h": 0,
        "frp_total_mw": 0.4,
        "frp_max_mw": 0.4,
        "edad_min_h": 33,
        "ultima_deteccion_utc": "2026-09-18 03:02:00",
        "sensores": "VIIRS_SNPP_NRT",
        "satellites": "N",
        "instruments": "VIIRS",
        "popup_label": "<strong>ALERT-20260919-085<\/strong><br>Nivel: informativa<br>Focos: 1<br>Últimas 6 h: 0<br>FRP total: 0.4 MW<br>Última detección UTC: 2026-09-18 03:02:00"
      }
    },
    {
      "type": "Feature",
      "geometry": {
        "type": "Point",
        "coordinates": [2.6578, 33.8733]
      },
      "properties": {
        "cluster_id": "ALERT-20260919-086",
        "alerta_operativa": "informativa",
        "score": 1.4,
        "n_focos": 1,
        "n_ultimas_6h": 0,
        "n_ultimas_24h": 0,
        "frp_total_mw": 0.2,
        "frp_max_mw": 0.2,
        "edad_min_h": 34.4,
        "ultima_deteccion_utc": "2026-09-18 01:41:00",
        "sensores": "VIIRS_NOAA20_NRT",
        "satellites": "N20",
        "instruments": "VIIRS",
        "popup_label": "<strong>ALERT-20260919-086<\/strong><br>Nivel: informativa<br>Focos: 1<br>Últimas 6 h: 0<br>FRP total: 0.2 MW<br>Última detección UTC: 2026-09-18 01:41:00"
      }
    }
  ]
}
