{
  "type": "FeatureCollection",
  "features": [
    {
      "type": "Feature",
      "geometry": {
        "type": "Point",
        "coordinates": [-0.2575, 35.7977]
      },
      "properties": {
        "cluster_id": "ALERT-20261005-001",
        "alerta_operativa": "alta",
        "score": 107.1,
        "n_focos": 49,
        "n_ultimas_6h": 0,
        "n_ultimas_24h": 24,
        "frp_total_mw": 151.3,
        "frp_max_mw": 9.8,
        "edad_min_h": 16.5,
        "ultima_deteccion_utc": "2026-10-05 03:04:00",
        "sensores": "VIIRS_NOAA20_NRT, VIIRS_SNPP_NRT",
        "satellites": "N, N20",
        "instruments": "VIIRS",
        "popup_label": "<strong>ALERT-20261005-001<\/strong><br>Nivel: alta<br>Focos: 49<br>Últimas 6 h: 0<br>FRP total: 151.3 MW<br>Última detección UTC: 2026-10-05 03:04:00"
      }
    },
    {
      "type": "Feature",
      "geometry": {
        "type": "Point",
        "coordinates": [0.3142, 43.6927]
      },
      "properties": {
        "cluster_id": "ALERT-20261005-002",
        "alerta_operativa": "alta",
        "score": 21.3,
        "n_focos": 2,
        "n_ultimas_6h": 2,
        "n_ultimas_24h": 2,
        "frp_total_mw": 13.1,
        "frp_max_mw": 7.8,
        "edad_min_h": 5.4,
        "ultima_deteccion_utc": "2026-10-05 14:08:00",
        "sensores": "VIIRS_SNPP_NRT",
        "satellites": "N",
        "instruments": "VIIRS",
        "popup_label": "<strong>ALERT-20261005-002<\/strong><br>Nivel: alta<br>Focos: 2<br>Últimas 6 h: 2<br>FRP total: 13.1 MW<br>Última detección UTC: 2026-10-05 14:08:00"
      }
    },
    {
      "type": "Feature",
      "geometry": {
        "type": "Point",
        "coordinates": [3.2197, 32.8871]
      },
      "properties": {
        "cluster_id": "ALERT-20261005-003",
        "alerta_operativa": "media",
        "score": 178.9,
        "n_focos": 76,
        "n_ultimas_6h": 0,
        "n_ultimas_24h": 47,
        "frp_total_mw": 85.5,
        "frp_max_mw": 5.8,
        "edad_min_h": 16.8,
        "ultima_deteccion_utc": "2026-10-05 02:45:00",
        "sensores": "VIIRS_NOAA20_NRT, VIIRS_SNPP_NRT",
        "satellites": "N, N20",
        "instruments": "VIIRS",
        "popup_label": "<strong>ALERT-20261005-003<\/strong><br>Nivel: media<br>Focos: 76<br>Últimas 6 h: 0<br>FRP total: 85.5 MW<br>Última detección UTC: 2026-10-05 02:45:00"
      }
    },
    {
      "type": "Feature",
      "geometry": {
        "type": "Point",
        "coordinates": [4.8957, 43.4396]
      },
      "properties": {
        "cluster_id": "ALERT-20261005-004",
        "alerta_operativa": "media",
        "score": 70.2,
        "n_focos": 39,
        "n_ultimas_6h": 0,
        "n_ultimas_24h": 11,
        "frp_total_mw": 100.6,
        "frp_max_mw": 9.7,
        "edad_min_h": 6.8,
        "ultima_deteccion_utc": "2026-10-05 12:46:00",
        "sensores": "VIIRS_NOAA20_NRT, VIIRS_SNPP_NRT",
        "satellites": "N, N20",
        "instruments": "VIIRS",
        "popup_label": "<strong>ALERT-20261005-004<\/strong><br>Nivel: media<br>Focos: 39<br>Últimas 6 h: 0<br>FRP total: 100.6 MW<br>Última detección UTC: 2026-10-05 12:46:00"
      }
    },
    {
      "type": "Feature",
      "geometry": {
        "type": "Point",
        "coordinates": [3.3294, 33.1248]
      },
      "properties": {
        "cluster_id": "ALERT-20261005-005",
        "alerta_operativa": "media",
        "score": 47.5,
        "n_focos": 22,
        "n_ultimas_6h": 0,
        "n_ultimas_24h": 9,
        "frp_total_mw": 41.6,
        "frp_max_mw": 13.2,
        "edad_min_h": 16.8,
        "ultima_deteccion_utc": "2026-10-05 02:43:00",
        "sensores": "VIIRS_NOAA20_NRT, VIIRS_SNPP_NRT",
        "satellites": "N, N20",
        "instruments": "VIIRS",
        "popup_label": "<strong>ALERT-20261005-005<\/strong><br>Nivel: media<br>Focos: 22<br>Últimas 6 h: 0<br>FRP total: 41.6 MW<br>Última detección UTC: 2026-10-05 02:43:00"
      }
    },
    {
      "type": "Feature",
      "geometry": {
        "type": "Point",
        "coordinates": [3.9876, 32.2767]
      },
      "properties": {
        "cluster_id": "ALERT-20261005-006",
        "alerta_operativa": "media",
        "score": 45.9,
        "n_focos": 17,
        "n_ultimas_6h": 0,
        "n_ultimas_24h": 11,
        "frp_total_mw": 30.2,
        "frp_max_mw": 5.6,
        "edad_min_h": 6.8,
        "ultima_deteccion_utc": "2026-10-05 12:42:00",
        "sensores": "VIIRS_NOAA20_NRT, VIIRS_SNPP_NRT",
        "satellites": "N, N20",
        "instruments": "VIIRS",
        "popup_label": "<strong>ALERT-20261005-006<\/strong><br>Nivel: media<br>Focos: 17<br>Últimas 6 h: 0<br>FRP total: 30.2 MW<br>Última detección UTC: 2026-10-05 12:42:00"
      }
    },
    {
      "type": "Feature",
      "geometry": {
        "type": "Point",
        "coordinates": [3.1687, 32.5546]
      },
      "properties": {
        "cluster_id": "ALERT-20261005-007",
        "alerta_operativa": "media",
        "score": 45.2,
        "n_focos": 17,
        "n_ultimas_6h": 0,
        "n_ultimas_24h": 10,
        "frp_total_mw": 58.3,
        "frp_max_mw": 9.3,
        "edad_min_h": 6.8,
        "ultima_deteccion_utc": "2026-10-05 12:42:00",
        "sensores": "VIIRS_NOAA20_NRT, VIIRS_SNPP_NRT",
        "satellites": "N, N20",
        "instruments": "VIIRS",
        "popup_label": "<strong>ALERT-20261005-007<\/strong><br>Nivel: media<br>Focos: 17<br>Últimas 6 h: 0<br>FRP total: 58.3 MW<br>Última detección UTC: 2026-10-05 12:42:00"
      }
    },
    {
      "type": "Feature",
      "geometry": {
        "type": "Point",
        "coordinates": [-0.5168, 28.1997]
      },
      "properties": {
        "cluster_id": "ALERT-20261005-008",
        "alerta_operativa": "media",
        "score": 34.4,
        "n_focos": 11,
        "n_ultimas_6h": 1,
        "n_ultimas_24h": 6,
        "frp_total_mw": 23,
        "frp_max_mw": 5.6,
        "edad_min_h": 5.5,
        "ultima_deteccion_utc": "2026-10-05 14:01:00",
        "sensores": "VIIRS_NOAA20_NRT, VIIRS_SNPP_NRT",
        "satellites": "N, N20",
        "instruments": "VIIRS",
        "popup_label": "<strong>ALERT-20261005-008<\/strong><br>Nivel: media<br>Focos: 11<br>Últimas 6 h: 1<br>FRP total: 23 MW<br>Última detección UTC: 2026-10-05 14:01:00"
      }
    },
    {
      "type": "Feature",
      "geometry": {
        "type": "Point",
        "coordinates": [3.7482, 36.1799]
      },
      "properties": {
        "cluster_id": "ALERT-20261005-009",
        "alerta_operativa": "media",
        "score": 25.8,
        "n_focos": 7,
        "n_ultimas_6h": 0,
        "n_ultimas_24h": 7,
        "frp_total_mw": 10.3,
        "frp_max_mw": 2.2,
        "edad_min_h": 6.8,
        "ultima_deteccion_utc": "2026-10-05 12:44:00",
        "sensores": "VIIRS_NOAA20_NRT, VIIRS_SNPP_NRT",
        "satellites": "N, N20",
        "instruments": "VIIRS",
        "popup_label": "<strong>ALERT-20261005-009<\/strong><br>Nivel: media<br>Focos: 7<br>Últimas 6 h: 0<br>FRP total: 10.3 MW<br>Última detección UTC: 2026-10-05 12:44:00"
      }
    },
    {
      "type": "Feature",
      "geometry": {
        "type": "Point",
        "coordinates": [0.8806, 41.505]
      },
      "properties": {
        "cluster_id": "ALERT-20261005-010",
        "alerta_operativa": "media",
        "score": 22.5,
        "n_focos": 6,
        "n_ultimas_6h": 0,
        "n_ultimas_24h": 6,
        "frp_total_mw": 8.3,
        "frp_max_mw": 3.2,
        "edad_min_h": 16.9,
        "ultima_deteccion_utc": "2026-10-05 02:41:00",
        "sensores": "VIIRS_NOAA20_NRT, VIIRS_SNPP_NRT",
        "satellites": "N, N20",
        "instruments": "VIIRS",
        "popup_label": "<strong>ALERT-20261005-010<\/strong><br>Nivel: media<br>Focos: 6<br>Últimas 6 h: 0<br>FRP total: 8.3 MW<br>Última detección UTC: 2026-10-05 02:41:00"
      }
    },
    {
      "type": "Feature",
      "geometry": {
        "type": "Point",
        "coordinates": [3.1612, 36.6542]
      },
      "properties": {
        "cluster_id": "ALERT-20261005-011",
        "alerta_operativa": "media",
        "score": 20.5,
        "n_focos": 7,
        "n_ultimas_6h": 0,
        "n_ultimas_24h": 4,
        "frp_total_mw": 14.9,
        "frp_max_mw": 3.6,
        "edad_min_h": 6.8,
        "ultima_deteccion_utc": "2026-10-05 12:44:00",
        "sensores": "VIIRS_NOAA20_NRT, VIIRS_SNPP_NRT",
        "satellites": "N, N20",
        "instruments": "VIIRS",
        "popup_label": "<strong>ALERT-20261005-011<\/strong><br>Nivel: media<br>Focos: 7<br>Últimas 6 h: 0<br>FRP total: 14.9 MW<br>Última detección UTC: 2026-10-05 12:44:00"
      }
    },
    {
      "type": "Feature",
      "geometry": {
        "type": "Point",
        "coordinates": [4.4762, 35.7087]
      },
      "properties": {
        "cluster_id": "ALERT-20261005-012",
        "alerta_operativa": "media",
        "score": 19.2,
        "n_focos": 7,
        "n_ultimas_6h": 0,
        "n_ultimas_24h": 4,
        "frp_total_mw": 7.3,
        "frp_max_mw": 1.5,
        "edad_min_h": 6.8,
        "ultima_deteccion_utc": "2026-10-05 12:44:00",
        "sensores": "VIIRS_NOAA20_NRT, VIIRS_SNPP_NRT",
        "satellites": "N, N20",
        "instruments": "VIIRS",
        "popup_label": "<strong>ALERT-20261005-012<\/strong><br>Nivel: media<br>Focos: 7<br>Últimas 6 h: 0<br>FRP total: 7.3 MW<br>Última detección UTC: 2026-10-05 12:44:00"
      }
    },
    {
      "type": "Feature",
      "geometry": {
        "type": "Point",
        "coordinates": [-3.4757, 40.2453]
      },
      "properties": {
        "cluster_id": "ALERT-20261005-013",
        "alerta_operativa": "media",
        "score": 18.9,
        "n_focos": 7,
        "n_ultimas_6h": 0,
        "n_ultimas_24h": 3,
        "frp_total_mw": 17.8,
        "frp_max_mw": 3.5,
        "edad_min_h": 16.5,
        "ultima_deteccion_utc": "2026-10-05 03:02:00",
        "sensores": "VIIRS_NOAA20_NRT, VIIRS_SNPP_NRT",
        "satellites": "N, N20",
        "instruments": "VIIRS",
        "popup_label": "<strong>ALERT-20261005-013<\/strong><br>Nivel: media<br>Focos: 7<br>Últimas 6 h: 0<br>FRP total: 17.8 MW<br>Última detección UTC: 2026-10-05 03:02:00"
      }
    },
    {
      "type": "Feature",
      "geometry": {
        "type": "Point",
        "coordinates": [-9.5669, 30.2359]
      },
      "properties": {
        "cluster_id": "ALERT-20261005-014",
        "alerta_operativa": "media",
        "score": 18.8,
        "n_focos": 4,
        "n_ultimas_6h": 0,
        "n_ultimas_24h": 4,
        "frp_total_mw": 29.1,
        "frp_max_mw": 13.5,
        "edad_min_h": 16.4,
        "ultima_deteccion_utc": "2026-10-05 03:06:00",
        "sensores": "VIIRS_NOAA20_NRT, VIIRS_SNPP_NRT",
        "satellites": "N, N20",
        "instruments": "VIIRS",
        "popup_label": "<strong>ALERT-20261005-014<\/strong><br>Nivel: media<br>Focos: 4<br>Últimas 6 h: 0<br>FRP total: 29.1 MW<br>Última detección UTC: 2026-10-05 03:06:00"
      }
    },
    {
      "type": "Feature",
      "geometry": {
        "type": "Point",
        "coordinates": [1.0922, 35.4022]
      },
      "properties": {
        "cluster_id": "ALERT-20261005-015",
        "alerta_operativa": "media",
        "score": 18.5,
        "n_focos": 5,
        "n_ultimas_6h": 0,
        "n_ultimas_24h": 2,
        "frp_total_mw": 116.4,
        "frp_max_mw": 35.7,
        "edad_min_h": 6.8,
        "ultima_deteccion_utc": "2026-10-05 12:44:00",
        "sensores": "VIIRS_NOAA20_NRT, VIIRS_SNPP_NRT",
        "satellites": "N, N20",
        "instruments": "VIIRS",
        "popup_label": "<strong>ALERT-20261005-015<\/strong><br>Nivel: media<br>Focos: 5<br>Últimas 6 h: 0<br>FRP total: 116.4 MW<br>Última detección UTC: 2026-10-05 12:44:00"
      }
    },
    {
      "type": "Feature",
      "geometry": {
        "type": "Point",
        "coordinates": [4.4479, 35.8784]
      },
      "properties": {
        "cluster_id": "ALERT-20261005-016",
        "alerta_operativa": "media",
        "score": 18.3,
        "n_focos": 6,
        "n_ultimas_6h": 0,
        "n_ultimas_24h": 4,
        "frp_total_mw": 7.6,
        "frp_max_mw": 2.7,
        "edad_min_h": 16.8,
        "ultima_deteccion_utc": "2026-10-05 02:43:00",
        "sensores": "VIIRS_NOAA20_NRT, VIIRS_SNPP_NRT",
        "satellites": "N, N20",
        "instruments": "VIIRS",
        "popup_label": "<strong>ALERT-20261005-016<\/strong><br>Nivel: media<br>Focos: 6<br>Últimas 6 h: 0<br>FRP total: 7.6 MW<br>Última detección UTC: 2026-10-05 02:43:00"
      }
    },
    {
      "type": "Feature",
      "geometry": {
        "type": "Point",
        "coordinates": [4.0066, 32.4016]
      },
      "properties": {
        "cluster_id": "ALERT-20261005-017",
        "alerta_operativa": "media",
        "score": 18,
        "n_focos": 6,
        "n_ultimas_6h": 0,
        "n_ultimas_24h": 4,
        "frp_total_mw": 6.3,
        "frp_max_mw": 1.4,
        "edad_min_h": 16.8,
        "ultima_deteccion_utc": "2026-10-05 02:45:00",
        "sensores": "VIIRS_NOAA20_NRT, VIIRS_SNPP_NRT",
        "satellites": "N, N20",
        "instruments": "VIIRS",
        "popup_label": "<strong>ALERT-20261005-017<\/strong><br>Nivel: media<br>Focos: 6<br>Últimas 6 h: 0<br>FRP total: 6.3 MW<br>Última detección UTC: 2026-10-05 02:45:00"
      }
    },
    {
      "type": "Feature",
      "geometry": {
        "type": "Point",
        "coordinates": [-0.1589, 28.2115]
      },
      "properties": {
        "cluster_id": "ALERT-20261005-018",
        "alerta_operativa": "media",
        "score": 17.7,
        "n_focos": 7,
        "n_ultimas_6h": 0,
        "n_ultimas_24h": 3,
        "frp_total_mw": 9.7,
        "frp_max_mw": 2,
        "edad_min_h": 16.8,
        "ultima_deteccion_utc": "2026-10-05 02:45:00",
        "sensores": "VIIRS_NOAA20_NRT, VIIRS_SNPP_NRT",
        "satellites": "N, N20",
        "instruments": "VIIRS",
        "popup_label": "<strong>ALERT-20261005-018<\/strong><br>Nivel: media<br>Focos: 7<br>Últimas 6 h: 0<br>FRP total: 9.7 MW<br>Última detección UTC: 2026-10-05 02:45:00"
      }
    },
    {
      "type": "Feature",
      "geometry": {
        "type": "Point",
        "coordinates": [2.8942, 36.5934]
      },
      "properties": {
        "cluster_id": "ALERT-20261005-019",
        "alerta_operativa": "media",
        "score": 17.4,
        "n_focos": 5,
        "n_ultimas_6h": 0,
        "n_ultimas_24h": 4,
        "frp_total_mw": 7.9,
        "frp_max_mw": 2.6,
        "edad_min_h": 6.8,
        "ultima_deteccion_utc": "2026-10-05 12:44:00",
        "sensores": "VIIRS_NOAA20_NRT, VIIRS_SNPP_NRT",
        "satellites": "N, N20",
        "instruments": "VIIRS",
        "popup_label": "<strong>ALERT-20261005-019<\/strong><br>Nivel: media<br>Focos: 5<br>Últimas 6 h: 0<br>FRP total: 7.9 MW<br>Última detección UTC: 2026-10-05 12:44:00"
      }
    },
    {
      "type": "Feature",
      "geometry": {
        "type": "Point",
        "coordinates": [-3.0262, 43.3088]
      },
      "properties": {
        "cluster_id": "ALERT-20261005-020",
        "alerta_operativa": "media",
        "score": 15.8,
        "n_focos": 4,
        "n_ultimas_6h": 0,
        "n_ultimas_24h": 4,
        "frp_total_mw": 5.7,
        "frp_max_mw": 2.6,
        "edad_min_h": 16.5,
        "ultima_deteccion_utc": "2026-10-05 03:02:00",
        "sensores": "VIIRS_NOAA20_NRT, VIIRS_SNPP_NRT",
        "satellites": "N, N20",
        "instruments": "VIIRS",
        "popup_label": "<strong>ALERT-20261005-020<\/strong><br>Nivel: media<br>Focos: 4<br>Últimas 6 h: 0<br>FRP total: 5.7 MW<br>Última detección UTC: 2026-10-05 03:02:00"
      }
    },
    {
      "type": "Feature",
      "geometry": {
        "type": "Point",
        "coordinates": [-9.1795, 30.3805]
      },
      "properties": {
        "cluster_id": "ALERT-20261005-021",
        "alerta_operativa": "media",
        "score": 15.1,
        "n_focos": 4,
        "n_ultimas_6h": 0,
        "n_ultimas_24h": 4,
        "frp_total_mw": 3.7,
        "frp_max_mw": 1.1,
        "edad_min_h": 16.4,
        "ultima_deteccion_utc": "2026-10-05 03:06:00",
        "sensores": "VIIRS_NOAA20_NRT, VIIRS_SNPP_NRT",
        "satellites": "N, N20",
        "instruments": "VIIRS",
        "popup_label": "<strong>ALERT-20261005-021<\/strong><br>Nivel: media<br>Focos: 4<br>Últimas 6 h: 0<br>FRP total: 3.7 MW<br>Última detección UTC: 2026-10-05 03:06:00"
      }
    },
    {
      "type": "Feature",
      "geometry": {
        "type": "Point",
        "coordinates": [-3.7456, 39.9367]
      },
      "properties": {
        "cluster_id": "ALERT-20261005-022",
        "alerta_operativa": "media",
        "score": 14.2,
        "n_focos": 5,
        "n_ultimas_6h": 0,
        "n_ultimas_24h": 3,
        "frp_total_mw": 4,
        "frp_max_mw": 1.1,
        "edad_min_h": 16.5,
        "ultima_deteccion_utc": "2026-10-05 03:02:00",
        "sensores": "VIIRS_NOAA20_NRT, VIIRS_SNPP_NRT",
        "satellites": "N, N20",
        "instruments": "VIIRS",
        "popup_label": "<strong>ALERT-20261005-022<\/strong><br>Nivel: media<br>Focos: 5<br>Últimas 6 h: 0<br>FRP total: 4 MW<br>Última detección UTC: 2026-10-05 03:02:00"
      }
    },
    {
      "type": "Feature",
      "geometry": {
        "type": "Point",
        "coordinates": [1.899, 30.9113]
      },
      "properties": {
        "cluster_id": "ALERT-20261005-023",
        "alerta_operativa": "media",
        "score": 12.8,
        "n_focos": 4,
        "n_ultimas_6h": 0,
        "n_ultimas_24h": 3,
        "frp_total_mw": 3.1,
        "frp_max_mw": 0.9,
        "edad_min_h": 16.8,
        "ultima_deteccion_utc": "2026-10-05 02:45:00",
        "sensores": "VIIRS_NOAA20_NRT, VIIRS_SNPP_NRT",
        "satellites": "N, N20",
        "instruments": "VIIRS",
        "popup_label": "<strong>ALERT-20261005-023<\/strong><br>Nivel: media<br>Focos: 4<br>Últimas 6 h: 0<br>FRP total: 3.1 MW<br>Última detección UTC: 2026-10-05 02:45:00"
      }
    },
    {
      "type": "Feature",
      "geometry": {
        "type": "Point",
        "coordinates": [-8.4206, 40.2892]
      },
      "properties": {
        "cluster_id": "ALERT-20261005-024",
        "alerta_operativa": "media",
        "score": 11.1,
        "n_focos": 4,
        "n_ultimas_6h": 0,
        "n_ultimas_24h": 2,
        "frp_total_mw": 3.6,
        "frp_max_mw": 1.1,
        "edad_min_h": 16.5,
        "ultima_deteccion_utc": "2026-10-05 03:04:00",
        "sensores": "VIIRS_NOAA20_NRT, VIIRS_SNPP_NRT",
        "satellites": "N, N20",
        "instruments": "VIIRS",
        "popup_label": "<strong>ALERT-20261005-024<\/strong><br>Nivel: media<br>Focos: 4<br>Últimas 6 h: 0<br>FRP total: 3.6 MW<br>Última detección UTC: 2026-10-05 03:04:00"
      }
    },
    {
      "type": "Feature",
      "geometry": {
        "type": "Point",
        "coordinates": [-0.5723, 44.4437]
      },
      "properties": {
        "cluster_id": "ALERT-20261005-025",
        "alerta_operativa": "media",
        "score": 10.5,
        "n_focos": 2,
        "n_ultimas_6h": 0,
        "n_ultimas_24h": 2,
        "frp_total_mw": 8.5,
        "frp_max_mw": 6.1,
        "edad_min_h": 6.8,
        "ultima_deteccion_utc": "2026-10-05 12:46:00",
        "sensores": "VIIRS_NOAA20_NRT",
        "satellites": "N20",
        "instruments": "VIIRS",
        "popup_label": "<strong>ALERT-20261005-025<\/strong><br>Nivel: media<br>Focos: 2<br>Últimas 6 h: 0<br>FRP total: 8.5 MW<br>Última detección UTC: 2026-10-05 12:46:00"
      }
    },
    {
      "type": "Feature",
      "geometry": {
        "type": "Point",
        "coordinates": [-0.276, 35.5306]
      },
      "properties": {
        "cluster_id": "ALERT-20261005-026",
        "alerta_operativa": "media",
        "score": 10.3,
        "n_focos": 3,
        "n_ultimas_6h": 0,
        "n_ultimas_24h": 2,
        "frp_total_mw": 4.2,
        "frp_max_mw": 2.3,
        "edad_min_h": 16.5,
        "ultima_deteccion_utc": "2026-10-05 03:04:00",
        "sensores": "VIIRS_NOAA20_NRT, VIIRS_SNPP_NRT",
        "satellites": "N, N20",
        "instruments": "VIIRS",
        "popup_label": "<strong>ALERT-20261005-026<\/strong><br>Nivel: media<br>Focos: 3<br>Últimas 6 h: 0<br>FRP total: 4.2 MW<br>Última detección UTC: 2026-10-05 03:04:00"
      }
    },
    {
      "type": "Feature",
      "geometry": {
        "type": "Point",
        "coordinates": [0.1799, 41.924]
      },
      "properties": {
        "cluster_id": "ALERT-20261005-027",
        "alerta_operativa": "media",
        "score": 9.9,
        "n_focos": 3,
        "n_ultimas_6h": 0,
        "n_ultimas_24h": 2,
        "frp_total_mw": 3.2,
        "frp_max_mw": 1.6,
        "edad_min_h": 16.9,
        "ultima_deteccion_utc": "2026-10-05 02:41:00",
        "sensores": "VIIRS_NOAA20_NRT, VIIRS_SNPP_NRT",
        "satellites": "N, N20",
        "instruments": "VIIRS",
        "popup_label": "<strong>ALERT-20261005-027<\/strong><br>Nivel: media<br>Focos: 3<br>Últimas 6 h: 0<br>FRP total: 3.2 MW<br>Última detección UTC: 2026-10-05 02:41:00"
      }
    },
    {
      "type": "Feature",
      "geometry": {
        "type": "Point",
        "coordinates": [-5.8304, 43.5389]
      },
      "properties": {
        "cluster_id": "ALERT-20261005-028",
        "alerta_operativa": "media",
        "score": 9.4,
        "n_focos": 2,
        "n_ultimas_6h": 0,
        "n_ultimas_24h": 2,
        "frp_total_mw": 4.5,
        "frp_max_mw": 3.2,
        "edad_min_h": 6.8,
        "ultima_deteccion_utc": "2026-10-05 12:46:00",
        "sensores": "VIIRS_NOAA20_NRT, VIIRS_SNPP_NRT",
        "satellites": "N, N20",
        "instruments": "VIIRS",
        "popup_label": "<strong>ALERT-20261005-028<\/strong><br>Nivel: media<br>Focos: 2<br>Últimas 6 h: 0<br>FRP total: 4.5 MW<br>Última detección UTC: 2026-10-05 12:46:00"
      }
    },
    {
      "type": "Feature",
      "geometry": {
        "type": "Point",
        "coordinates": [-1.9076, 36.9676]
      },
      "properties": {
        "cluster_id": "ALERT-20261005-029",
        "alerta_operativa": "media",
        "score": 9.4,
        "n_focos": 3,
        "n_ultimas_6h": 0,
        "n_ultimas_24h": 2,
        "frp_total_mw": 2.4,
        "frp_max_mw": 0.9,
        "edad_min_h": 18.1,
        "ultima_deteccion_utc": "2026-10-05 01:24:00",
        "sensores": "VIIRS_NOAA20_NRT",
        "satellites": "N20",
        "instruments": "VIIRS",
        "popup_label": "<strong>ALERT-20261005-029<\/strong><br>Nivel: media<br>Focos: 3<br>Últimas 6 h: 0<br>FRP total: 2.4 MW<br>Última detección UTC: 2026-10-05 01:24:00"
      }
    },
    {
      "type": "Feature",
      "geometry": {
        "type": "Point",
        "coordinates": [-0.344, 33.472]
      },
      "properties": {
        "cluster_id": "ALERT-20261005-030",
        "alerta_operativa": "media",
        "score": 8,
        "n_focos": 2,
        "n_ultimas_6h": 0,
        "n_ultimas_24h": 2,
        "frp_total_mw": 1.7,
        "frp_max_mw": 0.9,
        "edad_min_h": 16.8,
        "ultima_deteccion_utc": "2026-10-05 02:45:00",
        "sensores": "VIIRS_SNPP_NRT",
        "satellites": "N",
        "instruments": "VIIRS",
        "popup_label": "<strong>ALERT-20261005-030<\/strong><br>Nivel: media<br>Focos: 2<br>Últimas 6 h: 0<br>FRP total: 1.7 MW<br>Última detección UTC: 2026-10-05 02:45:00"
      }
    },
    {
      "type": "Feature",
      "geometry": {
        "type": "Point",
        "coordinates": [1.2419, 36.1268]
      },
      "properties": {
        "cluster_id": "ALERT-20261005-031",
        "alerta_operativa": "seguimiento",
        "score": 12.3,
        "n_focos": 6,
        "n_ultimas_6h": 0,
        "n_ultimas_24h": 1,
        "frp_total_mw": 7.7,
        "frp_max_mw": 1.8,
        "edad_min_h": 16.8,
        "ultima_deteccion_utc": "2026-10-05 02:43:00",
        "sensores": "VIIRS_NOAA20_NRT, VIIRS_SNPP_NRT",
        "satellites": "N, N20",
        "instruments": "VIIRS",
        "popup_label": "<strong>ALERT-20261005-031<\/strong><br>Nivel: seguimiento<br>Focos: 6<br>Últimas 6 h: 0<br>FRP total: 7.7 MW<br>Última detección UTC: 2026-10-05 02:43:00"
      }
    },
    {
      "type": "Feature",
      "geometry": {
        "type": "Point",
        "coordinates": [-0.3943, 35.4596]
      },
      "properties": {
        "cluster_id": "ALERT-20261005-032",
        "alerta_operativa": "seguimiento",
        "score": 10.1,
        "n_focos": 5,
        "n_ultimas_6h": 0,
        "n_ultimas_24h": 1,
        "frp_total_mw": 3.8,
        "frp_max_mw": 1.1,
        "edad_min_h": 16.8,
        "ultima_deteccion_utc": "2026-10-05 02:43:00",
        "sensores": "VIIRS_NOAA20_NRT, VIIRS_SNPP_NRT",
        "satellites": "N, N20",
        "instruments": "VIIRS",
        "popup_label": "<strong>ALERT-20261005-032<\/strong><br>Nivel: seguimiento<br>Focos: 5<br>Últimas 6 h: 0<br>FRP total: 3.8 MW<br>Última detección UTC: 2026-10-05 02:43:00"
      }
    },
    {
      "type": "Feature",
      "geometry": {
        "type": "Point",
        "coordinates": [4.6674, 36.3974]
      },
      "properties": {
        "cluster_id": "ALERT-20261005-033",
        "alerta_operativa": "seguimiento",
        "score": 8.9,
        "n_focos": 1,
        "n_ultimas_6h": 0,
        "n_ultimas_24h": 1,
        "frp_total_mw": 17.7,
        "frp_max_mw": 17.7,
        "edad_min_h": 6.8,
        "ultima_deteccion_utc": "2026-10-05 12:44:00",
        "sensores": "VIIRS_NOAA20_NRT",
        "satellites": "N20",
        "instruments": "VIIRS",
        "popup_label": "<strong>ALERT-20261005-033<\/strong><br>Nivel: seguimiento<br>Focos: 1<br>Últimas 6 h: 0<br>FRP total: 17.7 MW<br>Última detección UTC: 2026-10-05 12:44:00"
      }
    },
    {
      "type": "Feature",
      "geometry": {
        "type": "Point",
        "coordinates": [-0.5449, 38.3778]
      },
      "properties": {
        "cluster_id": "ALERT-20261005-034",
        "alerta_operativa": "seguimiento",
        "score": 8.6,
        "n_focos": 4,
        "n_ultimas_6h": 0,
        "n_ultimas_24h": 1,
        "frp_total_mw": 2.7,
        "frp_max_mw": 1.3,
        "edad_min_h": 16.8,
        "ultima_deteccion_utc": "2026-10-05 02:43:00",
        "sensores": "VIIRS_NOAA20_NRT, VIIRS_SNPP_NRT",
        "satellites": "N, N20",
        "instruments": "VIIRS",
        "popup_label": "<strong>ALERT-20261005-034<\/strong><br>Nivel: seguimiento<br>Focos: 4<br>Últimas 6 h: 0<br>FRP total: 2.7 MW<br>Última detección UTC: 2026-10-05 02:43:00"
      }
    },
    {
      "type": "Feature",
      "geometry": {
        "type": "Point",
        "coordinates": [-1.3424, 35.3109]
      },
      "properties": {
        "cluster_id": "ALERT-20261005-035",
        "alerta_operativa": "seguimiento",
        "score": 7.6,
        "n_focos": 3,
        "n_ultimas_6h": 0,
        "n_ultimas_24h": 1,
        "frp_total_mw": 2.6,
        "frp_max_mw": 1,
        "edad_min_h": 16.8,
        "ultima_deteccion_utc": "2026-10-05 02:43:00",
        "sensores": "VIIRS_NOAA20_NRT, VIIRS_SNPP_NRT",
        "satellites": "N, N20",
        "instruments": "VIIRS",
        "popup_label": "<strong>ALERT-20261005-035<\/strong><br>Nivel: seguimiento<br>Focos: 3<br>Últimas 6 h: 0<br>FRP total: 2.6 MW<br>Última detección UTC: 2026-10-05 02:43:00"
      }
    },
    {
      "type": "Feature",
      "geometry": {
        "type": "Point",
        "coordinates": [-6.5551, 32.2367]
      },
      "properties": {
        "cluster_id": "ALERT-20261005-036",
        "alerta_operativa": "seguimiento",
        "score": 6.8,
        "n_focos": 1,
        "n_ultimas_6h": 0,
        "n_ultimas_24h": 1,
        "frp_total_mw": 5.6,
        "frp_max_mw": 5.6,
        "edad_min_h": 6.8,
        "ultima_deteccion_utc": "2026-10-05 12:44:00",
        "sensores": "VIIRS_NOAA20_NRT",
        "satellites": "N20",
        "instruments": "VIIRS",
        "popup_label": "<strong>ALERT-20261005-036<\/strong><br>Nivel: seguimiento<br>Focos: 1<br>Últimas 6 h: 0<br>FRP total: 5.6 MW<br>Última detección UTC: 2026-10-05 12:44:00"
      }
    },
    {
      "type": "Feature",
      "geometry": {
        "type": "Point",
        "coordinates": [2.0582, 34.4385]
      },
      "properties": {
        "cluster_id": "ALERT-20261005-037",
        "alerta_operativa": "seguimiento",
        "score": 6.8,
        "n_focos": 2,
        "n_ultimas_6h": 0,
        "n_ultimas_24h": 1,
        "frp_total_mw": 3,
        "frp_max_mw": 2.1,
        "edad_min_h": 18.1,
        "ultima_deteccion_utc": "2026-10-05 01:24:00",
        "sensores": "VIIRS_NOAA20_NRT",
        "satellites": "N20",
        "instruments": "VIIRS",
        "popup_label": "<strong>ALERT-20261005-037<\/strong><br>Nivel: seguimiento<br>Focos: 2<br>Últimas 6 h: 0<br>FRP total: 3 MW<br>Última detección UTC: 2026-10-05 01:24:00"
      }
    },
    {
      "type": "Feature",
      "geometry": {
        "type": "Point",
        "coordinates": [2.9253, 35.038]
      },
      "properties": {
        "cluster_id": "ALERT-20261005-038",
        "alerta_operativa": "seguimiento",
        "score": 6.6,
        "n_focos": 1,
        "n_ultimas_6h": 0,
        "n_ultimas_24h": 1,
        "frp_total_mw": 5.2,
        "frp_max_mw": 5.2,
        "edad_min_h": 6.8,
        "ultima_deteccion_utc": "2026-10-05 12:44:00",
        "sensores": "VIIRS_NOAA20_NRT",
        "satellites": "N20",
        "instruments": "VIIRS",
        "popup_label": "<strong>ALERT-20261005-038<\/strong><br>Nivel: seguimiento<br>Focos: 1<br>Últimas 6 h: 0<br>FRP total: 5.2 MW<br>Última detección UTC: 2026-10-05 12:44:00"
      }
    },
    {
      "type": "Feature",
      "geometry": {
        "type": "Point",
        "coordinates": [1.2671, 35.4342]
      },
      "properties": {
        "cluster_id": "ALERT-20261005-039",
        "alerta_operativa": "seguimiento",
        "score": 6.4,
        "n_focos": 1,
        "n_ultimas_6h": 0,
        "n_ultimas_24h": 1,
        "frp_total_mw": 4.4,
        "frp_max_mw": 4.4,
        "edad_min_h": 6.8,
        "ultima_deteccion_utc": "2026-10-05 12:44:00",
        "sensores": "VIIRS_NOAA20_NRT",
        "satellites": "N20",
        "instruments": "VIIRS",
        "popup_label": "<strong>ALERT-20261005-039<\/strong><br>Nivel: seguimiento<br>Focos: 1<br>Últimas 6 h: 0<br>FRP total: 4.4 MW<br>Última detección UTC: 2026-10-05 12:44:00"
      }
    },
    {
      "type": "Feature",
      "geometry": {
        "type": "Point",
        "coordinates": [0.0782, 43.4085]
      },
      "properties": {
        "cluster_id": "ALERT-20261005-040",
        "alerta_operativa": "seguimiento",
        "score": 6,
        "n_focos": 1,
        "n_ultimas_6h": 0,
        "n_ultimas_24h": 1,
        "frp_total_mw": 3.5,
        "frp_max_mw": 3.5,
        "edad_min_h": 6.8,
        "ultima_deteccion_utc": "2026-10-05 12:46:00",
        "sensores": "VIIRS_NOAA20_NRT",
        "satellites": "N20",
        "instruments": "VIIRS",
        "popup_label": "<strong>ALERT-20261005-040<\/strong><br>Nivel: seguimiento<br>Focos: 1<br>Últimas 6 h: 0<br>FRP total: 3.5 MW<br>Última detección UTC: 2026-10-05 12:46:00"
      }
    },
    {
      "type": "Feature",
      "geometry": {
        "type": "Point",
        "coordinates": [0.1749, 44.1657]
      },
      "properties": {
        "cluster_id": "ALERT-20261005-041",
        "alerta_operativa": "seguimiento",
        "score": 6,
        "n_focos": 1,
        "n_ultimas_6h": 0,
        "n_ultimas_24h": 1,
        "frp_total_mw": 3.5,
        "frp_max_mw": 3.5,
        "edad_min_h": 6.8,
        "ultima_deteccion_utc": "2026-10-05 12:46:00",
        "sensores": "VIIRS_NOAA20_NRT",
        "satellites": "N20",
        "instruments": "VIIRS",
        "popup_label": "<strong>ALERT-20261005-041<\/strong><br>Nivel: seguimiento<br>Focos: 1<br>Últimas 6 h: 0<br>FRP total: 3.5 MW<br>Última detección UTC: 2026-10-05 12:46:00"
      }
    },
    {
      "type": "Feature",
      "geometry": {
        "type": "Point",
        "coordinates": [3.8089, 35.5052]
      },
      "properties": {
        "cluster_id": "ALERT-20261005-042",
        "alerta_operativa": "seguimiento",
        "score": 5.8,
        "n_focos": 1,
        "n_ultimas_6h": 0,
        "n_ultimas_24h": 1,
        "frp_total_mw": 3,
        "frp_max_mw": 3,
        "edad_min_h": 6.8,
        "ultima_deteccion_utc": "2026-10-05 12:44:00",
        "sensores": "VIIRS_NOAA20_NRT",
        "satellites": "N20",
        "instruments": "VIIRS",
        "popup_label": "<strong>ALERT-20261005-042<\/strong><br>Nivel: seguimiento<br>Focos: 1<br>Últimas 6 h: 0<br>FRP total: 3 MW<br>Última detección UTC: 2026-10-05 12:44:00"
      }
    },
    {
      "type": "Feature",
      "geometry": {
        "type": "Point",
        "coordinates": [-8.9082, 39.6865]
      },
      "properties": {
        "cluster_id": "ALERT-20261005-043",
        "alerta_operativa": "seguimiento",
        "score": 5.8,
        "n_focos": 2,
        "n_ultimas_6h": 0,
        "n_ultimas_24h": 1,
        "frp_total_mw": 1.5,
        "frp_max_mw": 0.8,
        "edad_min_h": 16.5,
        "ultima_deteccion_utc": "2026-10-05 03:04:00",
        "sensores": "VIIRS_NOAA20_NRT",
        "satellites": "N20",
        "instruments": "VIIRS",
        "popup_label": "<strong>ALERT-20261005-043<\/strong><br>Nivel: seguimiento<br>Focos: 2<br>Últimas 6 h: 0<br>FRP total: 1.5 MW<br>Última detección UTC: 2026-10-05 03:04:00"
      }
    },
    {
      "type": "Feature",
      "geometry": {
        "type": "Point",
        "coordinates": [3.9344, 36.2747]
      },
      "properties": {
        "cluster_id": "ALERT-20261005-044",
        "alerta_operativa": "seguimiento",
        "score": 5.6,
        "n_focos": 1,
        "n_ultimas_6h": 0,
        "n_ultimas_24h": 1,
        "frp_total_mw": 2.6,
        "frp_max_mw": 2.6,
        "edad_min_h": 6.8,
        "ultima_deteccion_utc": "2026-10-05 12:44:00",
        "sensores": "VIIRS_NOAA20_NRT",
        "satellites": "N20",
        "instruments": "VIIRS",
        "popup_label": "<strong>ALERT-20261005-044<\/strong><br>Nivel: seguimiento<br>Focos: 1<br>Últimas 6 h: 0<br>FRP total: 2.6 MW<br>Última detección UTC: 2026-10-05 12:44:00"
      }
    },
    {
      "type": "Feature",
      "geometry": {
        "type": "Point",
        "coordinates": [-2.241, 34.9786]
      },
      "properties": {
        "cluster_id": "ALERT-20261005-045",
        "alerta_operativa": "seguimiento",
        "score": 5.5,
        "n_focos": 1,
        "n_ultimas_6h": 0,
        "n_ultimas_24h": 1,
        "frp_total_mw": 2.5,
        "frp_max_mw": 2.5,
        "edad_min_h": 6.8,
        "ultima_deteccion_utc": "2026-10-05 12:44:00",
        "sensores": "VIIRS_NOAA20_NRT",
        "satellites": "N20",
        "instruments": "VIIRS",
        "popup_label": "<strong>ALERT-20261005-045<\/strong><br>Nivel: seguimiento<br>Focos: 1<br>Últimas 6 h: 0<br>FRP total: 2.5 MW<br>Última detección UTC: 2026-10-05 12:44:00"
      }
    },
    {
      "type": "Feature",
      "geometry": {
        "type": "Point",
        "coordinates": [-0.2976, 43.845]
      },
      "properties": {
        "cluster_id": "ALERT-20261005-046",
        "alerta_operativa": "seguimiento",
        "score": 5.4,
        "n_focos": 1,
        "n_ultimas_6h": 0,
        "n_ultimas_24h": 1,
        "frp_total_mw": 2.4,
        "frp_max_mw": 2.4,
        "edad_min_h": 6.8,
        "ultima_deteccion_utc": "2026-10-05 12:46:00",
        "sensores": "VIIRS_NOAA20_NRT",
        "satellites": "N20",
        "instruments": "VIIRS",
        "popup_label": "<strong>ALERT-20261005-046<\/strong><br>Nivel: seguimiento<br>Focos: 1<br>Últimas 6 h: 0<br>FRP total: 2.4 MW<br>Última detección UTC: 2026-10-05 12:46:00"
      }
    },
    {
      "type": "Feature",
      "geometry": {
        "type": "Point",
        "coordinates": [4.085, 43.8102]
      },
      "properties": {
        "cluster_id": "ALERT-20261005-047",
        "alerta_operativa": "seguimiento",
        "score": 4.9,
        "n_focos": 1,
        "n_ultimas_6h": 0,
        "n_ultimas_24h": 1,
        "frp_total_mw": 1.6,
        "frp_max_mw": 1.6,
        "edad_min_h": 6.8,
        "ultima_deteccion_utc": "2026-10-05 12:46:00",
        "sensores": "VIIRS_NOAA20_NRT",
        "satellites": "N20",
        "instruments": "VIIRS",
        "popup_label": "<strong>ALERT-20261005-047<\/strong><br>Nivel: seguimiento<br>Focos: 1<br>Últimas 6 h: 0<br>FRP total: 1.6 MW<br>Última detección UTC: 2026-10-05 12:46:00"
      }
    },
    {
      "type": "Feature",
      "geometry": {
        "type": "Point",
        "coordinates": [2.9195, 36.7698]
      },
      "properties": {
        "cluster_id": "ALERT-20261005-048",
        "alerta_operativa": "seguimiento",
        "score": 4.6,
        "n_focos": 1,
        "n_ultimas_6h": 0,
        "n_ultimas_24h": 1,
        "frp_total_mw": 1.2,
        "frp_max_mw": 1.2,
        "edad_min_h": 6.8,
        "ultima_deteccion_utc": "2026-10-05 12:44:00",
        "sensores": "VIIRS_NOAA20_NRT",
        "satellites": "N20",
        "instruments": "VIIRS",
        "popup_label": "<strong>ALERT-20261005-048<\/strong><br>Nivel: seguimiento<br>Focos: 1<br>Últimas 6 h: 0<br>FRP total: 1.2 MW<br>Última detección UTC: 2026-10-05 12:44:00"
      }
    },
    {
      "type": "Feature",
      "geometry": {
        "type": "Point",
        "coordinates": [-8.0552, 31.6021]
      },
      "properties": {
        "cluster_id": "ALERT-20261005-049",
        "alerta_operativa": "seguimiento",
        "score": 4.1,
        "n_focos": 1,
        "n_ultimas_6h": 0,
        "n_ultimas_24h": 1,
        "frp_total_mw": 0.7,
        "frp_max_mw": 0.7,
        "edad_min_h": 16.8,
        "ultima_deteccion_utc": "2026-10-05 02:45:00",
        "sensores": "VIIRS_SNPP_NRT",
        "satellites": "N",
        "instruments": "VIIRS",
        "popup_label": "<strong>ALERT-20261005-049<\/strong><br>Nivel: seguimiento<br>Focos: 1<br>Últimas 6 h: 0<br>FRP total: 0.7 MW<br>Última detección UTC: 2026-10-05 02:45:00"
      }
    },
    {
      "type": "Feature",
      "geometry": {
        "type": "Point",
        "coordinates": [-6.6486, 32.4688]
      },
      "properties": {
        "cluster_id": "ALERT-20261005-050",
        "alerta_operativa": "seguimiento",
        "score": 3.9,
        "n_focos": 1,
        "n_ultimas_6h": 0,
        "n_ultimas_24h": 1,
        "frp_total_mw": 0.6,
        "frp_max_mw": 0.6,
        "edad_min_h": 16.8,
        "ultima_deteccion_utc": "2026-10-05 02:45:00",
        "sensores": "VIIRS_SNPP_NRT",
        "satellites": "N",
        "instruments": "VIIRS",
        "popup_label": "<strong>ALERT-20261005-050<\/strong><br>Nivel: seguimiento<br>Focos: 1<br>Últimas 6 h: 0<br>FRP total: 0.6 MW<br>Última detección UTC: 2026-10-05 02:45:00"
      }
    },
    {
      "type": "Feature",
      "geometry": {
        "type": "Point",
        "coordinates": [3.4477, 36.2485]
      },
      "properties": {
        "cluster_id": "ALERT-20261005-051",
        "alerta_operativa": "seguimiento",
        "score": 3.8,
        "n_focos": 1,
        "n_ultimas_6h": 0,
        "n_ultimas_24h": 1,
        "frp_total_mw": 0.5,
        "frp_max_mw": 0.5,
        "edad_min_h": 6.8,
        "ultima_deteccion_utc": "2026-10-05 12:44:00",
        "sensores": "VIIRS_NOAA20_NRT",
        "satellites": "N20",
        "instruments": "VIIRS",
        "popup_label": "<strong>ALERT-20261005-051<\/strong><br>Nivel: seguimiento<br>Focos: 1<br>Últimas 6 h: 0<br>FRP total: 0.5 MW<br>Última detección UTC: 2026-10-05 12:44:00"
      }
    },
    {
      "type": "Feature",
      "geometry": {
        "type": "Point",
        "coordinates": [2.9257, 36.1414]
      },
      "properties": {
        "cluster_id": "ALERT-20261005-052",
        "alerta_operativa": "seguimiento",
        "score": 3.8,
        "n_focos": 1,
        "n_ultimas_6h": 0,
        "n_ultimas_24h": 1,
        "frp_total_mw": 0.5,
        "frp_max_mw": 0.5,
        "edad_min_h": 18.1,
        "ultima_deteccion_utc": "2026-10-05 01:24:00",
        "sensores": "VIIRS_NOAA20_NRT",
        "satellites": "N20",
        "instruments": "VIIRS",
        "popup_label": "<strong>ALERT-20261005-052<\/strong><br>Nivel: seguimiento<br>Focos: 1<br>Últimas 6 h: 0<br>FRP total: 0.5 MW<br>Última detección UTC: 2026-10-05 01:24:00"
      }
    },
    {
      "type": "Feature",
      "geometry": {
        "type": "Point",
        "coordinates": [2.9322, 30.1306]
      },
      "properties": {
        "cluster_id": "ALERT-20261005-053",
        "alerta_operativa": "informativa",
        "score": 9.8,
        "n_focos": 2,
        "n_ultimas_6h": 0,
        "n_ultimas_24h": 0,
        "frp_total_mw": 49,
        "frp_max_mw": 34.7,
        "edad_min_h": 30.8,
        "ultima_deteccion_utc": "2026-10-04 12:42:00",
        "sensores": "VIIRS_SNPP_NRT",
        "satellites": "N",
        "instruments": "VIIRS",
        "popup_label": "<strong>ALERT-20261005-053<\/strong><br>Nivel: informativa<br>Focos: 2<br>Últimas 6 h: 0<br>FRP total: 49 MW<br>Última detección UTC: 2026-10-04 12:42:00"
      }
    },
    {
      "type": "Feature",
      "geometry": {
        "type": "Point",
        "coordinates": [0.2356, 27.8234]
      },
      "properties": {
        "cluster_id": "ALERT-20261005-054",
        "alerta_operativa": "informativa",
        "score": 9,
        "n_focos": 3,
        "n_ultimas_6h": 0,
        "n_ultimas_24h": 0,
        "frp_total_mw": 18.8,
        "frp_max_mw": 8.7,
        "edad_min_h": 41.8,
        "ultima_deteccion_utc": "2026-10-04 01:43:00",
        "sensores": "VIIRS_NOAA20_NRT, VIIRS_SNPP_NRT",
        "satellites": "N, N20",
        "instruments": "VIIRS",
        "popup_label": "<strong>ALERT-20261005-054<\/strong><br>Nivel: informativa<br>Focos: 3<br>Últimas 6 h: 0<br>FRP total: 18.8 MW<br>Última detección UTC: 2026-10-04 01:43:00"
      }
    },
    {
      "type": "Feature",
      "geometry": {
        "type": "Point",
        "coordinates": [0.1255, 36.0173]
      },
      "properties": {
        "cluster_id": "ALERT-20261005-055",
        "alerta_operativa": "informativa",
        "score": 7.8,
        "n_focos": 4,
        "n_ultimas_6h": 0,
        "n_ultimas_24h": 0,
        "frp_total_mw": 5.6,
        "frp_max_mw": 2.3,
        "edad_min_h": 30.8,
        "ultima_deteccion_utc": "2026-10-04 12:44:00",
        "sensores": "VIIRS_NOAA20_NRT, VIIRS_SNPP_NRT",
        "satellites": "N, N20",
        "instruments": "VIIRS",
        "popup_label": "<strong>ALERT-20261005-055<\/strong><br>Nivel: informativa<br>Focos: 4<br>Últimas 6 h: 0<br>FRP total: 5.6 MW<br>Última detección UTC: 2026-10-04 12:44:00"
      }
    },
    {
      "type": "Feature",
      "geometry": {
        "type": "Point",
        "coordinates": [3.3669, 39.5765]
      },
      "properties": {
        "cluster_id": "ALERT-20261005-056",
        "alerta_operativa": "informativa",
        "score": 6.7,
        "n_focos": 2,
        "n_ultimas_6h": 0,
        "n_ultimas_24h": 0,
        "frp_total_mw": 9.3,
        "frp_max_mw": 5.6,
        "edad_min_h": 30.8,
        "ultima_deteccion_utc": "2026-10-04 12:44:00",
        "sensores": "VIIRS_SNPP_NRT",
        "satellites": "N",
        "instruments": "VIIRS",
        "popup_label": "<strong>ALERT-20261005-056<\/strong><br>Nivel: informativa<br>Focos: 2<br>Últimas 6 h: 0<br>FRP total: 9.3 MW<br>Última detección UTC: 2026-10-04 12:44:00"
      }
    },
    {
      "type": "Feature",
      "geometry": {
        "type": "Point",
        "coordinates": [3.1055, 39.3663]
      },
      "properties": {
        "cluster_id": "ALERT-20261005-057",
        "alerta_operativa": "informativa",
        "score": 6.4,
        "n_focos": 2,
        "n_ultimas_6h": 0,
        "n_ultimas_24h": 0,
        "frp_total_mw": 8,
        "frp_max_mw": 4.8,
        "edad_min_h": 30.8,
        "ultima_deteccion_utc": "2026-10-04 12:44:00",
        "sensores": "VIIRS_SNPP_NRT",
        "satellites": "N",
        "instruments": "VIIRS",
        "popup_label": "<strong>ALERT-20261005-057<\/strong><br>Nivel: informativa<br>Focos: 2<br>Últimas 6 h: 0<br>FRP total: 8 MW<br>Última detección UTC: 2026-10-04 12:44:00"
      }
    },
    {
      "type": "Feature",
      "geometry": {
        "type": "Point",
        "coordinates": [3.3931, 32.8433]
      },
      "properties": {
        "cluster_id": "ALERT-20261005-058",
        "alerta_operativa": "informativa",
        "score": 5.7,
        "n_focos": 2,
        "n_ultimas_6h": 0,
        "n_ultimas_24h": 0,
        "frp_total_mw": 5.5,
        "frp_max_mw": 3.2,
        "edad_min_h": 30.5,
        "ultima_deteccion_utc": "2026-10-04 13:01:00",
        "sensores": "VIIRS_NOAA20_NRT, VIIRS_SNPP_NRT",
        "satellites": "N, N20",
        "instruments": "VIIRS",
        "popup_label": "<strong>ALERT-20261005-058<\/strong><br>Nivel: informativa<br>Focos: 2<br>Últimas 6 h: 0<br>FRP total: 5.5 MW<br>Última detección UTC: 2026-10-04 13:01:00"
      }
    },
    {
      "type": "Feature",
      "geometry": {
        "type": "Point",
        "coordinates": [-8.4121, 32.4669]
      },
      "properties": {
        "cluster_id": "ALERT-20261005-059",
        "alerta_operativa": "informativa",
        "score": 5.6,
        "n_focos": 1,
        "n_ultimas_6h": 0,
        "n_ultimas_24h": 0,
        "frp_total_mw": 8.8,
        "frp_max_mw": 8.8,
        "edad_min_h": 29.2,
        "ultima_deteccion_utc": "2026-10-04 14:22:00",
        "sensores": "VIIRS_SNPP_NRT",
        "satellites": "N",
        "instruments": "VIIRS",
        "popup_label": "<strong>ALERT-20261005-059<\/strong><br>Nivel: informativa<br>Focos: 1<br>Últimas 6 h: 0<br>FRP total: 8.8 MW<br>Última detección UTC: 2026-10-04 14:22:00"
      }
    },
    {
      "type": "Feature",
      "geometry": {
        "type": "Point",
        "coordinates": [-0.9393, 35.5669]
      },
      "properties": {
        "cluster_id": "ALERT-20261005-060",
        "alerta_operativa": "informativa",
        "score": 5.4,
        "n_focos": 3,
        "n_ultimas_6h": 0,
        "n_ultimas_24h": 0,
        "frp_total_mw": 2.3,
        "frp_max_mw": 1.2,
        "edad_min_h": 41.9,
        "ultima_deteccion_utc": "2026-10-04 01:41:00",
        "sensores": "VIIRS_NOAA20_NRT, VIIRS_SNPP_NRT",
        "satellites": "N, N20",
        "instruments": "VIIRS",
        "popup_label": "<strong>ALERT-20261005-060<\/strong><br>Nivel: informativa<br>Focos: 3<br>Últimas 6 h: 0<br>FRP total: 2.3 MW<br>Última detección UTC: 2026-10-04 01:41:00"
      }
    },
    {
      "type": "Feature",
      "geometry": {
        "type": "Point",
        "coordinates": [4.7255, 36.7218]
      },
      "properties": {
        "cluster_id": "ALERT-20261005-061",
        "alerta_operativa": "informativa",
        "score": 4.4,
        "n_focos": 1,
        "n_ultimas_6h": 0,
        "n_ultimas_24h": 0,
        "frp_total_mw": 4.6,
        "frp_max_mw": 4.6,
        "edad_min_h": 30.5,
        "ultima_deteccion_utc": "2026-10-04 13:01:00",
        "sensores": "VIIRS_NOAA20_NRT",
        "satellites": "N20",
        "instruments": "VIIRS",
        "popup_label": "<strong>ALERT-20261005-061<\/strong><br>Nivel: informativa<br>Focos: 1<br>Últimas 6 h: 0<br>FRP total: 4.6 MW<br>Última detección UTC: 2026-10-04 13:01:00"
      }
    },
    {
      "type": "Feature",
      "geometry": {
        "type": "Point",
        "coordinates": [3.0448, 36.2716]
      },
      "properties": {
        "cluster_id": "ALERT-20261005-062",
        "alerta_operativa": "informativa",
        "score": 4.1,
        "n_focos": 1,
        "n_ultimas_6h": 0,
        "n_ultimas_24h": 0,
        "frp_total_mw": 3.8,
        "frp_max_mw": 3.8,
        "edad_min_h": 30.8,
        "ultima_deteccion_utc": "2026-10-04 12:44:00",
        "sensores": "VIIRS_SNPP_NRT",
        "satellites": "N",
        "instruments": "VIIRS",
        "popup_label": "<strong>ALERT-20261005-062<\/strong><br>Nivel: informativa<br>Focos: 1<br>Últimas 6 h: 0<br>FRP total: 3.8 MW<br>Última detección UTC: 2026-10-04 12:44:00"
      }
    },
    {
      "type": "Feature",
      "geometry": {
        "type": "Point",
        "coordinates": [4.4114, 36.8385]
      },
      "properties": {
        "cluster_id": "ALERT-20261005-063",
        "alerta_operativa": "informativa",
        "score": 4,
        "n_focos": 1,
        "n_ultimas_6h": 0,
        "n_ultimas_24h": 0,
        "frp_total_mw": 3.5,
        "frp_max_mw": 3.5,
        "edad_min_h": 30.8,
        "ultima_deteccion_utc": "2026-10-04 12:44:00",
        "sensores": "VIIRS_SNPP_NRT",
        "satellites": "N",
        "instruments": "VIIRS",
        "popup_label": "<strong>ALERT-20261005-063<\/strong><br>Nivel: informativa<br>Focos: 1<br>Últimas 6 h: 0<br>FRP total: 3.5 MW<br>Última detección UTC: 2026-10-04 12:44:00"
      }
    },
    {
      "type": "Feature",
      "geometry": {
        "type": "Point",
        "coordinates": [-8.436, 43.3471]
      },
      "properties": {
        "cluster_id": "ALERT-20261005-064",
        "alerta_operativa": "informativa",
        "score": 3.8,
        "n_focos": 2,
        "n_ultimas_6h": 0,
        "n_ultimas_24h": 0,
        "frp_total_mw": 1.5,
        "frp_max_mw": 0.8,
        "edad_min_h": 40.2,
        "ultima_deteccion_utc": "2026-10-04 03:21:00",
        "sensores": "VIIRS_NOAA20_NRT, VIIRS_SNPP_NRT",
        "satellites": "N, N20",
        "instruments": "VIIRS",
        "popup_label": "<strong>ALERT-20261005-064<\/strong><br>Nivel: informativa<br>Focos: 2<br>Últimas 6 h: 0<br>FRP total: 1.5 MW<br>Última detección UTC: 2026-10-04 03:21:00"
      }
    },
    {
      "type": "Feature",
      "geometry": {
        "type": "Point",
        "coordinates": [-5.2939, 34.9888]
      },
      "properties": {
        "cluster_id": "ALERT-20261005-065",
        "alerta_operativa": "informativa",
        "score": 3.4,
        "n_focos": 1,
        "n_ultimas_6h": 0,
        "n_ultimas_24h": 0,
        "frp_total_mw": 2.4,
        "frp_max_mw": 2.4,
        "edad_min_h": 29.1,
        "ultima_deteccion_utc": "2026-10-04 14:25:00",
        "sensores": "VIIRS_SNPP_NRT",
        "satellites": "N",
        "instruments": "VIIRS",
        "popup_label": "<strong>ALERT-20261005-065<\/strong><br>Nivel: informativa<br>Focos: 1<br>Últimas 6 h: 0<br>FRP total: 2.4 MW<br>Última detección UTC: 2026-10-04 14:25:00"
      }
    },
    {
      "type": "Feature",
      "geometry": {
        "type": "Point",
        "coordinates": [3.1449, 39.7539]
      },
      "properties": {
        "cluster_id": "ALERT-20261005-066",
        "alerta_operativa": "informativa",
        "score": 3.4,
        "n_focos": 1,
        "n_ultimas_6h": 0,
        "n_ultimas_24h": 0,
        "frp_total_mw": 2.4,
        "frp_max_mw": 2.4,
        "edad_min_h": 30.8,
        "ultima_deteccion_utc": "2026-10-04 12:44:00",
        "sensores": "VIIRS_SNPP_NRT",
        "satellites": "N",
        "instruments": "VIIRS",
        "popup_label": "<strong>ALERT-20261005-066<\/strong><br>Nivel: informativa<br>Focos: 1<br>Últimas 6 h: 0<br>FRP total: 2.4 MW<br>Última detección UTC: 2026-10-04 12:44:00"
      }
    },
    {
      "type": "Feature",
      "geometry": {
        "type": "Point",
        "coordinates": [-3.6562, 39.5398]
      },
      "properties": {
        "cluster_id": "ALERT-20261005-067",
        "alerta_operativa": "informativa",
        "score": 3.4,
        "n_focos": 1,
        "n_ultimas_6h": 0,
        "n_ultimas_24h": 0,
        "frp_total_mw": 2.3,
        "frp_max_mw": 2.3,
        "edad_min_h": 30.5,
        "ultima_deteccion_utc": "2026-10-04 13:04:00",
        "sensores": "VIIRS_NOAA20_NRT",
        "satellites": "N20",
        "instruments": "VIIRS",
        "popup_label": "<strong>ALERT-20261005-067<\/strong><br>Nivel: informativa<br>Focos: 1<br>Últimas 6 h: 0<br>FRP total: 2.3 MW<br>Última detección UTC: 2026-10-04 13:04:00"
      }
    },
    {
      "type": "Feature",
      "geometry": {
        "type": "Point",
        "coordinates": [-1.6868, 38.2601]
      },
      "properties": {
        "cluster_id": "ALERT-20261005-068",
        "alerta_operativa": "informativa",
        "score": 3.1,
        "n_focos": 1,
        "n_ultimas_6h": 0,
        "n_ultimas_24h": 0,
        "frp_total_mw": 1.9,
        "frp_max_mw": 1.9,
        "edad_min_h": 30.5,
        "ultima_deteccion_utc": "2026-10-04 13:04:00",
        "sensores": "VIIRS_NOAA20_NRT",
        "satellites": "N20",
        "instruments": "VIIRS",
        "popup_label": "<strong>ALERT-20261005-068<\/strong><br>Nivel: informativa<br>Focos: 1<br>Últimas 6 h: 0<br>FRP total: 1.9 MW<br>Última detección UTC: 2026-10-04 13:04:00"
      }
    },
    {
      "type": "Feature",
      "geometry": {
        "type": "Point",
        "coordinates": [-0.003, 39.9521]
      },
      "properties": {
        "cluster_id": "ALERT-20261005-069",
        "alerta_operativa": "informativa",
        "score": 2.2,
        "n_focos": 1,
        "n_ultimas_6h": 0,
        "n_ultimas_24h": 0,
        "frp_total_mw": 0.8,
        "frp_max_mw": 0.8,
        "edad_min_h": 42.2,
        "ultima_deteccion_utc": "2026-10-04 01:22:00",
        "sensores": "VIIRS_SNPP_NRT",
        "satellites": "N",
        "instruments": "VIIRS",
        "popup_label": "<strong>ALERT-20261005-069<\/strong><br>Nivel: informativa<br>Focos: 1<br>Últimas 6 h: 0<br>FRP total: 0.8 MW<br>Última detección UTC: 2026-10-04 01:22:00"
      }
    },
    {
      "type": "Feature",
      "geometry": {
        "type": "Point",
        "coordinates": [1.237, 33.3601]
      },
      "properties": {
        "cluster_id": "ALERT-20261005-070",
        "alerta_operativa": "informativa",
        "score": 1.8,
        "n_focos": 1,
        "n_ultimas_6h": 0,
        "n_ultimas_24h": 0,
        "frp_total_mw": 0.5,
        "frp_max_mw": 0.5,
        "edad_min_h": 41.8,
        "ultima_deteccion_utc": "2026-10-04 01:43:00",
        "sensores": "VIIRS_NOAA20_NRT",
        "satellites": "N20",
        "instruments": "VIIRS",
        "popup_label": "<strong>ALERT-20261005-070<\/strong><br>Nivel: informativa<br>Focos: 1<br>Últimas 6 h: 0<br>FRP total: 0.5 MW<br>Última detección UTC: 2026-10-04 01:43:00"
      }
    }
  ]
}
