{
  "type": "FeatureCollection",
  "features": [
    {
      "type": "Feature",
      "geometry": {
        "type": "Point",
        "coordinates": [-5.7046, 43.0522]
      },
      "properties": {
        "cluster_id": "ALERT-20260929-001",
        "alerta_operativa": "alta",
        "score": 47.6,
        "n_focos": 35,
        "n_ultimas_6h": 0,
        "n_ultimas_24h": 0,
        "frp_total_mw": 556.5,
        "frp_max_mw": 76.4,
        "edad_min_h": 29.2,
        "ultima_deteccion_utc": "2026-09-28 03:13:00",
        "sensores": "VIIRS_NOAA20_NRT, VIIRS_SNPP_NRT",
        "satellites": "N, N20",
        "instruments": "VIIRS",
        "popup_label": "<strong>ALERT-20260929-001<\/strong><br>Nivel: alta<br>Focos: 35<br>Últimas 6 h: 0<br>FRP total: 556.5 MW<br>Última detección UTC: 2026-09-28 03:13:00"
      }
    },
    {
      "type": "Feature",
      "geometry": {
        "type": "Point",
        "coordinates": [-5.8046, 43.5383]
      },
      "properties": {
        "cluster_id": "ALERT-20260929-002",
        "alerta_operativa": "alta",
        "score": 42.1,
        "n_focos": 6,
        "n_ultimas_6h": 4,
        "n_ultimas_24h": 6,
        "frp_total_mw": 6.8,
        "frp_max_mw": 2.5,
        "edad_min_h": 5.2,
        "ultima_deteccion_utc": "2026-09-29 03:15:00",
        "sensores": "VIIRS_NOAA20_NRT",
        "satellites": "N20",
        "instruments": "VIIRS",
        "popup_label": "<strong>ALERT-20260929-002<\/strong><br>Nivel: alta<br>Focos: 6<br>Últimas 6 h: 4<br>FRP total: 6.8 MW<br>Última detección UTC: 2026-09-29 03:15:00"
      }
    },
    {
      "type": "Feature",
      "geometry": {
        "type": "Point",
        "coordinates": [3.2238, 32.9048]
      },
      "properties": {
        "cluster_id": "ALERT-20260929-003",
        "alerta_operativa": "media",
        "score": 44.1,
        "n_focos": 30,
        "n_ultimas_6h": 0,
        "n_ultimas_24h": 3,
        "frp_total_mw": 55.4,
        "frp_max_mw": 6.3,
        "edad_min_h": 6.8,
        "ultima_deteccion_utc": "2026-09-29 01:34:00",
        "sensores": "VIIRS_NOAA20_NRT, VIIRS_SNPP_NRT",
        "satellites": "N, N20",
        "instruments": "VIIRS",
        "popup_label": "<strong>ALERT-20260929-003<\/strong><br>Nivel: media<br>Focos: 30<br>Últimas 6 h: 0<br>FRP total: 55.4 MW<br>Última detección UTC: 2026-09-29 01:34:00"
      }
    },
    {
      "type": "Feature",
      "geometry": {
        "type": "Point",
        "coordinates": [1.4927, 42.9017]
      },
      "properties": {
        "cluster_id": "ALERT-20260929-004",
        "alerta_operativa": "media",
        "score": 34.9,
        "n_focos": 20,
        "n_ultimas_6h": 0,
        "n_ultimas_24h": 3,
        "frp_total_mw": 84.9,
        "frp_max_mw": 13,
        "edad_min_h": 19.1,
        "ultima_deteccion_utc": "2026-09-28 13:16:00",
        "sensores": "VIIRS_NOAA20_NRT, VIIRS_SNPP_NRT",
        "satellites": "N, N20",
        "instruments": "VIIRS",
        "popup_label": "<strong>ALERT-20260929-004<\/strong><br>Nivel: media<br>Focos: 20<br>Últimas 6 h: 0<br>FRP total: 84.9 MW<br>Última detección UTC: 2026-09-28 13:16:00"
      }
    },
    {
      "type": "Feature",
      "geometry": {
        "type": "Point",
        "coordinates": [-3.4748, 40.2459]
      },
      "properties": {
        "cluster_id": "ALERT-20260929-005",
        "alerta_operativa": "media",
        "score": 20.1,
        "n_focos": 6,
        "n_ultimas_6h": 1,
        "n_ultimas_24h": 2,
        "frp_total_mw": 11.6,
        "frp_max_mw": 3.5,
        "edad_min_h": 5.1,
        "ultima_deteccion_utc": "2026-09-29 03:17:00",
        "sensores": "VIIRS_NOAA20_NRT, VIIRS_SNPP_NRT",
        "satellites": "N, N20",
        "instruments": "VIIRS",
        "popup_label": "<strong>ALERT-20260929-005<\/strong><br>Nivel: media<br>Focos: 6<br>Últimas 6 h: 1<br>FRP total: 11.6 MW<br>Última detección UTC: 2026-09-29 03:17:00"
      }
    },
    {
      "type": "Feature",
      "geometry": {
        "type": "Point",
        "coordinates": [3.987, 32.2773]
      },
      "properties": {
        "cluster_id": "ALERT-20260929-006",
        "alerta_operativa": "media",
        "score": 18.7,
        "n_focos": 6,
        "n_ultimas_6h": 0,
        "n_ultimas_24h": 3,
        "frp_total_mw": 27.4,
        "frp_max_mw": 7.9,
        "edad_min_h": 6.8,
        "ultima_deteccion_utc": "2026-09-29 01:37:00",
        "sensores": "VIIRS_NOAA20_NRT, VIIRS_SNPP_NRT",
        "satellites": "N, N20",
        "instruments": "VIIRS",
        "popup_label": "<strong>ALERT-20260929-006<\/strong><br>Nivel: media<br>Focos: 6<br>Últimas 6 h: 0<br>FRP total: 27.4 MW<br>Última detección UTC: 2026-09-29 01:37:00"
      }
    },
    {
      "type": "Feature",
      "geometry": {
        "type": "Point",
        "coordinates": [-7.3272, 41.6367]
      },
      "properties": {
        "cluster_id": "ALERT-20260929-007",
        "alerta_operativa": "media",
        "score": 14.3,
        "n_focos": 3,
        "n_ultimas_6h": 0,
        "n_ultimas_24h": 3,
        "frp_total_mw": 13.4,
        "frp_max_mw": 5.8,
        "edad_min_h": 19.1,
        "ultima_deteccion_utc": "2026-09-28 13:16:00",
        "sensores": "VIIRS_NOAA20_NRT",
        "satellites": "N20",
        "instruments": "VIIRS",
        "popup_label": "<strong>ALERT-20260929-007<\/strong><br>Nivel: media<br>Focos: 3<br>Últimas 6 h: 0<br>FRP total: 13.4 MW<br>Última detección UTC: 2026-09-28 13:16:00"
      }
    },
    {
      "type": "Feature",
      "geometry": {
        "type": "Point",
        "coordinates": [0.3037, 28.1121]
      },
      "properties": {
        "cluster_id": "ALERT-20260929-008",
        "alerta_operativa": "media",
        "score": 14.1,
        "n_focos": 6,
        "n_ultimas_6h": 0,
        "n_ultimas_24h": 0,
        "frp_total_mw": 57.5,
        "frp_max_mw": 22.5,
        "edad_min_h": 30.4,
        "ultima_deteccion_utc": "2026-09-28 01:58:00",
        "sensores": "VIIRS_NOAA20_NRT, VIIRS_SNPP_NRT",
        "satellites": "N, N20",
        "instruments": "VIIRS",
        "popup_label": "<strong>ALERT-20260929-008<\/strong><br>Nivel: media<br>Focos: 6<br>Últimas 6 h: 0<br>FRP total: 57.5 MW<br>Última detección UTC: 2026-09-28 01:58:00"
      }
    },
    {
      "type": "Feature",
      "geometry": {
        "type": "Point",
        "coordinates": [-0.3452, 33.4749]
      },
      "properties": {
        "cluster_id": "ALERT-20260929-009",
        "alerta_operativa": "media",
        "score": 13.9,
        "n_focos": 4,
        "n_ultimas_6h": 0,
        "n_ultimas_24h": 3,
        "frp_total_mw": 6.2,
        "frp_max_mw": 3.1,
        "edad_min_h": 6.8,
        "ultima_deteccion_utc": "2026-09-29 01:34:00",
        "sensores": "VIIRS_NOAA20_NRT",
        "satellites": "N20",
        "instruments": "VIIRS",
        "popup_label": "<strong>ALERT-20260929-009<\/strong><br>Nivel: media<br>Focos: 4<br>Últimas 6 h: 0<br>FRP total: 6.2 MW<br>Última detección UTC: 2026-09-29 01:34:00"
      }
    },
    {
      "type": "Feature",
      "geometry": {
        "type": "Point",
        "coordinates": [-4.6586, 43.0542]
      },
      "properties": {
        "cluster_id": "ALERT-20260929-010",
        "alerta_operativa": "media",
        "score": 13.4,
        "n_focos": 3,
        "n_ultimas_6h": 1,
        "n_ultimas_24h": 1,
        "frp_total_mw": 4.4,
        "frp_max_mw": 1.6,
        "edad_min_h": 5.2,
        "ultima_deteccion_utc": "2026-09-29 03:15:00",
        "sensores": "VIIRS_NOAA20_NRT, VIIRS_SNPP_NRT",
        "satellites": "N, N20",
        "instruments": "VIIRS",
        "popup_label": "<strong>ALERT-20260929-010<\/strong><br>Nivel: media<br>Focos: 3<br>Últimas 6 h: 1<br>FRP total: 4.4 MW<br>Última detección UTC: 2026-09-29 03:15:00"
      }
    },
    {
      "type": "Feature",
      "geometry": {
        "type": "Point",
        "coordinates": [-7.2186, 33.277]
      },
      "properties": {
        "cluster_id": "ALERT-20260929-011",
        "alerta_operativa": "media",
        "score": 13.1,
        "n_focos": 2,
        "n_ultimas_6h": 1,
        "n_ultimas_24h": 2,
        "frp_total_mw": 1.8,
        "frp_max_mw": 1,
        "edad_min_h": 5.1,
        "ultima_deteccion_utc": "2026-09-29 03:19:00",
        "sensores": "VIIRS_NOAA20_NRT",
        "satellites": "N20",
        "instruments": "VIIRS",
        "popup_label": "<strong>ALERT-20260929-011<\/strong><br>Nivel: media<br>Focos: 2<br>Últimas 6 h: 1<br>FRP total: 1.8 MW<br>Última detección UTC: 2026-09-29 03:19:00"
      }
    },
    {
      "type": "Feature",
      "geometry": {
        "type": "Point",
        "coordinates": [-5.9428, 37.0268]
      },
      "properties": {
        "cluster_id": "ALERT-20260929-012",
        "alerta_operativa": "media",
        "score": 11.3,
        "n_focos": 2,
        "n_ultimas_6h": 0,
        "n_ultimas_24h": 2,
        "frp_total_mw": 13.2,
        "frp_max_mw": 6.6,
        "edad_min_h": 17.8,
        "ultima_deteccion_utc": "2026-09-28 14:35:00",
        "sensores": "VIIRS_SNPP_NRT",
        "satellites": "N",
        "instruments": "VIIRS",
        "popup_label": "<strong>ALERT-20260929-012<\/strong><br>Nivel: media<br>Focos: 2<br>Últimas 6 h: 0<br>FRP total: 13.2 MW<br>Última detección UTC: 2026-09-28 14:35:00"
      }
    },
    {
      "type": "Feature",
      "geometry": {
        "type": "Point",
        "coordinates": [-6.475, 40.5912]
      },
      "properties": {
        "cluster_id": "ALERT-20260929-013",
        "alerta_operativa": "media",
        "score": 10.3,
        "n_focos": 2,
        "n_ultimas_6h": 0,
        "n_ultimas_24h": 2,
        "frp_total_mw": 7.8,
        "frp_max_mw": 4.7,
        "edad_min_h": 19.1,
        "ultima_deteccion_utc": "2026-09-28 13:16:00",
        "sensores": "VIIRS_NOAA20_NRT",
        "satellites": "N20",
        "instruments": "VIIRS",
        "popup_label": "<strong>ALERT-20260929-013<\/strong><br>Nivel: media<br>Focos: 2<br>Últimas 6 h: 0<br>FRP total: 7.8 MW<br>Última detección UTC: 2026-09-28 13:16:00"
      }
    },
    {
      "type": "Feature",
      "geometry": {
        "type": "Point",
        "coordinates": [-4.3721, 41.875]
      },
      "properties": {
        "cluster_id": "ALERT-20260929-014",
        "alerta_operativa": "media",
        "score": 10.2,
        "n_focos": 2,
        "n_ultimas_6h": 0,
        "n_ultimas_24h": 2,
        "frp_total_mw": 7.2,
        "frp_max_mw": 3.6,
        "edad_min_h": 6.8,
        "ultima_deteccion_utc": "2026-09-29 01:34:00",
        "sensores": "VIIRS_NOAA20_NRT",
        "satellites": "N20",
        "instruments": "VIIRS",
        "popup_label": "<strong>ALERT-20260929-014<\/strong><br>Nivel: media<br>Focos: 2<br>Últimas 6 h: 0<br>FRP total: 7.2 MW<br>Última detección UTC: 2026-09-29 01:34:00"
      }
    },
    {
      "type": "Feature",
      "geometry": {
        "type": "Point",
        "coordinates": [-3.0137, 43.303]
      },
      "properties": {
        "cluster_id": "ALERT-20260929-015",
        "alerta_operativa": "media",
        "score": 8.8,
        "n_focos": 2,
        "n_ultimas_6h": 0,
        "n_ultimas_24h": 2,
        "frp_total_mw": 3,
        "frp_max_mw": 1.7,
        "edad_min_h": 6.8,
        "ultima_deteccion_utc": "2026-09-29 01:34:00",
        "sensores": "VIIRS_NOAA20_NRT",
        "satellites": "N20",
        "instruments": "VIIRS",
        "popup_label": "<strong>ALERT-20260929-015<\/strong><br>Nivel: media<br>Focos: 2<br>Últimas 6 h: 0<br>FRP total: 3 MW<br>Última detección UTC: 2026-09-29 01:34:00"
      }
    },
    {
      "type": "Feature",
      "geometry": {
        "type": "Point",
        "coordinates": [-9.5442, 30.3373]
      },
      "properties": {
        "cluster_id": "ALERT-20260929-016",
        "alerta_operativa": "media",
        "score": 7.8,
        "n_focos": 2,
        "n_ultimas_6h": 0,
        "n_ultimas_24h": 2,
        "frp_total_mw": 1.4,
        "frp_max_mw": 0.8,
        "edad_min_h": 6.8,
        "ultima_deteccion_utc": "2026-09-29 01:37:00",
        "sensores": "VIIRS_NOAA20_NRT",
        "satellites": "N20",
        "instruments": "VIIRS",
        "popup_label": "<strong>ALERT-20260929-016<\/strong><br>Nivel: media<br>Focos: 2<br>Últimas 6 h: 0<br>FRP total: 1.4 MW<br>Última detección UTC: 2026-09-29 01:37:00"
      }
    },
    {
      "type": "Feature",
      "geometry": {
        "type": "Point",
        "coordinates": [4.8923, 43.4402]
      },
      "properties": {
        "cluster_id": "ALERT-20260929-017",
        "alerta_operativa": "seguimiento",
        "score": 27.7,
        "n_focos": 18,
        "n_ultimas_6h": 0,
        "n_ultimas_24h": 1,
        "frp_total_mw": 46.2,
        "frp_max_mw": 4.9,
        "edad_min_h": 6.8,
        "ultima_deteccion_utc": "2026-09-29 01:34:00",
        "sensores": "VIIRS_NOAA20_NRT, VIIRS_SNPP_NRT",
        "satellites": "N, N20",
        "instruments": "VIIRS",
        "popup_label": "<strong>ALERT-20260929-017<\/strong><br>Nivel: seguimiento<br>Focos: 18<br>Últimas 6 h: 0<br>FRP total: 46.2 MW<br>Última detección UTC: 2026-09-29 01:34:00"
      }
    },
    {
      "type": "Feature",
      "geometry": {
        "type": "Point",
        "coordinates": [3.1382, 36.6731]
      },
      "properties": {
        "cluster_id": "ALERT-20260929-018",
        "alerta_operativa": "seguimiento",
        "score": 14.5,
        "n_focos": 8,
        "n_ultimas_6h": 0,
        "n_ultimas_24h": 1,
        "frp_total_mw": 8.7,
        "frp_max_mw": 2,
        "edad_min_h": 6.8,
        "ultima_deteccion_utc": "2026-09-29 01:37:00",
        "sensores": "VIIRS_NOAA20_NRT, VIIRS_SNPP_NRT",
        "satellites": "N, N20",
        "instruments": "VIIRS",
        "popup_label": "<strong>ALERT-20260929-018<\/strong><br>Nivel: seguimiento<br>Focos: 8<br>Últimas 6 h: 0<br>FRP total: 8.7 MW<br>Última detección UTC: 2026-09-29 01:37:00"
      }
    },
    {
      "type": "Feature",
      "geometry": {
        "type": "Point",
        "coordinates": [-0.2553, 35.8088]
      },
      "properties": {
        "cluster_id": "ALERT-20260929-019",
        "alerta_operativa": "seguimiento",
        "score": 11.1,
        "n_focos": 3,
        "n_ultimas_6h": 0,
        "n_ultimas_24h": 1,
        "frp_total_mw": 19.6,
        "frp_max_mw": 18.6,
        "edad_min_h": 19.1,
        "ultima_deteccion_utc": "2026-09-28 13:16:00",
        "sensores": "VIIRS_NOAA20_NRT",
        "satellites": "N20",
        "instruments": "VIIRS",
        "popup_label": "<strong>ALERT-20260929-019<\/strong><br>Nivel: seguimiento<br>Focos: 3<br>Últimas 6 h: 0<br>FRP total: 19.6 MW<br>Última detección UTC: 2026-09-28 13:16:00"
      }
    },
    {
      "type": "Feature",
      "geometry": {
        "type": "Point",
        "coordinates": [3.169, 32.5549]
      },
      "properties": {
        "cluster_id": "ALERT-20260929-020",
        "alerta_operativa": "seguimiento",
        "score": 10.1,
        "n_focos": 3,
        "n_ultimas_6h": 0,
        "n_ultimas_24h": 1,
        "frp_total_mw": 12,
        "frp_max_mw": 5.1,
        "edad_min_h": 6.8,
        "ultima_deteccion_utc": "2026-09-29 01:37:00",
        "sensores": "VIIRS_NOAA20_NRT, VIIRS_SNPP_NRT",
        "satellites": "N, N20",
        "instruments": "VIIRS",
        "popup_label": "<strong>ALERT-20260929-020<\/strong><br>Nivel: seguimiento<br>Focos: 3<br>Últimas 6 h: 0<br>FRP total: 12 MW<br>Última detección UTC: 2026-09-29 01:37:00"
      }
    },
    {
      "type": "Feature",
      "geometry": {
        "type": "Point",
        "coordinates": [2.0597, 34.4382]
      },
      "properties": {
        "cluster_id": "ALERT-20260929-021",
        "alerta_operativa": "seguimiento",
        "score": 8.9,
        "n_focos": 4,
        "n_ultimas_6h": 0,
        "n_ultimas_24h": 1,
        "frp_total_mw": 3.2,
        "frp_max_mw": 1.1,
        "edad_min_h": 6.8,
        "ultima_deteccion_utc": "2026-09-29 01:34:00",
        "sensores": "VIIRS_NOAA20_NRT, VIIRS_SNPP_NRT",
        "satellites": "N, N20",
        "instruments": "VIIRS",
        "popup_label": "<strong>ALERT-20260929-021<\/strong><br>Nivel: seguimiento<br>Focos: 4<br>Últimas 6 h: 0<br>FRP total: 3.2 MW<br>Última detección UTC: 2026-09-29 01:34:00"
      }
    },
    {
      "type": "Feature",
      "geometry": {
        "type": "Point",
        "coordinates": [2.8789, 36.5953]
      },
      "properties": {
        "cluster_id": "ALERT-20260929-022",
        "alerta_operativa": "seguimiento",
        "score": 8.8,
        "n_focos": 4,
        "n_ultimas_6h": 0,
        "n_ultimas_24h": 1,
        "frp_total_mw": 3,
        "frp_max_mw": 0.9,
        "edad_min_h": 6.8,
        "ultima_deteccion_utc": "2026-09-29 01:37:00",
        "sensores": "VIIRS_NOAA20_NRT, VIIRS_SNPP_NRT",
        "satellites": "N, N20",
        "instruments": "VIIRS",
        "popup_label": "<strong>ALERT-20260929-022<\/strong><br>Nivel: seguimiento<br>Focos: 4<br>Últimas 6 h: 0<br>FRP total: 3 MW<br>Última detección UTC: 2026-09-29 01:37:00"
      }
    },
    {
      "type": "Feature",
      "geometry": {
        "type": "Point",
        "coordinates": [3.761, 36.3437]
      },
      "properties": {
        "cluster_id": "ALERT-20260929-023",
        "alerta_operativa": "seguimiento",
        "score": 8.5,
        "n_focos": 1,
        "n_ultimas_6h": 0,
        "n_ultimas_24h": 1,
        "frp_total_mw": 14.7,
        "frp_max_mw": 14.7,
        "edad_min_h": 19.1,
        "ultima_deteccion_utc": "2026-09-28 13:16:00",
        "sensores": "VIIRS_NOAA20_NRT",
        "satellites": "N20",
        "instruments": "VIIRS",
        "popup_label": "<strong>ALERT-20260929-023<\/strong><br>Nivel: seguimiento<br>Focos: 1<br>Últimas 6 h: 0<br>FRP total: 14.7 MW<br>Última detección UTC: 2026-09-28 13:16:00"
      }
    },
    {
      "type": "Feature",
      "geometry": {
        "type": "Point",
        "coordinates": [3.4653, 30.8755]
      },
      "properties": {
        "cluster_id": "ALERT-20260929-024",
        "alerta_operativa": "seguimiento",
        "score": 8.4,
        "n_focos": 1,
        "n_ultimas_6h": 0,
        "n_ultimas_24h": 1,
        "frp_total_mw": 13.7,
        "frp_max_mw": 13.7,
        "edad_min_h": 19.2,
        "ultima_deteccion_utc": "2026-09-28 13:14:00",
        "sensores": "VIIRS_NOAA20_NRT",
        "satellites": "N20",
        "instruments": "VIIRS",
        "popup_label": "<strong>ALERT-20260929-024<\/strong><br>Nivel: seguimiento<br>Focos: 1<br>Últimas 6 h: 0<br>FRP total: 13.7 MW<br>Última detección UTC: 2026-09-28 13:14:00"
      }
    },
    {
      "type": "Feature",
      "geometry": {
        "type": "Point",
        "coordinates": [4.4766, 35.709]
      },
      "properties": {
        "cluster_id": "ALERT-20260929-025",
        "alerta_operativa": "seguimiento",
        "score": 8,
        "n_focos": 3,
        "n_ultimas_6h": 0,
        "n_ultimas_24h": 1,
        "frp_total_mw": 3.5,
        "frp_max_mw": 1.3,
        "edad_min_h": 6.8,
        "ultima_deteccion_utc": "2026-09-29 01:34:00",
        "sensores": "VIIRS_NOAA20_NRT, VIIRS_SNPP_NRT",
        "satellites": "N, N20",
        "instruments": "VIIRS",
        "popup_label": "<strong>ALERT-20260929-025<\/strong><br>Nivel: seguimiento<br>Focos: 3<br>Últimas 6 h: 0<br>FRP total: 3.5 MW<br>Última detección UTC: 2026-09-29 01:34:00"
      }
    },
    {
      "type": "Feature",
      "geometry": {
        "type": "Point",
        "coordinates": [4.0054, 32.4023]
      },
      "properties": {
        "cluster_id": "ALERT-20260929-026",
        "alerta_operativa": "seguimiento",
        "score": 7.4,
        "n_focos": 3,
        "n_ultimas_6h": 0,
        "n_ultimas_24h": 1,
        "frp_total_mw": 2.4,
        "frp_max_mw": 0.9,
        "edad_min_h": 6.8,
        "ultima_deteccion_utc": "2026-09-29 01:37:00",
        "sensores": "VIIRS_NOAA20_NRT, VIIRS_SNPP_NRT",
        "satellites": "N, N20",
        "instruments": "VIIRS",
        "popup_label": "<strong>ALERT-20260929-026<\/strong><br>Nivel: seguimiento<br>Focos: 3<br>Últimas 6 h: 0<br>FRP total: 2.4 MW<br>Última detección UTC: 2026-09-29 01:37:00"
      }
    },
    {
      "type": "Feature",
      "geometry": {
        "type": "Point",
        "coordinates": [4.4483, 35.8791]
      },
      "properties": {
        "cluster_id": "ALERT-20260929-027",
        "alerta_operativa": "seguimiento",
        "score": 7.3,
        "n_focos": 3,
        "n_ultimas_6h": 0,
        "n_ultimas_24h": 1,
        "frp_total_mw": 2.1,
        "frp_max_mw": 0.8,
        "edad_min_h": 6.8,
        "ultima_deteccion_utc": "2026-09-29 01:34:00",
        "sensores": "VIIRS_NOAA20_NRT, VIIRS_SNPP_NRT",
        "satellites": "N, N20",
        "instruments": "VIIRS",
        "popup_label": "<strong>ALERT-20260929-027<\/strong><br>Nivel: seguimiento<br>Focos: 3<br>Últimas 6 h: 0<br>FRP total: 2.1 MW<br>Última detección UTC: 2026-09-29 01:34:00"
      }
    },
    {
      "type": "Feature",
      "geometry": {
        "type": "Point",
        "coordinates": [-0.3148, 39.2229]
      },
      "properties": {
        "cluster_id": "ALERT-20260929-028",
        "alerta_operativa": "seguimiento",
        "score": 5.8,
        "n_focos": 1,
        "n_ultimas_6h": 0,
        "n_ultimas_24h": 1,
        "frp_total_mw": 3,
        "frp_max_mw": 3,
        "edad_min_h": 19.1,
        "ultima_deteccion_utc": "2026-09-28 13:16:00",
        "sensores": "VIIRS_NOAA20_NRT",
        "satellites": "N20",
        "instruments": "VIIRS",
        "popup_label": "<strong>ALERT-20260929-028<\/strong><br>Nivel: seguimiento<br>Focos: 1<br>Últimas 6 h: 0<br>FRP total: 3 MW<br>Última detección UTC: 2026-09-28 13:16:00"
      }
    },
    {
      "type": "Feature",
      "geometry": {
        "type": "Point",
        "coordinates": [2.9294, 36.1404]
      },
      "properties": {
        "cluster_id": "ALERT-20260929-029",
        "alerta_operativa": "seguimiento",
        "score": 5.6,
        "n_focos": 2,
        "n_ultimas_6h": 0,
        "n_ultimas_24h": 1,
        "frp_total_mw": 1.2,
        "frp_max_mw": 0.7,
        "edad_min_h": 6.8,
        "ultima_deteccion_utc": "2026-09-29 01:34:00",
        "sensores": "VIIRS_NOAA20_NRT",
        "satellites": "N20",
        "instruments": "VIIRS",
        "popup_label": "<strong>ALERT-20260929-029<\/strong><br>Nivel: seguimiento<br>Focos: 2<br>Últimas 6 h: 0<br>FRP total: 1.2 MW<br>Última detección UTC: 2026-09-29 01:34:00"
      }
    },
    {
      "type": "Feature",
      "geometry": {
        "type": "Point",
        "coordinates": [-4.2495, 43.0429]
      },
      "properties": {
        "cluster_id": "ALERT-20260929-030",
        "alerta_operativa": "seguimiento",
        "score": 4.8,
        "n_focos": 1,
        "n_ultimas_6h": 0,
        "n_ultimas_24h": 1,
        "frp_total_mw": 1.5,
        "frp_max_mw": 1.5,
        "edad_min_h": 6.8,
        "ultima_deteccion_utc": "2026-09-29 01:34:00",
        "sensores": "VIIRS_NOAA20_NRT",
        "satellites": "N20",
        "instruments": "VIIRS",
        "popup_label": "<strong>ALERT-20260929-030<\/strong><br>Nivel: seguimiento<br>Focos: 1<br>Últimas 6 h: 0<br>FRP total: 1.5 MW<br>Última detección UTC: 2026-09-29 01:34:00"
      }
    },
    {
      "type": "Feature",
      "geometry": {
        "type": "Point",
        "coordinates": [-5.9138, 35.6477]
      },
      "properties": {
        "cluster_id": "ALERT-20260929-031",
        "alerta_operativa": "seguimiento",
        "score": 3.9,
        "n_focos": 1,
        "n_ultimas_6h": 0,
        "n_ultimas_24h": 1,
        "frp_total_mw": 0.6,
        "frp_max_mw": 0.6,
        "edad_min_h": 6.8,
        "ultima_deteccion_utc": "2026-09-29 01:34:00",
        "sensores": "VIIRS_NOAA20_NRT",
        "satellites": "N20",
        "instruments": "VIIRS",
        "popup_label": "<strong>ALERT-20260929-031<\/strong><br>Nivel: seguimiento<br>Focos: 1<br>Últimas 6 h: 0<br>FRP total: 0.6 MW<br>Última detección UTC: 2026-09-29 01:34:00"
      }
    },
    {
      "type": "Feature",
      "geometry": {
        "type": "Point",
        "coordinates": [-6.4858, 38.3795]
      },
      "properties": {
        "cluster_id": "ALERT-20260929-032",
        "alerta_operativa": "seguimiento",
        "score": 3.8,
        "n_focos": 1,
        "n_ultimas_6h": 0,
        "n_ultimas_24h": 1,
        "frp_total_mw": 0.5,
        "frp_max_mw": 0.5,
        "edad_min_h": 6.8,
        "ultima_deteccion_utc": "2026-09-29 01:37:00",
        "sensores": "VIIRS_NOAA20_NRT",
        "satellites": "N20",
        "instruments": "VIIRS",
        "popup_label": "<strong>ALERT-20260929-032<\/strong><br>Nivel: seguimiento<br>Focos: 1<br>Últimas 6 h: 0<br>FRP total: 0.5 MW<br>Última detección UTC: 2026-09-29 01:37:00"
      }
    },
    {
      "type": "Feature",
      "geometry": {
        "type": "Point",
        "coordinates": [3.2415, 36.2372]
      },
      "properties": {
        "cluster_id": "ALERT-20260929-033",
        "alerta_operativa": "seguimiento",
        "score": 3.7,
        "n_focos": 1,
        "n_ultimas_6h": 0,
        "n_ultimas_24h": 1,
        "frp_total_mw": 0.4,
        "frp_max_mw": 0.4,
        "edad_min_h": 6.8,
        "ultima_deteccion_utc": "2026-09-29 01:34:00",
        "sensores": "VIIRS_NOAA20_NRT",
        "satellites": "N20",
        "instruments": "VIIRS",
        "popup_label": "<strong>ALERT-20260929-033<\/strong><br>Nivel: seguimiento<br>Focos: 1<br>Últimas 6 h: 0<br>FRP total: 0.4 MW<br>Última detección UTC: 2026-09-29 01:34:00"
      }
    },
    {
      "type": "Feature",
      "geometry": {
        "type": "Point",
        "coordinates": [4.7416, 32.1755]
      },
      "properties": {
        "cluster_id": "ALERT-20260929-034",
        "alerta_operativa": "seguimiento",
        "score": 3.5,
        "n_focos": 1,
        "n_ultimas_6h": 0,
        "n_ultimas_24h": 1,
        "frp_total_mw": 0.3,
        "frp_max_mw": 0.3,
        "edad_min_h": 6.8,
        "ultima_deteccion_utc": "2026-09-29 01:37:00",
        "sensores": "VIIRS_NOAA20_NRT",
        "satellites": "N20",
        "instruments": "VIIRS",
        "popup_label": "<strong>ALERT-20260929-034<\/strong><br>Nivel: seguimiento<br>Focos: 1<br>Últimas 6 h: 0<br>FRP total: 0.3 MW<br>Última detección UTC: 2026-09-29 01:37:00"
      }
    },
    {
      "type": "Feature",
      "geometry": {
        "type": "Point",
        "coordinates": [1.7626, 42.6983]
      },
      "properties": {
        "cluster_id": "ALERT-20260929-035",
        "alerta_operativa": "informativa",
        "score": 21.5,
        "n_focos": 15,
        "n_ultimas_6h": 0,
        "n_ultimas_24h": 0,
        "frp_total_mw": 24.2,
        "frp_max_mw": 2.1,
        "edad_min_h": 30.5,
        "ultima_deteccion_utc": "2026-09-28 01:52:00",
        "sensores": "VIIRS_NOAA20_NRT, VIIRS_SNPP_NRT",
        "satellites": "N, N20",
        "instruments": "VIIRS",
        "popup_label": "<strong>ALERT-20260929-035<\/strong><br>Nivel: informativa<br>Focos: 15<br>Últimas 6 h: 0<br>FRP total: 24.2 MW<br>Última detección UTC: 2026-09-28 01:52:00"
      }
    },
    {
      "type": "Feature",
      "geometry": {
        "type": "Point",
        "coordinates": [3.3425, 33.1334]
      },
      "properties": {
        "cluster_id": "ALERT-20260929-036",
        "alerta_operativa": "informativa",
        "score": 17.5,
        "n_focos": 12,
        "n_ultimas_6h": 0,
        "n_ultimas_24h": 0,
        "frp_total_mw": 14.4,
        "frp_max_mw": 2.4,
        "edad_min_h": 30.5,
        "ultima_deteccion_utc": "2026-09-28 01:56:00",
        "sensores": "VIIRS_NOAA20_NRT, VIIRS_SNPP_NRT",
        "satellites": "N, N20",
        "instruments": "VIIRS",
        "popup_label": "<strong>ALERT-20260929-036<\/strong><br>Nivel: informativa<br>Focos: 12<br>Últimas 6 h: 0<br>FRP total: 14.4 MW<br>Última detección UTC: 2026-09-28 01:56:00"
      }
    },
    {
      "type": "Feature",
      "geometry": {
        "type": "Point",
        "coordinates": [1.9972, 42.7086]
      },
      "properties": {
        "cluster_id": "ALERT-20260929-037",
        "alerta_operativa": "informativa",
        "score": 16.7,
        "n_focos": 10,
        "n_ultimas_6h": 0,
        "n_ultimas_24h": 0,
        "frp_total_mw": 27.6,
        "frp_max_mw": 4.2,
        "edad_min_h": 30.5,
        "ultima_deteccion_utc": "2026-09-28 01:52:00",
        "sensores": "VIIRS_NOAA20_NRT, VIIRS_SNPP_NRT",
        "satellites": "N, N20",
        "instruments": "VIIRS",
        "popup_label": "<strong>ALERT-20260929-037<\/strong><br>Nivel: informativa<br>Focos: 10<br>Últimas 6 h: 0<br>FRP total: 27.6 MW<br>Última detección UTC: 2026-09-28 01:52:00"
      }
    },
    {
      "type": "Feature",
      "geometry": {
        "type": "Point",
        "coordinates": [-4.0481, 40.1159]
      },
      "properties": {
        "cluster_id": "ALERT-20260929-038",
        "alerta_operativa": "informativa",
        "score": 8.4,
        "n_focos": 4,
        "n_ultimas_6h": 0,
        "n_ultimas_24h": 0,
        "frp_total_mw": 8.1,
        "frp_max_mw": 5,
        "edad_min_h": 30.5,
        "ultima_deteccion_utc": "2026-09-28 01:54:00",
        "sensores": "VIIRS_NOAA20_NRT, VIIRS_SNPP_NRT",
        "satellites": "N, N20",
        "instruments": "VIIRS",
        "popup_label": "<strong>ALERT-20260929-038<\/strong><br>Nivel: informativa<br>Focos: 4<br>Últimas 6 h: 0<br>FRP total: 8.1 MW<br>Última detección UTC: 2026-09-28 01:54:00"
      }
    },
    {
      "type": "Feature",
      "geometry": {
        "type": "Point",
        "coordinates": [-0.5177, 28.2013]
      },
      "properties": {
        "cluster_id": "ALERT-20260929-039",
        "alerta_operativa": "informativa",
        "score": 6.3,
        "n_focos": 3,
        "n_ultimas_6h": 0,
        "n_ultimas_24h": 0,
        "frp_total_mw": 4.3,
        "frp_max_mw": 1.8,
        "edad_min_h": 30.4,
        "ultima_deteccion_utc": "2026-09-28 01:58:00",
        "sensores": "VIIRS_NOAA20_NRT, VIIRS_SNPP_NRT",
        "satellites": "N, N20",
        "instruments": "VIIRS",
        "popup_label": "<strong>ALERT-20260929-039<\/strong><br>Nivel: informativa<br>Focos: 3<br>Últimas 6 h: 0<br>FRP total: 4.3 MW<br>Última detección UTC: 2026-09-28 01:58:00"
      }
    },
    {
      "type": "Feature",
      "geometry": {
        "type": "Point",
        "coordinates": [-0.1595, 28.2124]
      },
      "properties": {
        "cluster_id": "ALERT-20260929-040",
        "alerta_operativa": "informativa",
        "score": 5.8,
        "n_focos": 2,
        "n_ultimas_6h": 0,
        "n_ultimas_24h": 0,
        "frp_total_mw": 5.8,
        "frp_max_mw": 4.8,
        "edad_min_h": 30.4,
        "ultima_deteccion_utc": "2026-09-28 01:58:00",
        "sensores": "VIIRS_NOAA20_NRT, VIIRS_SNPP_NRT",
        "satellites": "N, N20",
        "instruments": "VIIRS",
        "popup_label": "<strong>ALERT-20260929-040<\/strong><br>Nivel: informativa<br>Focos: 2<br>Últimas 6 h: 0<br>FRP total: 5.8 MW<br>Última detección UTC: 2026-09-28 01:58:00"
      }
    },
    {
      "type": "Feature",
      "geometry": {
        "type": "Point",
        "coordinates": [1.2396, 36.1284]
      },
      "properties": {
        "cluster_id": "ALERT-20260929-041",
        "alerta_operativa": "informativa",
        "score": 5.8,
        "n_focos": 3,
        "n_ultimas_6h": 0,
        "n_ultimas_24h": 0,
        "frp_total_mw": 3.1,
        "frp_max_mw": 1.8,
        "edad_min_h": 30.5,
        "ultima_deteccion_utc": "2026-09-28 01:54:00",
        "sensores": "VIIRS_NOAA20_NRT, VIIRS_SNPP_NRT",
        "satellites": "N, N20",
        "instruments": "VIIRS",
        "popup_label": "<strong>ALERT-20260929-041<\/strong><br>Nivel: informativa<br>Focos: 3<br>Últimas 6 h: 0<br>FRP total: 3.1 MW<br>Última detección UTC: 2026-09-28 01:54:00"
      }
    },
    {
      "type": "Feature",
      "geometry": {
        "type": "Point",
        "coordinates": [-5.1584, 38.5707]
      },
      "properties": {
        "cluster_id": "ALERT-20260929-042",
        "alerta_operativa": "informativa",
        "score": 5.1,
        "n_focos": 2,
        "n_ultimas_6h": 0,
        "n_ultimas_24h": 0,
        "frp_total_mw": 3.8,
        "frp_max_mw": 2.3,
        "edad_min_h": 30.5,
        "ultima_deteccion_utc": "2026-09-28 01:54:00",
        "sensores": "VIIRS_NOAA20_NRT",
        "satellites": "N20",
        "instruments": "VIIRS",
        "popup_label": "<strong>ALERT-20260929-042<\/strong><br>Nivel: informativa<br>Focos: 2<br>Últimas 6 h: 0<br>FRP total: 3.8 MW<br>Última detección UTC: 2026-09-28 01:54:00"
      }
    },
    {
      "type": "Feature",
      "geometry": {
        "type": "Point",
        "coordinates": [1.8997, 30.9112]
      },
      "properties": {
        "cluster_id": "ALERT-20260929-043",
        "alerta_operativa": "informativa",
        "score": 3.9,
        "n_focos": 2,
        "n_ultimas_6h": 0,
        "n_ultimas_24h": 0,
        "frp_total_mw": 1.6,
        "frp_max_mw": 0.8,
        "edad_min_h": 30.5,
        "ultima_deteccion_utc": "2026-09-28 01:56:00",
        "sensores": "VIIRS_NOAA20_NRT, VIIRS_SNPP_NRT",
        "satellites": "N, N20",
        "instruments": "VIIRS",
        "popup_label": "<strong>ALERT-20260929-043<\/strong><br>Nivel: informativa<br>Focos: 2<br>Últimas 6 h: 0<br>FRP total: 1.6 MW<br>Última detección UTC: 2026-09-28 01:56:00"
      }
    },
    {
      "type": "Feature",
      "geometry": {
        "type": "Point",
        "coordinates": [4.6122, 36.0872]
      },
      "properties": {
        "cluster_id": "ALERT-20260929-044",
        "alerta_operativa": "informativa",
        "score": 3.9,
        "n_focos": 2,
        "n_ultimas_6h": 0,
        "n_ultimas_24h": 0,
        "frp_total_mw": 1.6,
        "frp_max_mw": 1,
        "edad_min_h": 30.5,
        "ultima_deteccion_utc": "2026-09-28 01:54:00",
        "sensores": "VIIRS_NOAA20_NRT, VIIRS_SNPP_NRT",
        "satellites": "N, N20",
        "instruments": "VIIRS",
        "popup_label": "<strong>ALERT-20260929-044<\/strong><br>Nivel: informativa<br>Focos: 2<br>Últimas 6 h: 0<br>FRP total: 1.6 MW<br>Última detección UTC: 2026-09-28 01:54:00"
      }
    },
    {
      "type": "Feature",
      "geometry": {
        "type": "Point",
        "coordinates": [-0.2492, 39.6638]
      },
      "properties": {
        "cluster_id": "ALERT-20260929-045",
        "alerta_operativa": "informativa",
        "score": 3.9,
        "n_focos": 2,
        "n_ultimas_6h": 0,
        "n_ultimas_24h": 0,
        "frp_total_mw": 1.6,
        "frp_max_mw": 1,
        "edad_min_h": 30.5,
        "ultima_deteccion_utc": "2026-09-28 01:54:00",
        "sensores": "VIIRS_NOAA20_NRT, VIIRS_SNPP_NRT",
        "satellites": "N, N20",
        "instruments": "VIIRS",
        "popup_label": "<strong>ALERT-20260929-045<\/strong><br>Nivel: informativa<br>Focos: 2<br>Últimas 6 h: 0<br>FRP total: 1.6 MW<br>Última detección UTC: 2026-09-28 01:54:00"
      }
    },
    {
      "type": "Feature",
      "geometry": {
        "type": "Point",
        "coordinates": [1.6617, 41.3129]
      },
      "properties": {
        "cluster_id": "ALERT-20260929-046",
        "alerta_operativa": "informativa",
        "score": 3.6,
        "n_focos": 2,
        "n_ultimas_6h": 0,
        "n_ultimas_24h": 0,
        "frp_total_mw": 1.2,
        "frp_max_mw": 0.6,
        "edad_min_h": 30.5,
        "ultima_deteccion_utc": "2026-09-28 01:54:00",
        "sensores": "VIIRS_NOAA20_NRT, VIIRS_SNPP_NRT",
        "satellites": "N, N20",
        "instruments": "VIIRS",
        "popup_label": "<strong>ALERT-20260929-046<\/strong><br>Nivel: informativa<br>Focos: 2<br>Últimas 6 h: 0<br>FRP total: 1.2 MW<br>Última detección UTC: 2026-09-28 01:54:00"
      }
    },
    {
      "type": "Feature",
      "geometry": {
        "type": "Point",
        "coordinates": [-8.0803, 41.5659]
      },
      "properties": {
        "cluster_id": "ALERT-20260929-047",
        "alerta_operativa": "informativa",
        "score": 3.4,
        "n_focos": 1,
        "n_ultimas_6h": 0,
        "n_ultimas_24h": 0,
        "frp_total_mw": 2.4,
        "frp_max_mw": 2.4,
        "edad_min_h": 30.5,
        "ultima_deteccion_utc": "2026-09-28 01:54:00",
        "sensores": "VIIRS_NOAA20_NRT",
        "satellites": "N20",
        "instruments": "VIIRS",
        "popup_label": "<strong>ALERT-20260929-047<\/strong><br>Nivel: informativa<br>Focos: 1<br>Últimas 6 h: 0<br>FRP total: 2.4 MW<br>Última detección UTC: 2026-09-28 01:54:00"
      }
    },
    {
      "type": "Feature",
      "geometry": {
        "type": "Point",
        "coordinates": [-5.7714, 38.3698]
      },
      "properties": {
        "cluster_id": "ALERT-20260929-048",
        "alerta_operativa": "informativa",
        "score": 2.5,
        "n_focos": 1,
        "n_ultimas_6h": 0,
        "n_ultimas_24h": 0,
        "frp_total_mw": 1.1,
        "frp_max_mw": 1.1,
        "edad_min_h": 30.5,
        "ultima_deteccion_utc": "2026-09-28 01:54:00",
        "sensores": "VIIRS_NOAA20_NRT",
        "satellites": "N20",
        "instruments": "VIIRS",
        "popup_label": "<strong>ALERT-20260929-048<\/strong><br>Nivel: informativa<br>Focos: 1<br>Últimas 6 h: 0<br>FRP total: 1.1 MW<br>Última detección UTC: 2026-09-28 01:54:00"
      }
    },
    {
      "type": "Feature",
      "geometry": {
        "type": "Point",
        "coordinates": [4.4488, 36.5186]
      },
      "properties": {
        "cluster_id": "ALERT-20260929-049",
        "alerta_operativa": "informativa",
        "score": 2.3,
        "n_focos": 1,
        "n_ultimas_6h": 0,
        "n_ultimas_24h": 0,
        "frp_total_mw": 0.9,
        "frp_max_mw": 0.9,
        "edad_min_h": 30.8,
        "ultima_deteccion_utc": "2026-09-28 01:34:00",
        "sensores": "VIIRS_SNPP_NRT",
        "satellites": "N",
        "instruments": "VIIRS",
        "popup_label": "<strong>ALERT-20260929-049<\/strong><br>Nivel: informativa<br>Focos: 1<br>Últimas 6 h: 0<br>FRP total: 0.9 MW<br>Última detección UTC: 2026-09-28 01:34:00"
      }
    },
    {
      "type": "Feature",
      "geometry": {
        "type": "Point",
        "coordinates": [0.5429, 40.578]
      },
      "properties": {
        "cluster_id": "ALERT-20260929-050",
        "alerta_operativa": "informativa",
        "score": 2.2,
        "n_focos": 1,
        "n_ultimas_6h": 0,
        "n_ultimas_24h": 0,
        "frp_total_mw": 0.8,
        "frp_max_mw": 0.8,
        "edad_min_h": 30.5,
        "ultima_deteccion_utc": "2026-09-28 01:54:00",
        "sensores": "VIIRS_NOAA20_NRT",
        "satellites": "N20",
        "instruments": "VIIRS",
        "popup_label": "<strong>ALERT-20260929-050<\/strong><br>Nivel: informativa<br>Focos: 1<br>Últimas 6 h: 0<br>FRP total: 0.8 MW<br>Última detección UTC: 2026-09-28 01:54:00"
      }
    },
    {
      "type": "Feature",
      "geometry": {
        "type": "Point",
        "coordinates": [1.9779, 41.4548]
      },
      "properties": {
        "cluster_id": "ALERT-20260929-051",
        "alerta_operativa": "informativa",
        "score": 1.7,
        "n_focos": 1,
        "n_ultimas_6h": 0,
        "n_ultimas_24h": 0,
        "frp_total_mw": 0.4,
        "frp_max_mw": 0.4,
        "edad_min_h": 30.5,
        "ultima_deteccion_utc": "2026-09-28 01:54:00",
        "sensores": "VIIRS_NOAA20_NRT",
        "satellites": "N20",
        "instruments": "VIIRS",
        "popup_label": "<strong>ALERT-20260929-051<\/strong><br>Nivel: informativa<br>Focos: 1<br>Últimas 6 h: 0<br>FRP total: 0.4 MW<br>Última detección UTC: 2026-09-28 01:54:00"
      }
    }
  ]
}
