{
  "type": "FeatureCollection",
  "features": [
    {
      "type": "Feature",
      "geometry": {
        "type": "Point",
        "coordinates": [0.4563, 42.9007]
      },
      "properties": {
        "cluster_id": "ALERT-20260908-001",
        "alerta_operativa": "alta",
        "score": 151.1,
        "n_focos": 35,
        "n_ultimas_6h": 10,
        "n_ultimas_24h": 28,
        "frp_total_mw": 153.9,
        "frp_max_mw": 11.3,
        "edad_min_h": 4.5,
        "ultima_deteccion_utc": "2026-09-08 02:47:00",
        "sensores": "VIIRS_NOAA20_NRT, VIIRS_SNPP_NRT",
        "satellites": "N, N20",
        "instruments": "VIIRS",
        "popup_label": "<strong>ALERT-20260908-001<\/strong><br>Nivel: alta<br>Focos: 35<br>Últimas 6 h: 10<br>FRP total: 153.9 MW<br>Última detección UTC: 2026-09-08 02:47:00"
      }
    },
    {
      "type": "Feature",
      "geometry": {
        "type": "Point",
        "coordinates": [3.2234, 32.9052]
      },
      "properties": {
        "cluster_id": "ALERT-20260908-002",
        "alerta_operativa": "alta",
        "score": 117.1,
        "n_focos": 33,
        "n_ultimas_6h": 8,
        "n_ultimas_24h": 18,
        "frp_total_mw": 55.2,
        "frp_max_mw": 3.3,
        "edad_min_h": 4.5,
        "ultima_deteccion_utc": "2026-09-08 02:49:00",
        "sensores": "VIIRS_NOAA20_NRT, VIIRS_SNPP_NRT",
        "satellites": "N, N20",
        "instruments": "VIIRS",
        "popup_label": "<strong>ALERT-20260908-002<\/strong><br>Nivel: alta<br>Focos: 33<br>Últimas 6 h: 8<br>FRP total: 55.2 MW<br>Última detección UTC: 2026-09-08 02:49:00"
      }
    },
    {
      "type": "Feature",
      "geometry": {
        "type": "Point",
        "coordinates": [-0.2605, 35.8004]
      },
      "properties": {
        "cluster_id": "ALERT-20260908-003",
        "alerta_operativa": "alta",
        "score": 105.5,
        "n_focos": 23,
        "n_ultimas_6h": 9,
        "n_ultimas_24h": 15,
        "frp_total_mw": 42.1,
        "frp_max_mw": 3.5,
        "edad_min_h": 4.5,
        "ultima_deteccion_utc": "2026-09-08 02:49:00",
        "sensores": "VIIRS_NOAA20_NRT, VIIRS_SNPP_NRT",
        "satellites": "N, N20",
        "instruments": "VIIRS",
        "popup_label": "<strong>ALERT-20260908-003<\/strong><br>Nivel: alta<br>Focos: 23<br>Últimas 6 h: 9<br>FRP total: 42.1 MW<br>Última detección UTC: 2026-09-08 02:49:00"
      }
    },
    {
      "type": "Feature",
      "geometry": {
        "type": "Point",
        "coordinates": [3.3341, 33.1312]
      },
      "properties": {
        "cluster_id": "ALERT-20260908-004",
        "alerta_operativa": "alta",
        "score": 73,
        "n_focos": 21,
        "n_ultimas_6h": 5,
        "n_ultimas_24h": 10,
        "frp_total_mw": 31.5,
        "frp_max_mw": 3,
        "edad_min_h": 4.5,
        "ultima_deteccion_utc": "2026-09-08 02:49:00",
        "sensores": "VIIRS_NOAA20_NRT, VIIRS_SNPP_NRT",
        "satellites": "N, N20",
        "instruments": "VIIRS",
        "popup_label": "<strong>ALERT-20260908-004<\/strong><br>Nivel: alta<br>Focos: 21<br>Últimas 6 h: 5<br>FRP total: 31.5 MW<br>Última detección UTC: 2026-09-08 02:49:00"
      }
    },
    {
      "type": "Feature",
      "geometry": {
        "type": "Point",
        "coordinates": [-5.3369, 43.1372]
      },
      "properties": {
        "cluster_id": "ALERT-20260908-005",
        "alerta_operativa": "alta",
        "score": 59.2,
        "n_focos": 21,
        "n_ultimas_6h": 1,
        "n_ultimas_24h": 11,
        "frp_total_mw": 270.3,
        "frp_max_mw": 46,
        "edad_min_h": 4.5,
        "ultima_deteccion_utc": "2026-09-08 02:47:00",
        "sensores": "VIIRS_NOAA20_NRT, VIIRS_SNPP_NRT",
        "satellites": "N, N20",
        "instruments": "VIIRS",
        "popup_label": "<strong>ALERT-20260908-005<\/strong><br>Nivel: alta<br>Focos: 21<br>Últimas 6 h: 1<br>FRP total: 270.3 MW<br>Última detección UTC: 2026-09-08 02:47:00"
      }
    },
    {
      "type": "Feature",
      "geometry": {
        "type": "Point",
        "coordinates": [-0.518, 28.1999]
      },
      "properties": {
        "cluster_id": "ALERT-20260908-006",
        "alerta_operativa": "alta",
        "score": 41.2,
        "n_focos": 8,
        "n_ultimas_6h": 3,
        "n_ultimas_24h": 6,
        "frp_total_mw": 20.9,
        "frp_max_mw": 4.6,
        "edad_min_h": 4.4,
        "ultima_deteccion_utc": "2026-09-08 02:51:00",
        "sensores": "VIIRS_NOAA20_NRT, VIIRS_SNPP_NRT",
        "satellites": "N, N20",
        "instruments": "VIIRS",
        "popup_label": "<strong>ALERT-20260908-006<\/strong><br>Nivel: alta<br>Focos: 8<br>Últimas 6 h: 3<br>FRP total: 20.9 MW<br>Última detección UTC: 2026-09-08 02:51:00"
      }
    },
    {
      "type": "Feature",
      "geometry": {
        "type": "Point",
        "coordinates": [3.1679, 32.555]
      },
      "properties": {
        "cluster_id": "ALERT-20260908-007",
        "alerta_operativa": "alta",
        "score": 37,
        "n_focos": 9,
        "n_ultimas_6h": 2,
        "n_ultimas_24h": 6,
        "frp_total_mw": 18.6,
        "frp_max_mw": 4.8,
        "edad_min_h": 4.5,
        "ultima_deteccion_utc": "2026-09-08 02:49:00",
        "sensores": "VIIRS_NOAA20_NRT, VIIRS_SNPP_NRT",
        "satellites": "N, N20",
        "instruments": "VIIRS",
        "popup_label": "<strong>ALERT-20260908-007<\/strong><br>Nivel: alta<br>Focos: 9<br>Últimas 6 h: 2<br>FRP total: 18.6 MW<br>Última detección UTC: 2026-09-08 02:49:00"
      }
    },
    {
      "type": "Feature",
      "geometry": {
        "type": "Point",
        "coordinates": [4.4476, 35.8796]
      },
      "properties": {
        "cluster_id": "ALERT-20260908-008",
        "alerta_operativa": "alta",
        "score": 30.4,
        "n_focos": 7,
        "n_ultimas_6h": 2,
        "n_ultimas_24h": 4,
        "frp_total_mw": 13.8,
        "frp_max_mw": 4.9,
        "edad_min_h": 4.5,
        "ultima_deteccion_utc": "2026-09-08 02:49:00",
        "sensores": "VIIRS_NOAA20_NRT, VIIRS_SNPP_NRT",
        "satellites": "N, N20",
        "instruments": "VIIRS",
        "popup_label": "<strong>ALERT-20260908-008<\/strong><br>Nivel: alta<br>Focos: 7<br>Últimas 6 h: 2<br>FRP total: 13.8 MW<br>Última detección UTC: 2026-09-08 02:49:00"
      }
    },
    {
      "type": "Feature",
      "geometry": {
        "type": "Point",
        "coordinates": [-2.5279, 42.9697]
      },
      "properties": {
        "cluster_id": "ALERT-20260908-009",
        "alerta_operativa": "alta",
        "score": 26.4,
        "n_focos": 4,
        "n_ultimas_6h": 2,
        "n_ultimas_24h": 4,
        "frp_total_mw": 8.1,
        "frp_max_mw": 3.2,
        "edad_min_h": 4.5,
        "ultima_deteccion_utc": "2026-09-08 02:47:00",
        "sensores": "VIIRS_SNPP_NRT",
        "satellites": "N",
        "instruments": "VIIRS",
        "popup_label": "<strong>ALERT-20260908-009<\/strong><br>Nivel: alta<br>Focos: 4<br>Últimas 6 h: 2<br>FRP total: 8.1 MW<br>Última detección UTC: 2026-09-08 02:47:00"
      }
    },
    {
      "type": "Feature",
      "geometry": {
        "type": "Point",
        "coordinates": [-6.7095, 37.2896]
      },
      "properties": {
        "cluster_id": "ALERT-20260908-010",
        "alerta_operativa": "alta",
        "score": 25.1,
        "n_focos": 2,
        "n_ultimas_6h": 2,
        "n_ultimas_24h": 2,
        "frp_total_mw": 93,
        "frp_max_mw": 46.5,
        "edad_min_h": 4.5,
        "ultima_deteccion_utc": "2026-09-08 02:49:00",
        "sensores": "VIIRS_SNPP_NRT",
        "satellites": "N",
        "instruments": "VIIRS",
        "popup_label": "<strong>ALERT-20260908-010<\/strong><br>Nivel: alta<br>Focos: 2<br>Últimas 6 h: 2<br>FRP total: 93 MW<br>Última detección UTC: 2026-09-08 02:49:00"
      }
    },
    {
      "type": "Feature",
      "geometry": {
        "type": "Point",
        "coordinates": [-3.7821, 39.0438]
      },
      "properties": {
        "cluster_id": "ALERT-20260908-011",
        "alerta_operativa": "alta",
        "score": 18.1,
        "n_focos": 2,
        "n_ultimas_6h": 2,
        "n_ultimas_24h": 2,
        "frp_total_mw": 1.9,
        "frp_max_mw": 1.1,
        "edad_min_h": 4.5,
        "ultima_deteccion_utc": "2026-09-08 02:49:00",
        "sensores": "VIIRS_SNPP_NRT",
        "satellites": "N",
        "instruments": "VIIRS",
        "popup_label": "<strong>ALERT-20260908-011<\/strong><br>Nivel: alta<br>Focos: 2<br>Últimas 6 h: 2<br>FRP total: 1.9 MW<br>Última detección UTC: 2026-09-08 02:49:00"
      }
    },
    {
      "type": "Feature",
      "geometry": {
        "type": "Point",
        "coordinates": [4.8929, 43.4425]
      },
      "properties": {
        "cluster_id": "ALERT-20260908-012",
        "alerta_operativa": "media",
        "score": 47.9,
        "n_focos": 23,
        "n_ultimas_6h": 1,
        "n_ultimas_24h": 6,
        "frp_total_mw": 50,
        "frp_max_mw": 8.1,
        "edad_min_h": 4.5,
        "ultima_deteccion_utc": "2026-09-08 02:47:00",
        "sensores": "VIIRS_NOAA20_NRT, VIIRS_SNPP_NRT",
        "satellites": "N, N20",
        "instruments": "VIIRS",
        "popup_label": "<strong>ALERT-20260908-012<\/strong><br>Nivel: media<br>Focos: 23<br>Últimas 6 h: 1<br>FRP total: 50 MW<br>Última detección UTC: 2026-09-08 02:47:00"
      }
    },
    {
      "type": "Feature",
      "geometry": {
        "type": "Point",
        "coordinates": [3.097, 36.6698]
      },
      "properties": {
        "cluster_id": "ALERT-20260908-013",
        "alerta_operativa": "media",
        "score": 28.4,
        "n_focos": 11,
        "n_ultimas_6h": 0,
        "n_ultimas_24h": 6,
        "frp_total_mw": 13.6,
        "frp_max_mw": 3,
        "edad_min_h": 6.1,
        "ultima_deteccion_utc": "2026-09-08 01:09:00",
        "sensores": "VIIRS_NOAA20_NRT, VIIRS_SNPP_NRT",
        "satellites": "N, N20",
        "instruments": "VIIRS",
        "popup_label": "<strong>ALERT-20260908-013<\/strong><br>Nivel: media<br>Focos: 11<br>Últimas 6 h: 0<br>FRP total: 13.6 MW<br>Última detección UTC: 2026-09-08 01:09:00"
      }
    },
    {
      "type": "Feature",
      "geometry": {
        "type": "Point",
        "coordinates": [-3.4787, 41.2542]
      },
      "properties": {
        "cluster_id": "ALERT-20260908-014",
        "alerta_operativa": "media",
        "score": 24,
        "n_focos": 5,
        "n_ultimas_6h": 0,
        "n_ultimas_24h": 5,
        "frp_total_mw": 89.7,
        "frp_max_mw": 25.4,
        "edad_min_h": 16.8,
        "ultima_deteccion_utc": "2026-09-07 14:31:00",
        "sensores": "VIIRS_NOAA20_NRT, VIIRS_SNPP_NRT",
        "satellites": "N, N20",
        "instruments": "VIIRS",
        "popup_label": "<strong>ALERT-20260908-014<\/strong><br>Nivel: media<br>Focos: 5<br>Últimas 6 h: 0<br>FRP total: 89.7 MW<br>Última detección UTC: 2026-09-07 14:31:00"
      }
    },
    {
      "type": "Feature",
      "geometry": {
        "type": "Point",
        "coordinates": [-0.3956, 35.4585]
      },
      "properties": {
        "cluster_id": "ALERT-20260908-015",
        "alerta_operativa": "media",
        "score": 23.9,
        "n_focos": 7,
        "n_ultimas_6h": 1,
        "n_ultimas_24h": 4,
        "frp_total_mw": 6,
        "frp_max_mw": 1.2,
        "edad_min_h": 4.5,
        "ultima_deteccion_utc": "2026-09-08 02:49:00",
        "sensores": "VIIRS_NOAA20_NRT, VIIRS_SNPP_NRT",
        "satellites": "N, N20",
        "instruments": "VIIRS",
        "popup_label": "<strong>ALERT-20260908-015<\/strong><br>Nivel: media<br>Focos: 7<br>Últimas 6 h: 1<br>FRP total: 6 MW<br>Última detección UTC: 2026-09-08 02:49:00"
      }
    },
    {
      "type": "Feature",
      "geometry": {
        "type": "Point",
        "coordinates": [3.9875, 32.2765]
      },
      "properties": {
        "cluster_id": "ALERT-20260908-016",
        "alerta_operativa": "media",
        "score": 21.6,
        "n_focos": 6,
        "n_ultimas_6h": 0,
        "n_ultimas_24h": 4,
        "frp_total_mw": 44.4,
        "frp_max_mw": 13,
        "edad_min_h": 6.1,
        "ultima_deteccion_utc": "2026-09-08 01:09:00",
        "sensores": "VIIRS_NOAA20_NRT, VIIRS_SNPP_NRT",
        "satellites": "N, N20",
        "instruments": "VIIRS",
        "popup_label": "<strong>ALERT-20260908-016<\/strong><br>Nivel: media<br>Focos: 6<br>Últimas 6 h: 0<br>FRP total: 44.4 MW<br>Última detección UTC: 2026-09-08 01:09:00"
      }
    },
    {
      "type": "Feature",
      "geometry": {
        "type": "Point",
        "coordinates": [0.6245, 41.5178]
      },
      "properties": {
        "cluster_id": "ALERT-20260908-017",
        "alerta_operativa": "media",
        "score": 21.4,
        "n_focos": 11,
        "n_ultimas_6h": 0,
        "n_ultimas_24h": 1,
        "frp_total_mw": 65.1,
        "frp_max_mw": 13,
        "edad_min_h": 18.4,
        "ultima_deteccion_utc": "2026-09-07 12:51:00",
        "sensores": "VIIRS_NOAA20_NRT, VIIRS_SNPP_NRT",
        "satellites": "N, N20",
        "instruments": "VIIRS",
        "popup_label": "<strong>ALERT-20260908-017<\/strong><br>Nivel: media<br>Focos: 11<br>Últimas 6 h: 0<br>FRP total: 65.1 MW<br>Última detección UTC: 2026-09-07 12:51:00"
      }
    },
    {
      "type": "Feature",
      "geometry": {
        "type": "Point",
        "coordinates": [3.7489, 36.18]
      },
      "properties": {
        "cluster_id": "ALERT-20260908-018",
        "alerta_operativa": "media",
        "score": 20.9,
        "n_focos": 5,
        "n_ultimas_6h": 1,
        "n_ultimas_24h": 3,
        "frp_total_mw": 10.5,
        "frp_max_mw": 3.1,
        "edad_min_h": 4.5,
        "ultima_deteccion_utc": "2026-09-08 02:49:00",
        "sensores": "VIIRS_NOAA20_NRT, VIIRS_SNPP_NRT",
        "satellites": "N, N20",
        "instruments": "VIIRS",
        "popup_label": "<strong>ALERT-20260908-018<\/strong><br>Nivel: media<br>Focos: 5<br>Últimas 6 h: 1<br>FRP total: 10.5 MW<br>Última detección UTC: 2026-09-08 02:49:00"
      }
    },
    {
      "type": "Feature",
      "geometry": {
        "type": "Point",
        "coordinates": [1.2418, 36.1261]
      },
      "properties": {
        "cluster_id": "ALERT-20260908-019",
        "alerta_operativa": "media",
        "score": 20.3,
        "n_focos": 5,
        "n_ultimas_6h": 1,
        "n_ultimas_24h": 3,
        "frp_total_mw": 7.6,
        "frp_max_mw": 2,
        "edad_min_h": 4.5,
        "ultima_deteccion_utc": "2026-09-08 02:49:00",
        "sensores": "VIIRS_NOAA20_NRT, VIIRS_SNPP_NRT",
        "satellites": "N, N20",
        "instruments": "VIIRS",
        "popup_label": "<strong>ALERT-20260908-019<\/strong><br>Nivel: media<br>Focos: 5<br>Últimas 6 h: 1<br>FRP total: 7.6 MW<br>Última detección UTC: 2026-09-08 02:49:00"
      }
    },
    {
      "type": "Feature",
      "geometry": {
        "type": "Point",
        "coordinates": [-6.4902, 42.0456]
      },
      "properties": {
        "cluster_id": "ALERT-20260908-020",
        "alerta_operativa": "media",
        "score": 19.7,
        "n_focos": 4,
        "n_ultimas_6h": 0,
        "n_ultimas_24h": 4,
        "frp_total_mw": 47.1,
        "frp_max_mw": 23.9,
        "edad_min_h": 18.1,
        "ultima_deteccion_utc": "2026-09-07 13:10:00",
        "sensores": "VIIRS_NOAA20_NRT, VIIRS_SNPP_NRT",
        "satellites": "N, N20",
        "instruments": "VIIRS",
        "popup_label": "<strong>ALERT-20260908-020<\/strong><br>Nivel: media<br>Focos: 4<br>Últimas 6 h: 0<br>FRP total: 47.1 MW<br>Última detección UTC: 2026-09-07 13:10:00"
      }
    },
    {
      "type": "Feature",
      "geometry": {
        "type": "Point",
        "coordinates": [-3.9719, 40.1036]
      },
      "properties": {
        "cluster_id": "ALERT-20260908-021",
        "alerta_operativa": "media",
        "score": 19,
        "n_focos": 4,
        "n_ultimas_6h": 0,
        "n_ultimas_24h": 4,
        "frp_total_mw": 32.1,
        "frp_max_mw": 9.1,
        "edad_min_h": 18.4,
        "ultima_deteccion_utc": "2026-09-07 12:51:00",
        "sensores": "VIIRS_SNPP_NRT",
        "satellites": "N",
        "instruments": "VIIRS",
        "popup_label": "<strong>ALERT-20260908-021<\/strong><br>Nivel: media<br>Focos: 4<br>Últimas 6 h: 0<br>FRP total: 32.1 MW<br>Última detección UTC: 2026-09-07 12:51:00"
      }
    },
    {
      "type": "Feature",
      "geometry": {
        "type": "Point",
        "coordinates": [-2.8472, 39.3479]
      },
      "properties": {
        "cluster_id": "ALERT-20260908-022",
        "alerta_operativa": "media",
        "score": 17.9,
        "n_focos": 3,
        "n_ultimas_6h": 0,
        "n_ultimas_24h": 3,
        "frp_total_mw": 82.6,
        "frp_max_mw": 47,
        "edad_min_h": 18.1,
        "ultima_deteccion_utc": "2026-09-07 13:10:00",
        "sensores": "VIIRS_NOAA20_NRT, VIIRS_SNPP_NRT",
        "satellites": "N, N20",
        "instruments": "VIIRS",
        "popup_label": "<strong>ALERT-20260908-022<\/strong><br>Nivel: media<br>Focos: 3<br>Últimas 6 h: 0<br>FRP total: 82.6 MW<br>Última detección UTC: 2026-09-07 13:10:00"
      }
    },
    {
      "type": "Feature",
      "geometry": {
        "type": "Point",
        "coordinates": [1.1824, 41.1691]
      },
      "properties": {
        "cluster_id": "ALERT-20260908-023",
        "alerta_operativa": "media",
        "score": 17.9,
        "n_focos": 4,
        "n_ultimas_6h": 0,
        "n_ultimas_24h": 4,
        "frp_total_mw": 17.7,
        "frp_max_mw": 8,
        "edad_min_h": 18.4,
        "ultima_deteccion_utc": "2026-09-07 12:51:00",
        "sensores": "VIIRS_SNPP_NRT",
        "satellites": "N",
        "instruments": "VIIRS",
        "popup_label": "<strong>ALERT-20260908-023<\/strong><br>Nivel: media<br>Focos: 4<br>Últimas 6 h: 0<br>FRP total: 17.7 MW<br>Última detección UTC: 2026-09-07 12:51:00"
      }
    },
    {
      "type": "Feature",
      "geometry": {
        "type": "Point",
        "coordinates": [-1.9054, 36.9663]
      },
      "properties": {
        "cluster_id": "ALERT-20260908-024",
        "alerta_operativa": "media",
        "score": 16.7,
        "n_focos": 5,
        "n_ultimas_6h": 1,
        "n_ultimas_24h": 1,
        "frp_total_mw": 9.3,
        "frp_max_mw": 2.1,
        "edad_min_h": 4.5,
        "ultima_deteccion_utc": "2026-09-08 02:49:00",
        "sensores": "VIIRS_NOAA20_NRT, VIIRS_SNPP_NRT",
        "satellites": "N, N20",
        "instruments": "VIIRS",
        "popup_label": "<strong>ALERT-20260908-024<\/strong><br>Nivel: media<br>Focos: 5<br>Últimas 6 h: 1<br>FRP total: 9.3 MW<br>Última detección UTC: 2026-09-08 02:49:00"
      }
    },
    {
      "type": "Feature",
      "geometry": {
        "type": "Point",
        "coordinates": [-4.5756, 34.3156]
      },
      "properties": {
        "cluster_id": "ALERT-20260908-025",
        "alerta_operativa": "media",
        "score": 14.5,
        "n_focos": 3,
        "n_ultimas_6h": 0,
        "n_ultimas_24h": 3,
        "frp_total_mw": 14.8,
        "frp_max_mw": 5.9,
        "edad_min_h": 18.5,
        "ultima_deteccion_utc": "2026-09-07 12:49:00",
        "sensores": "VIIRS_SNPP_NRT",
        "satellites": "N",
        "instruments": "VIIRS",
        "popup_label": "<strong>ALERT-20260908-025<\/strong><br>Nivel: media<br>Focos: 3<br>Últimas 6 h: 0<br>FRP total: 14.8 MW<br>Última detección UTC: 2026-09-07 12:49:00"
      }
    },
    {
      "type": "Feature",
      "geometry": {
        "type": "Point",
        "coordinates": [-5.9334, 36.7809]
      },
      "properties": {
        "cluster_id": "ALERT-20260908-026",
        "alerta_operativa": "media",
        "score": 14.5,
        "n_focos": 3,
        "n_ultimas_6h": 0,
        "n_ultimas_24h": 3,
        "frp_total_mw": 14.3,
        "frp_max_mw": 6.3,
        "edad_min_h": 18.1,
        "ultima_deteccion_utc": "2026-09-07 13:08:00",
        "sensores": "VIIRS_NOAA20_NRT, VIIRS_SNPP_NRT",
        "satellites": "N, N20",
        "instruments": "VIIRS",
        "popup_label": "<strong>ALERT-20260908-026<\/strong><br>Nivel: media<br>Focos: 3<br>Últimas 6 h: 0<br>FRP total: 14.3 MW<br>Última detección UTC: 2026-09-07 13:08:00"
      }
    },
    {
      "type": "Feature",
      "geometry": {
        "type": "Point",
        "coordinates": [-3.3802, 38.7496]
      },
      "properties": {
        "cluster_id": "ALERT-20260908-027",
        "alerta_operativa": "media",
        "score": 14.4,
        "n_focos": 3,
        "n_ultimas_6h": 0,
        "n_ultimas_24h": 3,
        "frp_total_mw": 13.7,
        "frp_max_mw": 7,
        "edad_min_h": 6.1,
        "ultima_deteccion_utc": "2026-09-08 01:09:00",
        "sensores": "VIIRS_SNPP_NRT",
        "satellites": "N",
        "instruments": "VIIRS",
        "popup_label": "<strong>ALERT-20260908-027<\/strong><br>Nivel: media<br>Focos: 3<br>Últimas 6 h: 0<br>FRP total: 13.7 MW<br>Última detección UTC: 2026-09-08 01:09:00"
      }
    },
    {
      "type": "Feature",
      "geometry": {
        "type": "Point",
        "coordinates": [-4.9806, 37.4752]
      },
      "properties": {
        "cluster_id": "ALERT-20260908-028",
        "alerta_operativa": "media",
        "score": 14.2,
        "n_focos": 3,
        "n_ultimas_6h": 0,
        "n_ultimas_24h": 3,
        "frp_total_mw": 12.8,
        "frp_max_mw": 4.4,
        "edad_min_h": 16.8,
        "ultima_deteccion_utc": "2026-09-07 14:29:00",
        "sensores": "VIIRS_SNPP_NRT",
        "satellites": "N",
        "instruments": "VIIRS",
        "popup_label": "<strong>ALERT-20260908-028<\/strong><br>Nivel: media<br>Focos: 3<br>Últimas 6 h: 0<br>FRP total: 12.8 MW<br>Última detección UTC: 2026-09-07 14:29:00"
      }
    },
    {
      "type": "Feature",
      "geometry": {
        "type": "Point",
        "coordinates": [-5.7608, 43.5295]
      },
      "properties": {
        "cluster_id": "ALERT-20260908-029",
        "alerta_operativa": "media",
        "score": 13.9,
        "n_focos": 3,
        "n_ultimas_6h": 0,
        "n_ultimas_24h": 3,
        "frp_total_mw": 10.6,
        "frp_max_mw": 3.7,
        "edad_min_h": 18.1,
        "ultima_deteccion_utc": "2026-09-07 13:10:00",
        "sensores": "VIIRS_NOAA20_NRT",
        "satellites": "N20",
        "instruments": "VIIRS",
        "popup_label": "<strong>ALERT-20260908-029<\/strong><br>Nivel: media<br>Focos: 3<br>Últimas 6 h: 0<br>FRP total: 10.6 MW<br>Última detección UTC: 2026-09-07 13:10:00"
      }
    },
    {
      "type": "Feature",
      "geometry": {
        "type": "Point",
        "coordinates": [-6.5403, 38.8837]
      },
      "properties": {
        "cluster_id": "ALERT-20260908-030",
        "alerta_operativa": "media",
        "score": 13.5,
        "n_focos": 3,
        "n_ultimas_6h": 0,
        "n_ultimas_24h": 3,
        "frp_total_mw": 8.6,
        "frp_max_mw": 3.2,
        "edad_min_h": 18.1,
        "ultima_deteccion_utc": "2026-09-07 13:10:00",
        "sensores": "VIIRS_NOAA20_NRT, VIIRS_SNPP_NRT",
        "satellites": "N, N20",
        "instruments": "VIIRS",
        "popup_label": "<strong>ALERT-20260908-030<\/strong><br>Nivel: media<br>Focos: 3<br>Últimas 6 h: 0<br>FRP total: 8.6 MW<br>Última detección UTC: 2026-09-07 13:10:00"
      }
    },
    {
      "type": "Feature",
      "geometry": {
        "type": "Point",
        "coordinates": [2.963, 30.4472]
      },
      "properties": {
        "cluster_id": "ALERT-20260908-031",
        "alerta_operativa": "media",
        "score": 13.3,
        "n_focos": 2,
        "n_ultimas_6h": 1,
        "n_ultimas_24h": 2,
        "frp_total_mw": 2.1,
        "frp_max_mw": 1.6,
        "edad_min_h": 4.4,
        "ultima_deteccion_utc": "2026-09-08 02:51:00",
        "sensores": "VIIRS_SNPP_NRT",
        "satellites": "N",
        "instruments": "VIIRS",
        "popup_label": "<strong>ALERT-20260908-031<\/strong><br>Nivel: media<br>Focos: 2<br>Últimas 6 h: 1<br>FRP total: 2.1 MW<br>Última detección UTC: 2026-09-08 02:51:00"
      }
    },
    {
      "type": "Feature",
      "geometry": {
        "type": "Point",
        "coordinates": [2.0819, 43.251]
      },
      "properties": {
        "cluster_id": "ALERT-20260908-032",
        "alerta_operativa": "media",
        "score": 12.7,
        "n_focos": 2,
        "n_ultimas_6h": 0,
        "n_ultimas_24h": 2,
        "frp_total_mw": 27.9,
        "frp_max_mw": 17.9,
        "edad_min_h": 18.4,
        "ultima_deteccion_utc": "2026-09-07 12:51:00",
        "sensores": "VIIRS_SNPP_NRT",
        "satellites": "N",
        "instruments": "VIIRS",
        "popup_label": "<strong>ALERT-20260908-032<\/strong><br>Nivel: media<br>Focos: 2<br>Últimas 6 h: 0<br>FRP total: 27.9 MW<br>Última detección UTC: 2026-09-07 12:51:00"
      }
    },
    {
      "type": "Feature",
      "geometry": {
        "type": "Point",
        "coordinates": [-0.2775, 35.5294]
      },
      "properties": {
        "cluster_id": "ALERT-20260908-033",
        "alerta_operativa": "media",
        "score": 12.4,
        "n_focos": 3,
        "n_ultimas_6h": 1,
        "n_ultimas_24h": 1,
        "frp_total_mw": 2.3,
        "frp_max_mw": 1.2,
        "edad_min_h": 4.5,
        "ultima_deteccion_utc": "2026-09-08 02:49:00",
        "sensores": "VIIRS_NOAA20_NRT, VIIRS_SNPP_NRT",
        "satellites": "N, N20",
        "instruments": "VIIRS",
        "popup_label": "<strong>ALERT-20260908-033<\/strong><br>Nivel: media<br>Focos: 3<br>Últimas 6 h: 1<br>FRP total: 2.3 MW<br>Última detección UTC: 2026-09-08 02:49:00"
      }
    },
    {
      "type": "Feature",
      "geometry": {
        "type": "Point",
        "coordinates": [2.8779, 36.597]
      },
      "properties": {
        "cluster_id": "ALERT-20260908-034",
        "alerta_operativa": "media",
        "score": 12.2,
        "n_focos": 4,
        "n_ultimas_6h": 0,
        "n_ultimas_24h": 2,
        "frp_total_mw": 7.3,
        "frp_max_mw": 3.4,
        "edad_min_h": 6.1,
        "ultima_deteccion_utc": "2026-09-08 01:09:00",
        "sensores": "VIIRS_NOAA20_NRT, VIIRS_SNPP_NRT",
        "satellites": "N, N20",
        "instruments": "VIIRS",
        "popup_label": "<strong>ALERT-20260908-034<\/strong><br>Nivel: media<br>Focos: 4<br>Últimas 6 h: 0<br>FRP total: 7.3 MW<br>Última detección UTC: 2026-09-08 01:09:00"
      }
    },
    {
      "type": "Feature",
      "geometry": {
        "type": "Point",
        "coordinates": [-3.6658, 37.0911]
      },
      "properties": {
        "cluster_id": "ALERT-20260908-035",
        "alerta_operativa": "media",
        "score": 11.8,
        "n_focos": 2,
        "n_ultimas_6h": 0,
        "n_ultimas_24h": 2,
        "frp_total_mw": 17.4,
        "frp_max_mw": 12,
        "edad_min_h": 16.8,
        "ultima_deteccion_utc": "2026-09-07 14:29:00",
        "sensores": "VIIRS_SNPP_NRT",
        "satellites": "N",
        "instruments": "VIIRS",
        "popup_label": "<strong>ALERT-20260908-035<\/strong><br>Nivel: media<br>Focos: 2<br>Últimas 6 h: 0<br>FRP total: 17.4 MW<br>Última detección UTC: 2026-09-07 14:29:00"
      }
    },
    {
      "type": "Feature",
      "geometry": {
        "type": "Point",
        "coordinates": [-8.9219, 39.0479]
      },
      "properties": {
        "cluster_id": "ALERT-20260908-036",
        "alerta_operativa": "media",
        "score": 11.7,
        "n_focos": 2,
        "n_ultimas_6h": 0,
        "n_ultimas_24h": 2,
        "frp_total_mw": 16.6,
        "frp_max_mw": 9.6,
        "edad_min_h": 16.8,
        "ultima_deteccion_utc": "2026-09-07 14:29:00",
        "sensores": "VIIRS_SNPP_NRT",
        "satellites": "N",
        "instruments": "VIIRS",
        "popup_label": "<strong>ALERT-20260908-036<\/strong><br>Nivel: media<br>Focos: 2<br>Últimas 6 h: 0<br>FRP total: 16.6 MW<br>Última detección UTC: 2026-09-07 14:29:00"
      }
    },
    {
      "type": "Feature",
      "geometry": {
        "type": "Point",
        "coordinates": [-6.2749, 34.9045]
      },
      "properties": {
        "cluster_id": "ALERT-20260908-037",
        "alerta_operativa": "media",
        "score": 11.6,
        "n_focos": 2,
        "n_ultimas_6h": 0,
        "n_ultimas_24h": 2,
        "frp_total_mw": 15.3,
        "frp_max_mw": 9.7,
        "edad_min_h": 18.1,
        "ultima_deteccion_utc": "2026-09-07 13:08:00",
        "sensores": "VIIRS_NOAA20_NRT, VIIRS_SNPP_NRT",
        "satellites": "N, N20",
        "instruments": "VIIRS",
        "popup_label": "<strong>ALERT-20260908-037<\/strong><br>Nivel: media<br>Focos: 2<br>Últimas 6 h: 0<br>FRP total: 15.3 MW<br>Última detección UTC: 2026-09-07 13:08:00"
      }
    },
    {
      "type": "Feature",
      "geometry": {
        "type": "Point",
        "coordinates": [-9.0109, 38.9215]
      },
      "properties": {
        "cluster_id": "ALERT-20260908-038",
        "alerta_operativa": "media",
        "score": 11.5,
        "n_focos": 2,
        "n_ultimas_6h": 1,
        "n_ultimas_24h": 1,
        "frp_total_mw": 2.5,
        "frp_max_mw": 1.3,
        "edad_min_h": 4.5,
        "ultima_deteccion_utc": "2026-09-08 02:49:00",
        "sensores": "VIIRS_NOAA20_NRT, VIIRS_SNPP_NRT",
        "satellites": "N, N20",
        "instruments": "VIIRS",
        "popup_label": "<strong>ALERT-20260908-038<\/strong><br>Nivel: media<br>Focos: 2<br>Últimas 6 h: 1<br>FRP total: 2.5 MW<br>Última detección UTC: 2026-09-08 02:49:00"
      }
    },
    {
      "type": "Feature",
      "geometry": {
        "type": "Point",
        "coordinates": [-5.2232, 37.461]
      },
      "properties": {
        "cluster_id": "ALERT-20260908-039",
        "alerta_operativa": "media",
        "score": 11,
        "n_focos": 2,
        "n_ultimas_6h": 0,
        "n_ultimas_24h": 2,
        "frp_total_mw": 11.2,
        "frp_max_mw": 7,
        "edad_min_h": 18.1,
        "ultima_deteccion_utc": "2026-09-07 13:08:00",
        "sensores": "VIIRS_NOAA20_NRT, VIIRS_SNPP_NRT",
        "satellites": "N, N20",
        "instruments": "VIIRS",
        "popup_label": "<strong>ALERT-20260908-039<\/strong><br>Nivel: media<br>Focos: 2<br>Últimas 6 h: 0<br>FRP total: 11.2 MW<br>Última detección UTC: 2026-09-07 13:08:00"
      }
    },
    {
      "type": "Feature",
      "geometry": {
        "type": "Point",
        "coordinates": [3.3388, 36.6868]
      },
      "properties": {
        "cluster_id": "ALERT-20260908-040",
        "alerta_operativa": "media",
        "score": 10.9,
        "n_focos": 3,
        "n_ultimas_6h": 0,
        "n_ultimas_24h": 2,
        "frp_total_mw": 5.9,
        "frp_max_mw": 4.2,
        "edad_min_h": 18.1,
        "ultima_deteccion_utc": "2026-09-07 13:08:00",
        "sensores": "VIIRS_NOAA20_NRT, VIIRS_SNPP_NRT",
        "satellites": "N, N20",
        "instruments": "VIIRS",
        "popup_label": "<strong>ALERT-20260908-040<\/strong><br>Nivel: media<br>Focos: 3<br>Últimas 6 h: 0<br>FRP total: 5.9 MW<br>Última detección UTC: 2026-09-07 13:08:00"
      }
    },
    {
      "type": "Feature",
      "geometry": {
        "type": "Point",
        "coordinates": [-6.7681, 42.5525]
      },
      "properties": {
        "cluster_id": "ALERT-20260908-041",
        "alerta_operativa": "media",
        "score": 10.8,
        "n_focos": 2,
        "n_ultimas_6h": 1,
        "n_ultimas_24h": 1,
        "frp_total_mw": 1.4,
        "frp_max_mw": 0.9,
        "edad_min_h": 4.5,
        "ultima_deteccion_utc": "2026-09-08 02:49:00",
        "sensores": "VIIRS_SNPP_NRT",
        "satellites": "N",
        "instruments": "VIIRS",
        "popup_label": "<strong>ALERT-20260908-041<\/strong><br>Nivel: media<br>Focos: 2<br>Últimas 6 h: 1<br>FRP total: 1.4 MW<br>Última detección UTC: 2026-09-08 02:49:00"
      }
    },
    {
      "type": "Feature",
      "geometry": {
        "type": "Point",
        "coordinates": [-4.1215, 39.937]
      },
      "properties": {
        "cluster_id": "ALERT-20260908-042",
        "alerta_operativa": "media",
        "score": 10.7,
        "n_focos": 2,
        "n_ultimas_6h": 0,
        "n_ultimas_24h": 2,
        "frp_total_mw": 9.5,
        "frp_max_mw": 5.2,
        "edad_min_h": 18.1,
        "ultima_deteccion_utc": "2026-09-07 13:10:00",
        "sensores": "VIIRS_NOAA20_NRT, VIIRS_SNPP_NRT",
        "satellites": "N, N20",
        "instruments": "VIIRS",
        "popup_label": "<strong>ALERT-20260908-042<\/strong><br>Nivel: media<br>Focos: 2<br>Últimas 6 h: 0<br>FRP total: 9.5 MW<br>Última detección UTC: 2026-09-07 13:10:00"
      }
    },
    {
      "type": "Feature",
      "geometry": {
        "type": "Point",
        "coordinates": [-5.6115, 37.3506]
      },
      "properties": {
        "cluster_id": "ALERT-20260908-043",
        "alerta_operativa": "media",
        "score": 10.1,
        "n_focos": 2,
        "n_ultimas_6h": 0,
        "n_ultimas_24h": 2,
        "frp_total_mw": 6.7,
        "frp_max_mw": 3.7,
        "edad_min_h": 16.8,
        "ultima_deteccion_utc": "2026-09-07 14:29:00",
        "sensores": "VIIRS_SNPP_NRT",
        "satellites": "N",
        "instruments": "VIIRS",
        "popup_label": "<strong>ALERT-20260908-043<\/strong><br>Nivel: media<br>Focos: 2<br>Últimas 6 h: 0<br>FRP total: 6.7 MW<br>Última detección UTC: 2026-09-07 14:29:00"
      }
    },
    {
      "type": "Feature",
      "geometry": {
        "type": "Point",
        "coordinates": [-4.8094, 37.877]
      },
      "properties": {
        "cluster_id": "ALERT-20260908-044",
        "alerta_operativa": "media",
        "score": 10.1,
        "n_focos": 2,
        "n_ultimas_6h": 0,
        "n_ultimas_24h": 2,
        "frp_total_mw": 6.6,
        "frp_max_mw": 3.3,
        "edad_min_h": 18.1,
        "ultima_deteccion_utc": "2026-09-07 13:10:00",
        "sensores": "VIIRS_NOAA20_NRT",
        "satellites": "N20",
        "instruments": "VIIRS",
        "popup_label": "<strong>ALERT-20260908-044<\/strong><br>Nivel: media<br>Focos: 2<br>Últimas 6 h: 0<br>FRP total: 6.6 MW<br>Última detección UTC: 2026-09-07 13:10:00"
      }
    },
    {
      "type": "Feature",
      "geometry": {
        "type": "Point",
        "coordinates": [3.6923, 36.7979]
      },
      "properties": {
        "cluster_id": "ALERT-20260908-045",
        "alerta_operativa": "media",
        "score": 9.9,
        "n_focos": 2,
        "n_ultimas_6h": 0,
        "n_ultimas_24h": 2,
        "frp_total_mw": 6,
        "frp_max_mw": 3.5,
        "edad_min_h": 18.4,
        "ultima_deteccion_utc": "2026-09-07 12:51:00",
        "sensores": "VIIRS_SNPP_NRT",
        "satellites": "N",
        "instruments": "VIIRS",
        "popup_label": "<strong>ALERT-20260908-045<\/strong><br>Nivel: media<br>Focos: 2<br>Últimas 6 h: 0<br>FRP total: 6 MW<br>Última detección UTC: 2026-09-07 12:51:00"
      }
    },
    {
      "type": "Feature",
      "geometry": {
        "type": "Point",
        "coordinates": [-0.9123, 37.5718]
      },
      "properties": {
        "cluster_id": "ALERT-20260908-046",
        "alerta_operativa": "media",
        "score": 9.7,
        "n_focos": 1,
        "n_ultimas_6h": 1,
        "n_ultimas_24h": 1,
        "frp_total_mw": 1.3,
        "frp_max_mw": 1.3,
        "edad_min_h": 4.5,
        "ultima_deteccion_utc": "2026-09-08 02:49:00",
        "sensores": "VIIRS_SNPP_NRT",
        "satellites": "N",
        "instruments": "VIIRS",
        "popup_label": "<strong>ALERT-20260908-046<\/strong><br>Nivel: media<br>Focos: 1<br>Últimas 6 h: 1<br>FRP total: 1.3 MW<br>Última detección UTC: 2026-09-08 02:49:00"
      }
    },
    {
      "type": "Feature",
      "geometry": {
        "type": "Point",
        "coordinates": [-8.4192, 40.2893]
      },
      "properties": {
        "cluster_id": "ALERT-20260908-047",
        "alerta_operativa": "media",
        "score": 9.5,
        "n_focos": 1,
        "n_ultimas_6h": 1,
        "n_ultimas_24h": 1,
        "frp_total_mw": 1.1,
        "frp_max_mw": 1.1,
        "edad_min_h": 4.5,
        "ultima_deteccion_utc": "2026-09-08 02:49:00",
        "sensores": "VIIRS_SNPP_NRT",
        "satellites": "N",
        "instruments": "VIIRS",
        "popup_label": "<strong>ALERT-20260908-047<\/strong><br>Nivel: media<br>Focos: 1<br>Últimas 6 h: 1<br>FRP total: 1.1 MW<br>Última detección UTC: 2026-09-08 02:49:00"
      }
    },
    {
      "type": "Feature",
      "geometry": {
        "type": "Point",
        "coordinates": [-6.5744, 34.282]
      },
      "properties": {
        "cluster_id": "ALERT-20260908-048",
        "alerta_operativa": "media",
        "score": 9.2,
        "n_focos": 1,
        "n_ultimas_6h": 1,
        "n_ultimas_24h": 1,
        "frp_total_mw": 0.8,
        "frp_max_mw": 0.8,
        "edad_min_h": 4.4,
        "ultima_deteccion_utc": "2026-09-08 02:51:00",
        "sensores": "VIIRS_SNPP_NRT",
        "satellites": "N",
        "instruments": "VIIRS",
        "popup_label": "<strong>ALERT-20260908-048<\/strong><br>Nivel: media<br>Focos: 1<br>Últimas 6 h: 1<br>FRP total: 0.8 MW<br>Última detección UTC: 2026-09-08 02:51:00"
      }
    },
    {
      "type": "Feature",
      "geometry": {
        "type": "Point",
        "coordinates": [-0.1375, 38.8357]
      },
      "properties": {
        "cluster_id": "ALERT-20260908-049",
        "alerta_operativa": "media",
        "score": 9.2,
        "n_focos": 1,
        "n_ultimas_6h": 1,
        "n_ultimas_24h": 1,
        "frp_total_mw": 0.8,
        "frp_max_mw": 0.8,
        "edad_min_h": 4.5,
        "ultima_deteccion_utc": "2026-09-08 02:49:00",
        "sensores": "VIIRS_SNPP_NRT",
        "satellites": "N",
        "instruments": "VIIRS",
        "popup_label": "<strong>ALERT-20260908-049<\/strong><br>Nivel: media<br>Focos: 1<br>Últimas 6 h: 1<br>FRP total: 0.8 MW<br>Última detección UTC: 2026-09-08 02:49:00"
      }
    },
    {
      "type": "Feature",
      "geometry": {
        "type": "Point",
        "coordinates": [-4.3302, 36.7131]
      },
      "properties": {
        "cluster_id": "ALERT-20260908-050",
        "alerta_operativa": "media",
        "score": 9.1,
        "n_focos": 1,
        "n_ultimas_6h": 1,
        "n_ultimas_24h": 1,
        "frp_total_mw": 0.7,
        "frp_max_mw": 0.7,
        "edad_min_h": 4.5,
        "ultima_deteccion_utc": "2026-09-08 02:49:00",
        "sensores": "VIIRS_SNPP_NRT",
        "satellites": "N",
        "instruments": "VIIRS",
        "popup_label": "<strong>ALERT-20260908-050<\/strong><br>Nivel: media<br>Focos: 1<br>Últimas 6 h: 1<br>FRP total: 0.7 MW<br>Última detección UTC: 2026-09-08 02:49:00"
      }
    },
    {
      "type": "Feature",
      "geometry": {
        "type": "Point",
        "coordinates": [-2.3469, 34.5948]
      },
      "properties": {
        "cluster_id": "ALERT-20260908-051",
        "alerta_operativa": "media",
        "score": 8.9,
        "n_focos": 1,
        "n_ultimas_6h": 1,
        "n_ultimas_24h": 1,
        "frp_total_mw": 0.6,
        "frp_max_mw": 0.6,
        "edad_min_h": 4.5,
        "ultima_deteccion_utc": "2026-09-08 02:49:00",
        "sensores": "VIIRS_SNPP_NRT",
        "satellites": "N",
        "instruments": "VIIRS",
        "popup_label": "<strong>ALERT-20260908-051<\/strong><br>Nivel: media<br>Focos: 1<br>Últimas 6 h: 1<br>FRP total: 0.6 MW<br>Última detección UTC: 2026-09-08 02:49:00"
      }
    },
    {
      "type": "Feature",
      "geometry": {
        "type": "Point",
        "coordinates": [-6.8537, 41.9]
      },
      "properties": {
        "cluster_id": "ALERT-20260908-052",
        "alerta_operativa": "media",
        "score": 8.7,
        "n_focos": 1,
        "n_ultimas_6h": 1,
        "n_ultimas_24h": 1,
        "frp_total_mw": 0.4,
        "frp_max_mw": 0.4,
        "edad_min_h": 4.5,
        "ultima_deteccion_utc": "2026-09-08 02:49:00",
        "sensores": "VIIRS_SNPP_NRT",
        "satellites": "N",
        "instruments": "VIIRS",
        "popup_label": "<strong>ALERT-20260908-052<\/strong><br>Nivel: media<br>Focos: 1<br>Últimas 6 h: 1<br>FRP total: 0.4 MW<br>Última detección UTC: 2026-09-08 02:49:00"
      }
    },
    {
      "type": "Feature",
      "geometry": {
        "type": "Point",
        "coordinates": [-6.3016, 43.0989]
      },
      "properties": {
        "cluster_id": "ALERT-20260908-053",
        "alerta_operativa": "media",
        "score": 8.5,
        "n_focos": 1,
        "n_ultimas_6h": 1,
        "n_ultimas_24h": 1,
        "frp_total_mw": 0.3,
        "frp_max_mw": 0.3,
        "edad_min_h": 4.5,
        "ultima_deteccion_utc": "2026-09-08 02:47:00",
        "sensores": "VIIRS_SNPP_NRT",
        "satellites": "N",
        "instruments": "VIIRS",
        "popup_label": "<strong>ALERT-20260908-053<\/strong><br>Nivel: media<br>Focos: 1<br>Últimas 6 h: 1<br>FRP total: 0.3 MW<br>Última detección UTC: 2026-09-08 02:47:00"
      }
    },
    {
      "type": "Feature",
      "geometry": {
        "type": "Point",
        "coordinates": [4.476, 35.7092]
      },
      "properties": {
        "cluster_id": "ALERT-20260908-054",
        "alerta_operativa": "seguimiento",
        "score": 11.3,
        "n_focos": 5,
        "n_ultimas_6h": 0,
        "n_ultimas_24h": 1,
        "frp_total_mw": 7.7,
        "frp_max_mw": 2.4,
        "edad_min_h": 6.1,
        "ultima_deteccion_utc": "2026-09-08 01:09:00",
        "sensores": "VIIRS_NOAA20_NRT, VIIRS_SNPP_NRT",
        "satellites": "N, N20",
        "instruments": "VIIRS",
        "popup_label": "<strong>ALERT-20260908-054<\/strong><br>Nivel: seguimiento<br>Focos: 5<br>Últimas 6 h: 0<br>FRP total: 7.7 MW<br>Última detección UTC: 2026-09-08 01:09:00"
      }
    },
    {
      "type": "Feature",
      "geometry": {
        "type": "Point",
        "coordinates": [-0.5419, 44.3432]
      },
      "properties": {
        "cluster_id": "ALERT-20260908-055",
        "alerta_operativa": "seguimiento",
        "score": 9.4,
        "n_focos": 1,
        "n_ultimas_6h": 0,
        "n_ultimas_24h": 1,
        "frp_total_mw": 24,
        "frp_max_mw": 24,
        "edad_min_h": 18.4,
        "ultima_deteccion_utc": "2026-09-07 12:53:00",
        "sensores": "VIIRS_SNPP_NRT",
        "satellites": "N",
        "instruments": "VIIRS",
        "popup_label": "<strong>ALERT-20260908-055<\/strong><br>Nivel: seguimiento<br>Focos: 1<br>Últimas 6 h: 0<br>FRP total: 24 MW<br>Última detección UTC: 2026-09-07 12:53:00"
      }
    },
    {
      "type": "Feature",
      "geometry": {
        "type": "Point",
        "coordinates": [0.5415, 40.5753]
      },
      "properties": {
        "cluster_id": "ALERT-20260908-056",
        "alerta_operativa": "seguimiento",
        "score": 8.7,
        "n_focos": 3,
        "n_ultimas_6h": 0,
        "n_ultimas_24h": 1,
        "frp_total_mw": 5.4,
        "frp_max_mw": 2.1,
        "edad_min_h": 6.2,
        "ultima_deteccion_utc": "2026-09-08 01:07:00",
        "sensores": "VIIRS_NOAA20_NRT, VIIRS_SNPP_NRT",
        "satellites": "N, N20",
        "instruments": "VIIRS",
        "popup_label": "<strong>ALERT-20260908-056<\/strong><br>Nivel: seguimiento<br>Focos: 3<br>Últimas 6 h: 0<br>FRP total: 5.4 MW<br>Última detección UTC: 2026-09-08 01:07:00"
      }
    },
    {
      "type": "Feature",
      "geometry": {
        "type": "Point",
        "coordinates": [0.0129, 28.3077]
      },
      "properties": {
        "cluster_id": "ALERT-20260908-057",
        "alerta_operativa": "seguimiento",
        "score": 8.5,
        "n_focos": 1,
        "n_ultimas_6h": 0,
        "n_ultimas_24h": 1,
        "frp_total_mw": 14.4,
        "frp_max_mw": 14.4,
        "edad_min_h": 18.5,
        "ultima_deteccion_utc": "2026-09-07 12:46:00",
        "sensores": "VIIRS_SNPP_NRT",
        "satellites": "N",
        "instruments": "VIIRS",
        "popup_label": "<strong>ALERT-20260908-057<\/strong><br>Nivel: seguimiento<br>Focos: 1<br>Últimas 6 h: 0<br>FRP total: 14.4 MW<br>Última detección UTC: 2026-09-07 12:46:00"
      }
    },
    {
      "type": "Feature",
      "geometry": {
        "type": "Point",
        "coordinates": [4.0058, 32.4013]
      },
      "properties": {
        "cluster_id": "ALERT-20260908-058",
        "alerta_operativa": "seguimiento",
        "score": 7.7,
        "n_focos": 3,
        "n_ultimas_6h": 0,
        "n_ultimas_24h": 1,
        "frp_total_mw": 2.8,
        "frp_max_mw": 1.1,
        "edad_min_h": 6.1,
        "ultima_deteccion_utc": "2026-09-08 01:09:00",
        "sensores": "VIIRS_NOAA20_NRT, VIIRS_SNPP_NRT",
        "satellites": "N, N20",
        "instruments": "VIIRS",
        "popup_label": "<strong>ALERT-20260908-058<\/strong><br>Nivel: seguimiento<br>Focos: 3<br>Últimas 6 h: 0<br>FRP total: 2.8 MW<br>Última detección UTC: 2026-09-08 01:09:00"
      }
    },
    {
      "type": "Feature",
      "geometry": {
        "type": "Point",
        "coordinates": [0.9868, 43.1466]
      },
      "properties": {
        "cluster_id": "ALERT-20260908-059",
        "alerta_operativa": "seguimiento",
        "score": 7.4,
        "n_focos": 1,
        "n_ultimas_6h": 0,
        "n_ultimas_24h": 1,
        "frp_total_mw": 8,
        "frp_max_mw": 8,
        "edad_min_h": 18.4,
        "ultima_deteccion_utc": "2026-09-07 12:51:00",
        "sensores": "VIIRS_SNPP_NRT",
        "satellites": "N",
        "instruments": "VIIRS",
        "popup_label": "<strong>ALERT-20260908-059<\/strong><br>Nivel: seguimiento<br>Focos: 1<br>Últimas 6 h: 0<br>FRP total: 8 MW<br>Última detección UTC: 2026-09-07 12:51:00"
      }
    },
    {
      "type": "Feature",
      "geometry": {
        "type": "Point",
        "coordinates": [4.6532, 36.7091]
      },
      "properties": {
        "cluster_id": "ALERT-20260908-060",
        "alerta_operativa": "seguimiento",
        "score": 7.4,
        "n_focos": 1,
        "n_ultimas_6h": 0,
        "n_ultimas_24h": 1,
        "frp_total_mw": 7.9,
        "frp_max_mw": 7.9,
        "edad_min_h": 18.4,
        "ultima_deteccion_utc": "2026-09-07 12:51:00",
        "sensores": "VIIRS_SNPP_NRT",
        "satellites": "N",
        "instruments": "VIIRS",
        "popup_label": "<strong>ALERT-20260908-060<\/strong><br>Nivel: seguimiento<br>Focos: 1<br>Últimas 6 h: 0<br>FRP total: 7.9 MW<br>Última detección UTC: 2026-09-07 12:51:00"
      }
    },
    {
      "type": "Feature",
      "geometry": {
        "type": "Point",
        "coordinates": [1.3566, 35.3394]
      },
      "properties": {
        "cluster_id": "ALERT-20260908-061",
        "alerta_operativa": "seguimiento",
        "score": 7.2,
        "n_focos": 2,
        "n_ultimas_6h": 0,
        "n_ultimas_24h": 1,
        "frp_total_mw": 4,
        "frp_max_mw": 3.1,
        "edad_min_h": 18.1,
        "ultima_deteccion_utc": "2026-09-07 13:08:00",
        "sensores": "VIIRS_NOAA20_NRT",
        "satellites": "N20",
        "instruments": "VIIRS",
        "popup_label": "<strong>ALERT-20260908-061<\/strong><br>Nivel: seguimiento<br>Focos: 2<br>Últimas 6 h: 0<br>FRP total: 4 MW<br>Última detección UTC: 2026-09-07 13:08:00"
      }
    },
    {
      "type": "Feature",
      "geometry": {
        "type": "Point",
        "coordinates": [-2.674, 42.8646]
      },
      "properties": {
        "cluster_id": "ALERT-20260908-062",
        "alerta_operativa": "seguimiento",
        "score": 6.8,
        "n_focos": 1,
        "n_ultimas_6h": 0,
        "n_ultimas_24h": 1,
        "frp_total_mw": 5.6,
        "frp_max_mw": 5.6,
        "edad_min_h": 18.4,
        "ultima_deteccion_utc": "2026-09-07 12:51:00",
        "sensores": "VIIRS_SNPP_NRT",
        "satellites": "N",
        "instruments": "VIIRS",
        "popup_label": "<strong>ALERT-20260908-062<\/strong><br>Nivel: seguimiento<br>Focos: 1<br>Últimas 6 h: 0<br>FRP total: 5.6 MW<br>Última detección UTC: 2026-09-07 12:51:00"
      }
    },
    {
      "type": "Feature",
      "geometry": {
        "type": "Point",
        "coordinates": [-5.8749, 41.7631]
      },
      "properties": {
        "cluster_id": "ALERT-20260908-063",
        "alerta_operativa": "seguimiento",
        "score": 6.1,
        "n_focos": 1,
        "n_ultimas_6h": 0,
        "n_ultimas_24h": 1,
        "frp_total_mw": 3.8,
        "frp_max_mw": 3.8,
        "edad_min_h": 18.1,
        "ultima_deteccion_utc": "2026-09-07 13:10:00",
        "sensores": "VIIRS_NOAA20_NRT",
        "satellites": "N20",
        "instruments": "VIIRS",
        "popup_label": "<strong>ALERT-20260908-063<\/strong><br>Nivel: seguimiento<br>Focos: 1<br>Últimas 6 h: 0<br>FRP total: 3.8 MW<br>Última detección UTC: 2026-09-07 13:10:00"
      }
    },
    {
      "type": "Feature",
      "geometry": {
        "type": "Point",
        "coordinates": [-4.0688, 38.0308]
      },
      "properties": {
        "cluster_id": "ALERT-20260908-064",
        "alerta_operativa": "seguimiento",
        "score": 6.1,
        "n_focos": 1,
        "n_ultimas_6h": 0,
        "n_ultimas_24h": 1,
        "frp_total_mw": 3.7,
        "frp_max_mw": 3.7,
        "edad_min_h": 18.1,
        "ultima_deteccion_utc": "2026-09-07 13:10:00",
        "sensores": "VIIRS_NOAA20_NRT",
        "satellites": "N20",
        "instruments": "VIIRS",
        "popup_label": "<strong>ALERT-20260908-064<\/strong><br>Nivel: seguimiento<br>Focos: 1<br>Últimas 6 h: 0<br>FRP total: 3.7 MW<br>Última detección UTC: 2026-09-07 13:10:00"
      }
    },
    {
      "type": "Feature",
      "geometry": {
        "type": "Point",
        "coordinates": [-3.7144, 37.3104]
      },
      "properties": {
        "cluster_id": "ALERT-20260908-065",
        "alerta_operativa": "seguimiento",
        "score": 5.9,
        "n_focos": 1,
        "n_ultimas_6h": 0,
        "n_ultimas_24h": 1,
        "frp_total_mw": 3.3,
        "frp_max_mw": 3.3,
        "edad_min_h": 18.1,
        "ultima_deteccion_utc": "2026-09-07 13:08:00",
        "sensores": "VIIRS_NOAA20_NRT",
        "satellites": "N20",
        "instruments": "VIIRS",
        "popup_label": "<strong>ALERT-20260908-065<\/strong><br>Nivel: seguimiento<br>Focos: 1<br>Últimas 6 h: 0<br>FRP total: 3.3 MW<br>Última detección UTC: 2026-09-07 13:08:00"
      }
    },
    {
      "type": "Feature",
      "geometry": {
        "type": "Point",
        "coordinates": [2.232, 42.9752]
      },
      "properties": {
        "cluster_id": "ALERT-20260908-066",
        "alerta_operativa": "seguimiento",
        "score": 5.8,
        "n_focos": 1,
        "n_ultimas_6h": 0,
        "n_ultimas_24h": 1,
        "frp_total_mw": 3.1,
        "frp_max_mw": 3.1,
        "edad_min_h": 18.4,
        "ultima_deteccion_utc": "2026-09-07 12:51:00",
        "sensores": "VIIRS_SNPP_NRT",
        "satellites": "N",
        "instruments": "VIIRS",
        "popup_label": "<strong>ALERT-20260908-066<\/strong><br>Nivel: seguimiento<br>Focos: 1<br>Últimas 6 h: 0<br>FRP total: 3.1 MW<br>Última detección UTC: 2026-09-07 12:51:00"
      }
    },
    {
      "type": "Feature",
      "geometry": {
        "type": "Point",
        "coordinates": [2.7414, 42.8015]
      },
      "properties": {
        "cluster_id": "ALERT-20260908-067",
        "alerta_operativa": "seguimiento",
        "score": 5.4,
        "n_focos": 1,
        "n_ultimas_6h": 0,
        "n_ultimas_24h": 1,
        "frp_total_mw": 2.3,
        "frp_max_mw": 2.3,
        "edad_min_h": 18.4,
        "ultima_deteccion_utc": "2026-09-07 12:51:00",
        "sensores": "VIIRS_SNPP_NRT",
        "satellites": "N",
        "instruments": "VIIRS",
        "popup_label": "<strong>ALERT-20260908-067<\/strong><br>Nivel: seguimiento<br>Focos: 1<br>Últimas 6 h: 0<br>FRP total: 2.3 MW<br>Última detección UTC: 2026-09-07 12:51:00"
      }
    },
    {
      "type": "Feature",
      "geometry": {
        "type": "Point",
        "coordinates": [1.1494, 43.2707]
      },
      "properties": {
        "cluster_id": "ALERT-20260908-068",
        "alerta_operativa": "seguimiento",
        "score": 5.3,
        "n_focos": 1,
        "n_ultimas_6h": 0,
        "n_ultimas_24h": 1,
        "frp_total_mw": 2.2,
        "frp_max_mw": 2.2,
        "edad_min_h": 18.4,
        "ultima_deteccion_utc": "2026-09-07 12:51:00",
        "sensores": "VIIRS_SNPP_NRT",
        "satellites": "N",
        "instruments": "VIIRS",
        "popup_label": "<strong>ALERT-20260908-068<\/strong><br>Nivel: seguimiento<br>Focos: 1<br>Últimas 6 h: 0<br>FRP total: 2.2 MW<br>Última detección UTC: 2026-09-07 12:51:00"
      }
    },
    {
      "type": "Feature",
      "geometry": {
        "type": "Point",
        "coordinates": [-7.2716, 33.3323]
      },
      "properties": {
        "cluster_id": "ALERT-20260908-069",
        "alerta_operativa": "seguimiento",
        "score": 5.3,
        "n_focos": 1,
        "n_ultimas_6h": 0,
        "n_ultimas_24h": 1,
        "frp_total_mw": 2.1,
        "frp_max_mw": 2.1,
        "edad_min_h": 16.8,
        "ultima_deteccion_utc": "2026-09-07 14:27:00",
        "sensores": "VIIRS_SNPP_NRT",
        "satellites": "N",
        "instruments": "VIIRS",
        "popup_label": "<strong>ALERT-20260908-069<\/strong><br>Nivel: seguimiento<br>Focos: 1<br>Últimas 6 h: 0<br>FRP total: 2.1 MW<br>Última detección UTC: 2026-09-07 14:27:00"
      }
    },
    {
      "type": "Feature",
      "geometry": {
        "type": "Point",
        "coordinates": [4.9656, 43.9367]
      },
      "properties": {
        "cluster_id": "ALERT-20260908-070",
        "alerta_operativa": "seguimiento",
        "score": 5.3,
        "n_focos": 1,
        "n_ultimas_6h": 0,
        "n_ultimas_24h": 1,
        "frp_total_mw": 2.1,
        "frp_max_mw": 2.1,
        "edad_min_h": 18.4,
        "ultima_deteccion_utc": "2026-09-07 12:51:00",
        "sensores": "VIIRS_SNPP_NRT",
        "satellites": "N",
        "instruments": "VIIRS",
        "popup_label": "<strong>ALERT-20260908-070<\/strong><br>Nivel: seguimiento<br>Focos: 1<br>Últimas 6 h: 0<br>FRP total: 2.1 MW<br>Última detección UTC: 2026-09-07 12:51:00"
      }
    },
    {
      "type": "Feature",
      "geometry": {
        "type": "Point",
        "coordinates": [-0.0083, 43.2902]
      },
      "properties": {
        "cluster_id": "ALERT-20260908-071",
        "alerta_operativa": "seguimiento",
        "score": 5.2,
        "n_focos": 1,
        "n_ultimas_6h": 0,
        "n_ultimas_24h": 1,
        "frp_total_mw": 2,
        "frp_max_mw": 2,
        "edad_min_h": 18.4,
        "ultima_deteccion_utc": "2026-09-07 12:51:00",
        "sensores": "VIIRS_SNPP_NRT",
        "satellites": "N",
        "instruments": "VIIRS",
        "popup_label": "<strong>ALERT-20260908-071<\/strong><br>Nivel: seguimiento<br>Focos: 1<br>Últimas 6 h: 0<br>FRP total: 2 MW<br>Última detección UTC: 2026-09-07 12:51:00"
      }
    },
    {
      "type": "Feature",
      "geometry": {
        "type": "Point",
        "coordinates": [-7.1535, 33.4639]
      },
      "properties": {
        "cluster_id": "ALERT-20260908-072",
        "alerta_operativa": "seguimiento",
        "score": 5.2,
        "n_focos": 1,
        "n_ultimas_6h": 0,
        "n_ultimas_24h": 1,
        "frp_total_mw": 2,
        "frp_max_mw": 2,
        "edad_min_h": 18.1,
        "ultima_deteccion_utc": "2026-09-07 13:08:00",
        "sensores": "VIIRS_NOAA20_NRT",
        "satellites": "N20",
        "instruments": "VIIRS",
        "popup_label": "<strong>ALERT-20260908-072<\/strong><br>Nivel: seguimiento<br>Focos: 1<br>Últimas 6 h: 0<br>FRP total: 2 MW<br>Última detección UTC: 2026-09-07 13:08:00"
      }
    },
    {
      "type": "Feature",
      "geometry": {
        "type": "Point",
        "coordinates": [2.9287, 36.141]
      },
      "properties": {
        "cluster_id": "ALERT-20260908-073",
        "alerta_operativa": "seguimiento",
        "score": 5.1,
        "n_focos": 2,
        "n_ultimas_6h": 0,
        "n_ultimas_24h": 1,
        "frp_total_mw": 0.7,
        "frp_max_mw": 0.5,
        "edad_min_h": 6.1,
        "ultima_deteccion_utc": "2026-09-08 01:09:00",
        "sensores": "VIIRS_NOAA20_NRT, VIIRS_SNPP_NRT",
        "satellites": "N, N20",
        "instruments": "VIIRS",
        "popup_label": "<strong>ALERT-20260908-073<\/strong><br>Nivel: seguimiento<br>Focos: 2<br>Últimas 6 h: 0<br>FRP total: 0.7 MW<br>Última detección UTC: 2026-09-08 01:09:00"
      }
    },
    {
      "type": "Feature",
      "geometry": {
        "type": "Point",
        "coordinates": [1.2566, 41.3163]
      },
      "properties": {
        "cluster_id": "ALERT-20260908-074",
        "alerta_operativa": "seguimiento",
        "score": 5,
        "n_focos": 1,
        "n_ultimas_6h": 0,
        "n_ultimas_24h": 1,
        "frp_total_mw": 1.7,
        "frp_max_mw": 1.7,
        "edad_min_h": 18.4,
        "ultima_deteccion_utc": "2026-09-07 12:51:00",
        "sensores": "VIIRS_SNPP_NRT",
        "satellites": "N",
        "instruments": "VIIRS",
        "popup_label": "<strong>ALERT-20260908-074<\/strong><br>Nivel: seguimiento<br>Focos: 1<br>Últimas 6 h: 0<br>FRP total: 1.7 MW<br>Última detección UTC: 2026-09-07 12:51:00"
      }
    },
    {
      "type": "Feature",
      "geometry": {
        "type": "Point",
        "coordinates": [1.611, 41.248]
      },
      "properties": {
        "cluster_id": "ALERT-20260908-075",
        "alerta_operativa": "seguimiento",
        "score": 4.9,
        "n_focos": 1,
        "n_ultimas_6h": 0,
        "n_ultimas_24h": 1,
        "frp_total_mw": 1.6,
        "frp_max_mw": 1.6,
        "edad_min_h": 18.4,
        "ultima_deteccion_utc": "2026-09-07 12:51:00",
        "sensores": "VIIRS_SNPP_NRT",
        "satellites": "N",
        "instruments": "VIIRS",
        "popup_label": "<strong>ALERT-20260908-075<\/strong><br>Nivel: seguimiento<br>Focos: 1<br>Últimas 6 h: 0<br>FRP total: 1.6 MW<br>Última detección UTC: 2026-09-07 12:51:00"
      }
    },
    {
      "type": "Feature",
      "geometry": {
        "type": "Point",
        "coordinates": [-0.9389, 35.5659]
      },
      "properties": {
        "cluster_id": "ALERT-20260908-076",
        "alerta_operativa": "seguimiento",
        "score": 4.9,
        "n_focos": 1,
        "n_ultimas_6h": 0,
        "n_ultimas_24h": 1,
        "frp_total_mw": 1.6,
        "frp_max_mw": 1.6,
        "edad_min_h": 18.1,
        "ultima_deteccion_utc": "2026-09-07 13:08:00",
        "sensores": "VIIRS_NOAA20_NRT",
        "satellites": "N20",
        "instruments": "VIIRS",
        "popup_label": "<strong>ALERT-20260908-076<\/strong><br>Nivel: seguimiento<br>Focos: 1<br>Últimas 6 h: 0<br>FRP total: 1.6 MW<br>Última detección UTC: 2026-09-07 13:08:00"
      }
    },
    {
      "type": "Feature",
      "geometry": {
        "type": "Point",
        "coordinates": [-9.2547, 38.7779]
      },
      "properties": {
        "cluster_id": "ALERT-20260908-077",
        "alerta_operativa": "seguimiento",
        "score": 4.8,
        "n_focos": 1,
        "n_ultimas_6h": 0,
        "n_ultimas_24h": 1,
        "frp_total_mw": 1.5,
        "frp_max_mw": 1.5,
        "edad_min_h": 18.1,
        "ultima_deteccion_utc": "2026-09-07 13:10:00",
        "sensores": "VIIRS_NOAA20_NRT",
        "satellites": "N20",
        "instruments": "VIIRS",
        "popup_label": "<strong>ALERT-20260908-077<\/strong><br>Nivel: seguimiento<br>Focos: 1<br>Últimas 6 h: 0<br>FRP total: 1.5 MW<br>Última detección UTC: 2026-09-07 13:10:00"
      }
    },
    {
      "type": "Feature",
      "geometry": {
        "type": "Point",
        "coordinates": [-3.8844, 39.6486]
      },
      "properties": {
        "cluster_id": "ALERT-20260908-078",
        "alerta_operativa": "seguimiento",
        "score": 4.8,
        "n_focos": 1,
        "n_ultimas_6h": 0,
        "n_ultimas_24h": 1,
        "frp_total_mw": 1.4,
        "frp_max_mw": 1.4,
        "edad_min_h": 18.1,
        "ultima_deteccion_utc": "2026-09-07 13:10:00",
        "sensores": "VIIRS_NOAA20_NRT",
        "satellites": "N20",
        "instruments": "VIIRS",
        "popup_label": "<strong>ALERT-20260908-078<\/strong><br>Nivel: seguimiento<br>Focos: 1<br>Últimas 6 h: 0<br>FRP total: 1.4 MW<br>Última detección UTC: 2026-09-07 13:10:00"
      }
    },
    {
      "type": "Feature",
      "geometry": {
        "type": "Point",
        "coordinates": [-1.9128, 38.0153]
      },
      "properties": {
        "cluster_id": "ALERT-20260908-079",
        "alerta_operativa": "seguimiento",
        "score": 4.8,
        "n_focos": 1,
        "n_ultimas_6h": 0,
        "n_ultimas_24h": 1,
        "frp_total_mw": 1.4,
        "frp_max_mw": 1.4,
        "edad_min_h": 18.1,
        "ultima_deteccion_utc": "2026-09-07 13:08:00",
        "sensores": "VIIRS_NOAA20_NRT",
        "satellites": "N20",
        "instruments": "VIIRS",
        "popup_label": "<strong>ALERT-20260908-079<\/strong><br>Nivel: seguimiento<br>Focos: 1<br>Últimas 6 h: 0<br>FRP total: 1.4 MW<br>Última detección UTC: 2026-09-07 13:08:00"
      }
    },
    {
      "type": "Feature",
      "geometry": {
        "type": "Point",
        "coordinates": [0.4599, 44.3778]
      },
      "properties": {
        "cluster_id": "ALERT-20260908-080",
        "alerta_operativa": "seguimiento",
        "score": 4.7,
        "n_focos": 1,
        "n_ultimas_6h": 0,
        "n_ultimas_24h": 1,
        "frp_total_mw": 1.3,
        "frp_max_mw": 1.3,
        "edad_min_h": 18.4,
        "ultima_deteccion_utc": "2026-09-07 12:53:00",
        "sensores": "VIIRS_SNPP_NRT",
        "satellites": "N",
        "instruments": "VIIRS",
        "popup_label": "<strong>ALERT-20260908-080<\/strong><br>Nivel: seguimiento<br>Focos: 1<br>Últimas 6 h: 0<br>FRP total: 1.3 MW<br>Última detección UTC: 2026-09-07 12:53:00"
      }
    },
    {
      "type": "Feature",
      "geometry": {
        "type": "Point",
        "coordinates": [-0.1614, 28.2115]
      },
      "properties": {
        "cluster_id": "ALERT-20260908-081",
        "alerta_operativa": "seguimiento",
        "score": 4.6,
        "n_focos": 1,
        "n_ultimas_6h": 0,
        "n_ultimas_24h": 1,
        "frp_total_mw": 1.2,
        "frp_max_mw": 1.2,
        "edad_min_h": 6.1,
        "ultima_deteccion_utc": "2026-09-08 01:11:00",
        "sensores": "VIIRS_SNPP_NRT",
        "satellites": "N",
        "instruments": "VIIRS",
        "popup_label": "<strong>ALERT-20260908-081<\/strong><br>Nivel: seguimiento<br>Focos: 1<br>Últimas 6 h: 0<br>FRP total: 1.2 MW<br>Última detección UTC: 2026-09-08 01:11:00"
      }
    },
    {
      "type": "Feature",
      "geometry": {
        "type": "Point",
        "coordinates": [2.0912, 41.3384]
      },
      "properties": {
        "cluster_id": "ALERT-20260908-082",
        "alerta_operativa": "seguimiento",
        "score": 3.9,
        "n_focos": 1,
        "n_ultimas_6h": 0,
        "n_ultimas_24h": 1,
        "frp_total_mw": 0.6,
        "frp_max_mw": 0.6,
        "edad_min_h": 18.4,
        "ultima_deteccion_utc": "2026-09-07 12:51:00",
        "sensores": "VIIRS_SNPP_NRT",
        "satellites": "N",
        "instruments": "VIIRS",
        "popup_label": "<strong>ALERT-20260908-082<\/strong><br>Nivel: seguimiento<br>Focos: 1<br>Últimas 6 h: 0<br>FRP total: 0.6 MW<br>Última detección UTC: 2026-09-07 12:51:00"
      }
    },
    {
      "type": "Feature",
      "geometry": {
        "type": "Point",
        "coordinates": [-5.3783, 41.5819]
      },
      "properties": {
        "cluster_id": "ALERT-20260908-083",
        "alerta_operativa": "informativa",
        "score": 12.2,
        "n_focos": 8,
        "n_ultimas_6h": 0,
        "n_ultimas_24h": 0,
        "frp_total_mw": 7.1,
        "frp_max_mw": 1.5,
        "edad_min_h": 27.9,
        "ultima_deteccion_utc": "2026-09-07 03:25:00",
        "sensores": "VIIRS_NOAA20_NRT, VIIRS_SNPP_NRT",
        "satellites": "N, N20",
        "instruments": "VIIRS",
        "popup_label": "<strong>ALERT-20260908-083<\/strong><br>Nivel: informativa<br>Focos: 8<br>Últimas 6 h: 0<br>FRP total: 7.1 MW<br>Última detección UTC: 2026-09-07 03:25:00"
      }
    },
    {
      "type": "Feature",
      "geometry": {
        "type": "Point",
        "coordinates": [4.9265, 36.4134]
      },
      "properties": {
        "cluster_id": "ALERT-20260908-084",
        "alerta_operativa": "informativa",
        "score": 9.9,
        "n_focos": 5,
        "n_ultimas_6h": 0,
        "n_ultimas_24h": 0,
        "frp_total_mw": 10.5,
        "frp_max_mw": 3.2,
        "edad_min_h": 29.5,
        "ultima_deteccion_utc": "2026-09-07 01:47:00",
        "sensores": "VIIRS_NOAA20_NRT, VIIRS_SNPP_NRT",
        "satellites": "N, N20",
        "instruments": "VIIRS",
        "popup_label": "<strong>ALERT-20260908-084<\/strong><br>Nivel: informativa<br>Focos: 5<br>Últimas 6 h: 0<br>FRP total: 10.5 MW<br>Última detección UTC: 2026-09-07 01:47:00"
      }
    },
    {
      "type": "Feature",
      "geometry": {
        "type": "Point",
        "coordinates": [-1.3833, 37.829]
      },
      "properties": {
        "cluster_id": "ALERT-20260908-085",
        "alerta_operativa": "informativa",
        "score": 9.6,
        "n_focos": 4,
        "n_ultimas_6h": 0,
        "n_ultimas_24h": 0,
        "frp_total_mw": 15.5,
        "frp_max_mw": 6.4,
        "edad_min_h": 29.5,
        "ultima_deteccion_utc": "2026-09-07 01:47:00",
        "sensores": "VIIRS_NOAA20_NRT, VIIRS_SNPP_NRT",
        "satellites": "N, N20",
        "instruments": "VIIRS",
        "popup_label": "<strong>ALERT-20260908-085<\/strong><br>Nivel: informativa<br>Focos: 4<br>Últimas 6 h: 0<br>FRP total: 15.5 MW<br>Última detección UTC: 2026-09-07 01:47:00"
      }
    },
    {
      "type": "Feature",
      "geometry": {
        "type": "Point",
        "coordinates": [0.3341, 28.0957]
      },
      "properties": {
        "cluster_id": "ALERT-20260908-086",
        "alerta_operativa": "informativa",
        "score": 9.4,
        "n_focos": 3,
        "n_ultimas_6h": 0,
        "n_ultimas_24h": 0,
        "frp_total_mw": 23.6,
        "frp_max_mw": 10.4,
        "edad_min_h": 29.5,
        "ultima_deteccion_utc": "2026-09-07 01:49:00",
        "sensores": "VIIRS_NOAA20_NRT, VIIRS_SNPP_NRT",
        "satellites": "N, N20",
        "instruments": "VIIRS",
        "popup_label": "<strong>ALERT-20260908-086<\/strong><br>Nivel: informativa<br>Focos: 3<br>Últimas 6 h: 0<br>FRP total: 23.6 MW<br>Última detección UTC: 2026-09-07 01:49:00"
      }
    },
    {
      "type": "Feature",
      "geometry": {
        "type": "Point",
        "coordinates": [1.9775, 41.4544]
      },
      "properties": {
        "cluster_id": "ALERT-20260908-087",
        "alerta_operativa": "informativa",
        "score": 4.6,
        "n_focos": 2,
        "n_ultimas_6h": 0,
        "n_ultimas_24h": 0,
        "frp_total_mw": 2.7,
        "frp_max_mw": 1.9,
        "edad_min_h": 29.5,
        "ultima_deteccion_utc": "2026-09-07 01:45:00",
        "sensores": "VIIRS_NOAA20_NRT, VIIRS_SNPP_NRT",
        "satellites": "N, N20",
        "instruments": "VIIRS",
        "popup_label": "<strong>ALERT-20260908-087<\/strong><br>Nivel: informativa<br>Focos: 2<br>Últimas 6 h: 0<br>FRP total: 2.7 MW<br>Última detección UTC: 2026-09-07 01:45:00"
      }
    },
    {
      "type": "Feature",
      "geometry": {
        "type": "Point",
        "coordinates": [2.0581, 34.438]
      },
      "properties": {
        "cluster_id": "ALERT-20260908-088",
        "alerta_operativa": "informativa",
        "score": 4.5,
        "n_focos": 2,
        "n_ultimas_6h": 0,
        "n_ultimas_24h": 0,
        "frp_total_mw": 2.5,
        "frp_max_mw": 1.4,
        "edad_min_h": 29.5,
        "ultima_deteccion_utc": "2026-09-07 01:47:00",
        "sensores": "VIIRS_NOAA20_NRT, VIIRS_SNPP_NRT",
        "satellites": "N, N20",
        "instruments": "VIIRS",
        "popup_label": "<strong>ALERT-20260908-088<\/strong><br>Nivel: informativa<br>Focos: 2<br>Últimas 6 h: 0<br>FRP total: 2.5 MW<br>Última detección UTC: 2026-09-07 01:47:00"
      }
    },
    {
      "type": "Feature",
      "geometry": {
        "type": "Point",
        "coordinates": [-3.0251, 43.31]
      },
      "properties": {
        "cluster_id": "ALERT-20260908-089",
        "alerta_operativa": "informativa",
        "score": 4.5,
        "n_focos": 2,
        "n_ultimas_6h": 0,
        "n_ultimas_24h": 0,
        "frp_total_mw": 2.5,
        "frp_max_mw": 1.3,
        "edad_min_h": 29.8,
        "ultima_deteccion_utc": "2026-09-07 01:26:00",
        "sensores": "VIIRS_SNPP_NRT",
        "satellites": "N",
        "instruments": "VIIRS",
        "popup_label": "<strong>ALERT-20260908-089<\/strong><br>Nivel: informativa<br>Focos: 2<br>Últimas 6 h: 0<br>FRP total: 2.5 MW<br>Última detección UTC: 2026-09-07 01:26:00"
      }
    },
    {
      "type": "Feature",
      "geometry": {
        "type": "Point",
        "coordinates": [-0.5427, 42.9253]
      },
      "properties": {
        "cluster_id": "ALERT-20260908-090",
        "alerta_operativa": "informativa",
        "score": 4.1,
        "n_focos": 2,
        "n_ultimas_6h": 0,
        "n_ultimas_24h": 0,
        "frp_total_mw": 1.8,
        "frp_max_mw": 0.9,
        "edad_min_h": 28.1,
        "ultima_deteccion_utc": "2026-09-07 03:08:00",
        "sensores": "VIIRS_NOAA20_NRT, VIIRS_SNPP_NRT",
        "satellites": "N, N20",
        "instruments": "VIIRS",
        "popup_label": "<strong>ALERT-20260908-090<\/strong><br>Nivel: informativa<br>Focos: 2<br>Últimas 6 h: 0<br>FRP total: 1.8 MW<br>Última detección UTC: 2026-09-07 03:08:00"
      }
    },
    {
      "type": "Feature",
      "geometry": {
        "type": "Point",
        "coordinates": [-2.2186, 43.0406]
      },
      "properties": {
        "cluster_id": "ALERT-20260908-091",
        "alerta_operativa": "informativa",
        "score": 3.9,
        "n_focos": 2,
        "n_ultimas_6h": 0,
        "n_ultimas_24h": 0,
        "frp_total_mw": 1.6,
        "frp_max_mw": 0.9,
        "edad_min_h": 29.5,
        "ultima_deteccion_utc": "2026-09-07 01:45:00",
        "sensores": "VIIRS_NOAA20_NRT, VIIRS_SNPP_NRT",
        "satellites": "N, N20",
        "instruments": "VIIRS",
        "popup_label": "<strong>ALERT-20260908-091<\/strong><br>Nivel: informativa<br>Focos: 2<br>Últimas 6 h: 0<br>FRP total: 1.6 MW<br>Última detección UTC: 2026-09-07 01:45:00"
      }
    },
    {
      "type": "Feature",
      "geometry": {
        "type": "Point",
        "coordinates": [-4.1693, 40.1561]
      },
      "properties": {
        "cluster_id": "ALERT-20260908-092",
        "alerta_operativa": "informativa",
        "score": 3.2,
        "n_focos": 1,
        "n_ultimas_6h": 0,
        "n_ultimas_24h": 0,
        "frp_total_mw": 2,
        "frp_max_mw": 2,
        "edad_min_h": 27.8,
        "ultima_deteccion_utc": "2026-09-07 03:28:00",
        "sensores": "VIIRS_NOAA20_NRT",
        "satellites": "N20",
        "instruments": "VIIRS",
        "popup_label": "<strong>ALERT-20260908-092<\/strong><br>Nivel: informativa<br>Focos: 1<br>Últimas 6 h: 0<br>FRP total: 2 MW<br>Última detección UTC: 2026-09-07 03:28:00"
      }
    },
    {
      "type": "Feature",
      "geometry": {
        "type": "Point",
        "coordinates": [0.5412, 35.7843]
      },
      "properties": {
        "cluster_id": "ALERT-20260908-093",
        "alerta_operativa": "informativa",
        "score": 3.1,
        "n_focos": 1,
        "n_ultimas_6h": 0,
        "n_ultimas_24h": 0,
        "frp_total_mw": 1.8,
        "frp_max_mw": 1.8,
        "edad_min_h": 29.5,
        "ultima_deteccion_utc": "2026-09-07 01:47:00",
        "sensores": "VIIRS_NOAA20_NRT",
        "satellites": "N20",
        "instruments": "VIIRS",
        "popup_label": "<strong>ALERT-20260908-093<\/strong><br>Nivel: informativa<br>Focos: 1<br>Últimas 6 h: 0<br>FRP total: 1.8 MW<br>Última detección UTC: 2026-09-07 01:47:00"
      }
    },
    {
      "type": "Feature",
      "geometry": {
        "type": "Point",
        "coordinates": [0.1255, 36.0183]
      },
      "properties": {
        "cluster_id": "ALERT-20260908-094",
        "alerta_operativa": "informativa",
        "score": 2.8,
        "n_focos": 1,
        "n_ultimas_6h": 0,
        "n_ultimas_24h": 0,
        "frp_total_mw": 1.4,
        "frp_max_mw": 1.4,
        "edad_min_h": 29.5,
        "ultima_deteccion_utc": "2026-09-07 01:47:00",
        "sensores": "VIIRS_NOAA20_NRT",
        "satellites": "N20",
        "instruments": "VIIRS",
        "popup_label": "<strong>ALERT-20260908-094<\/strong><br>Nivel: informativa<br>Focos: 1<br>Últimas 6 h: 0<br>FRP total: 1.4 MW<br>Última detección UTC: 2026-09-07 01:47:00"
      }
    },
    {
      "type": "Feature",
      "geometry": {
        "type": "Point",
        "coordinates": [-1.4866, 41.4748]
      },
      "properties": {
        "cluster_id": "ALERT-20260908-095",
        "alerta_operativa": "informativa",
        "score": 2.8,
        "n_focos": 1,
        "n_ultimas_6h": 0,
        "n_ultimas_24h": 0,
        "frp_total_mw": 1.4,
        "frp_max_mw": 1.4,
        "edad_min_h": 29.5,
        "ultima_deteccion_utc": "2026-09-07 01:45:00",
        "sensores": "VIIRS_NOAA20_NRT",
        "satellites": "N20",
        "instruments": "VIIRS",
        "popup_label": "<strong>ALERT-20260908-095<\/strong><br>Nivel: informativa<br>Focos: 1<br>Últimas 6 h: 0<br>FRP total: 1.4 MW<br>Última detección UTC: 2026-09-07 01:45:00"
      }
    },
    {
      "type": "Feature",
      "geometry": {
        "type": "Point",
        "coordinates": [0.3285, 34.8004]
      },
      "properties": {
        "cluster_id": "ALERT-20260908-096",
        "alerta_operativa": "informativa",
        "score": 2.5,
        "n_focos": 1,
        "n_ultimas_6h": 0,
        "n_ultimas_24h": 0,
        "frp_total_mw": 1.1,
        "frp_max_mw": 1.1,
        "edad_min_h": 29.5,
        "ultima_deteccion_utc": "2026-09-07 01:47:00",
        "sensores": "VIIRS_NOAA20_NRT",
        "satellites": "N20",
        "instruments": "VIIRS",
        "popup_label": "<strong>ALERT-20260908-096<\/strong><br>Nivel: informativa<br>Focos: 1<br>Últimas 6 h: 0<br>FRP total: 1.1 MW<br>Última detección UTC: 2026-09-07 01:47:00"
      }
    },
    {
      "type": "Feature",
      "geometry": {
        "type": "Point",
        "coordinates": [-2.7699, 36.7483]
      },
      "properties": {
        "cluster_id": "ALERT-20260908-097",
        "alerta_operativa": "informativa",
        "score": 1.8,
        "n_focos": 1,
        "n_ultimas_6h": 0,
        "n_ultimas_24h": 0,
        "frp_total_mw": 0.5,
        "frp_max_mw": 0.5,
        "edad_min_h": 28.1,
        "ultima_deteccion_utc": "2026-09-07 03:08:00",
        "sensores": "VIIRS_SNPP_NRT",
        "satellites": "N",
        "instruments": "VIIRS",
        "popup_label": "<strong>ALERT-20260908-097<\/strong><br>Nivel: informativa<br>Focos: 1<br>Últimas 6 h: 0<br>FRP total: 0.5 MW<br>Última detección UTC: 2026-09-07 03:08:00"
      }
    },
    {
      "type": "Feature",
      "geometry": {
        "type": "Point",
        "coordinates": [-1.5112, 42.9223]
      },
      "properties": {
        "cluster_id": "ALERT-20260908-098",
        "alerta_operativa": "informativa",
        "score": 1.7,
        "n_focos": 1,
        "n_ultimas_6h": 0,
        "n_ultimas_24h": 0,
        "frp_total_mw": 0.4,
        "frp_max_mw": 0.4,
        "edad_min_h": 28.1,
        "ultima_deteccion_utc": "2026-09-07 03:08:00",
        "sensores": "VIIRS_SNPP_NRT",
        "satellites": "N",
        "instruments": "VIIRS",
        "popup_label": "<strong>ALERT-20260908-098<\/strong><br>Nivel: informativa<br>Focos: 1<br>Últimas 6 h: 0<br>FRP total: 0.4 MW<br>Última detección UTC: 2026-09-07 03:08:00"
      }
    }
  ]
}
